{
"type": "FeatureCollection",
"name": "01",
"crs": { "type": "name", "properties": { "name": "urn:ogc:def:crs:OGC:1.3:CRS84" } },
"features": [
{ "type": "Feature", "properties": { "code": "01001", "stateCode": "01", "municipalityCode": "001", "name": "Aguascalientes" }, "geometry": { "type": "Polygon", "coordinates": [ [ [ -102.107322401959564, 22.074758308538964 ], [ -102.106653081073034, 22.060579305293142 ], [ -102.103680619184686, 22.057227035766935 ], [ -102.111632540655307, 22.053492265088284 ], [ -102.110989689962665, 22.04574078385911 ], [ -102.116794318768683, 22.043084417640575 ], [ -102.109660845441695, 22.027119897648532 ], [ -102.096905611485013, 22.023002526627579 ], [ -102.097828716721651, 21.992175224038434 ], [ -102.092487511471759, 21.961223309458507 ], [ -102.097337528264447, 21.960989290460542 ], [ -102.10084694457916, 21.96484019947864 ], [ -102.100633705383117, 21.972208454252332 ], [ -102.131913060136483, 21.976899926726887 ], [ -102.138532285093945, 21.940340847832022 ], [ -102.12991374738121, 21.939778874148796 ], [ -102.129696524864102, 21.936932893430878 ], [ -102.164207758519453, 21.937238228572159 ], [ -102.166188440366525, 21.919593954071509 ], [ -102.162061583590145, 21.919668870084411 ], [ -102.162498764644127, 21.906271316474403 ], [ -102.155294826819286, 21.910594598747256 ], [ -102.157200083941007, 21.869580258146581 ], [ -102.174828456485614, 21.87047299599006 ], [ -102.176216076755395, 21.843908169233131 ], [ -102.167570685557578, 21.843016961275133 ], [ -102.17088519417409, 21.831835158128655 ], [ -102.169719994033315, 21.823478545646065 ], [ -102.159188271329754, 21.820790932835454 ], [ -102.160295329523564, 21.811350352436502 ], [ -102.150551196461421, 21.809711780519923 ], [ -102.153433172531805, 21.788912761302527 ], [ -102.145953279302901, 21.787934185735285 ], [ -102.140519189881715, 21.797146794529329 ], [ -102.14082972822294, 21.79453852097134 ], [ -102.132597265575143, 21.793284704581215 ], [ -102.132009886527399, 21.796644704956243 ], [ -102.117319935183303, 21.794141956783495 ], [ -102.11503092312438, 21.800248665893992 ], [ -102.107602179577157, 21.799373033352925 ], [ -102.104974091195842, 21.80310719555937 ], [ -102.071662578510072, 21.794773691530292 ], [ -102.068797180343296, 21.798913599609701 ], [ -102.064507650046011, 21.796204850152883 ], [ -102.071962738622076, 21.782654750055599 ], [ -102.08307421964966, 21.787066889971438 ], [ -102.094570510279141, 21.777701650379822 ], [ -102.086180660224301, 21.767263889646703 ], [ -102.102056629990088, 21.761044049651336 ], [ -102.104287949854665, 21.750973570219298 ], [ -102.115911769816393, 21.744677650088914 ], [ -102.115578829857213, 21.736038119909956 ], [ -102.120893120333861, 21.736446569725874 ], [ -102.125598170370878, 21.725723379844272 ], [ -102.12828804978686, 21.726679719829992 ], [ -102.136346050126662, 21.720493370002472 ], [ -102.142099720436477, 21.705374289922592 ], [ -102.147307880017536, 21.705776249932867 ], [ -102.154857399852773, 21.700038169709135 ], [ -102.166595290207397, 21.702495479780808 ], [ -102.166429690259534, 21.706012649701517 ], [ -102.171432779998938, 21.707000980133245 ], [ -102.177885919812411, 21.688155310034357 ], [ -102.214266750160519, 21.694818859772184 ], [ -102.214231659984009, 21.686603619580968 ], [ -102.218542450023108, 21.683426230420377 ], [ -102.218008180419616, 21.677685940260005 ], [ -102.226362660434162, 21.657774350051934 ], [ -102.237617510423149, 21.652001370241297 ], [ -102.250916059557085, 21.65514405016944 ], [ -102.275219120332622, 21.653973720332946 ], [ -102.279441520485136, 21.664437320085785 ], [ -102.303990309637015, 21.666684719975827 ], [ -102.302648569553639, 21.654600280211632 ], [ -102.295370780055364, 21.653098720450014 ], [ -102.310165690025599, 21.626626030081312 ], [ -102.32105081989225, 21.630092280269857 ], [ -102.325722059775245, 21.622266480016194 ], [ -102.366873570314183, 21.642751920401366 ], [ -102.369526179596491, 21.650591909568032 ], [ -102.385086000314743, 21.652038999800883 ], [ -102.407493090312371, 21.659484880018965 ], [ -102.404594970075152, 21.665593199934126 ], [ -102.441454950046818, 21.673419169792222 ], [ -102.451205780027934, 21.681958819866257 ], [ -102.453918650005633, 21.68101506012167 ], [ -102.452453179903983, 21.678383710350854 ], [ -102.46106639972966, 21.679259089881032 ], [ -102.452132370178873, 21.686910709608224 ], [ -102.456863769700092, 21.698087540145046 ], [ -102.475756549871278, 21.694945150349145 ], [ -102.476521750035602, 21.702084949849731 ], [ -102.542452430054752, 21.732604370359866 ], [ -102.540976620317124, 21.735580370049156 ], [ -102.552493720216532, 21.742651030382575 ], [ -102.583140430379046, 21.743858399657736 ], [ -102.583142520399207, 21.747102369809081 ], [ -102.57659042046393, 21.745833319981323 ], [ -102.576837279817482, 21.748890579791812 ], [ -102.566614660341173, 21.754831489760825 ], [ -102.559383349867545, 21.755118229686577 ], [ -102.557341859755738, 21.767324169806063 ], [ -102.551692199921106, 21.767272279548678 ], [ -102.555566279720324, 21.775202260426347 ], [ -102.553894230013015, 21.780002630005697 ], [ -102.534994629841165, 21.781255550252201 ], [ -102.529618509669362, 21.784536400231843 ], [ -102.544825950045023, 21.802539170210231 ], [ -102.539974310039042, 21.80719711024285 ], [ -102.528124429991834, 21.812373680286385 ], [ -102.519104050229231, 21.809895089727149 ], [ -102.515582520149962, 21.816364020374493 ], [ -102.508096890348398, 21.813469800152639 ], [ -102.495513339614533, 21.816539750027129 ], [ -102.46177959981533, 21.814603580657085 ], [ -102.462986539920479, 21.817379921002125 ], [ -102.456477820335863, 21.817588881132746 ], [ -102.451305920174903, 21.829623050973275 ], [ -102.436585919560855, 21.841263520836293 ], [ -102.430643320262703, 21.865546550545819 ], [ -102.421520580007666, 21.877525679817186 ], [ -102.420492940088081, 21.886419969965022 ], [ -102.409894829502832, 21.892460406363242 ], [ -102.388692479483439, 21.894148751256008 ], [ -102.396607600568672, 21.905937618013059 ], [ -102.389452568692704, 21.904849120963217 ], [ -102.388282182395372, 21.909325029508576 ], [ -102.365869568868689, 21.905401750961595 ], [ -102.363776780471625, 21.916811648442057 ], [ -102.346201750018423, 21.912351279653038 ], [ -102.346298461664162, 21.927355399700982 ], [ -102.339245289913052, 21.927569259549664 ], [ -102.343404429657369, 21.939010179653362 ], [ -102.308416516887988, 21.934393141416159 ], [ -102.308514739957076, 21.947674941398667 ], [ -102.290659279585142, 21.944557951093138 ], [ -102.290525629997205, 21.946882350135724 ], [ -102.283057579668679, 21.946818220561134 ], [ -102.278800109405893, 21.958414000557635 ], [ -102.272285054625755, 21.957276375193896 ], [ -102.274141399906668, 21.953789599681439 ], [ -102.26637570956008, 21.951646969715444 ], [ -102.267005720331753, 21.94396465958642 ], [ -102.264561710184836, 21.943354910253234 ], [ -102.234514509872568, 21.956919690365023 ], [ -102.230012859699698, 21.961356880309843 ], [ -102.227615919826917, 21.974778340141434 ], [ -102.20317261972157, 21.971553879644798 ], [ -102.207771178874935, 21.994715369990907 ], [ -102.229095019784936, 21.999202570106704 ], [ -102.227193909535202, 22.0099855499634 ], [ -102.223416179781239, 22.010649319574487 ], [ -102.222815309648851, 22.031466090271273 ], [ -102.209268579589079, 22.028811380312877 ], [ -102.20791459961724, 22.037947139607208 ], [ -102.179654719529083, 22.033180459863082 ], [ -102.176654630177993, 22.041166620291939 ], [ -102.16622711962944, 22.039725629668155 ], [ -102.17104967980903, 22.025731679941803 ], [ -102.157821290198157, 22.026436350450908 ], [ -102.158441320472747, 22.016551449635756 ], [ -102.153202230451285, 22.022529719926279 ], [ -102.134634139547103, 22.029013230235094 ], [ -102.144567000011961, 22.035416689840957 ], [ -102.138517779907957, 22.06024734014504 ], [ -102.140929509438209, 22.075343854884771 ], [ -102.107322401959564, 22.074758308538964 ] ] ] } },
{ "type": "Feature", "properties": { "code": "01008", "stateCode": "01", "municipalityCode": "008", "name": "San José de Gracia" }, "geometry": { "type": "Polygon", "coordinates": [ [ [ -102.456109599807235, 22.323232249602619 ], [ -102.450117949552308, 22.288049679570797 ], [ -102.456525629967203, 22.286335080316011 ], [ -102.458013399627205, 22.277962680311461 ], [ -102.452203450387387, 22.273634860373637 ], [ -102.451284019764486, 22.262446169845745 ], [ -102.441934939531933, 22.273013719791464 ], [ -102.44274287960009, 22.235937859696012 ], [ -102.427527600277003, 22.23005656970988 ], [ -102.425202450124786, 22.234520089660958 ], [ -102.420280430446212, 22.235247319783884 ], [ -102.406985280101097, 22.228299970362293 ], [ -102.399244650423384, 22.231669890203882 ], [ -102.389059169568711, 22.227578460322803 ], [ -102.361033340424569, 22.231005489963017 ], [ -102.369212619986513, 22.204419740104854 ], [ -102.392651569951369, 22.204074489638206 ], [ -102.376168200443772, 22.194621599589059 ], [ -102.381061089525303, 22.186912460102391 ], [ -102.380416719992041, 22.172073939582489 ], [ -102.371928119964622, 22.170854779563257 ], [ -102.379930719853419, 22.138646230243754 ], [ -102.374079459885905, 22.135847290357166 ], [ -102.368237339607631, 22.142959119598551 ], [ -102.356769919842407, 22.14191215034533 ], [ -102.360229532753479, 22.128599952164425 ], [ -102.354882137513115, 22.126965318318714 ], [ -102.357238063958619, 22.121759467400675 ], [ -102.354363034561345, 22.115905507238445 ], [ -102.382391361968928, 22.127820260307967 ], [ -102.391878626351328, 22.08858866691601 ], [ -102.41877606328795, 22.080475990707075 ], [ -102.416156693761963, 22.028103991304285 ], [ -102.421839905221191, 22.025333693901072 ], [ -102.421103835762764, 22.019503665317078 ], [ -102.427191453963559, 22.018062365265333 ], [ -102.432299526951496, 21.995832275686507 ], [ -102.444458190340427, 21.991152845375808 ], [ -102.45041153176544, 21.985241631457104 ], [ -102.461535278037076, 21.998892273440841 ], [ -102.472182560910952, 21.997818430345518 ], [ -102.469322274088469, 22.011558860530648 ], [ -102.481383049366059, 22.022567751284839 ], [ -102.507958693697518, 22.022945081257106 ], [ -102.510911755022335, 22.019876318289135 ], [ -102.516330409022842, 22.024305564099603 ], [ -102.517705581153436, 22.020241852067706 ], [ -102.519824673877025, 22.021281858826022 ], [ -102.529035185793163, 22.012901884287896 ], [ -102.531398630879437, 22.017318457462665 ], [ -102.539846844662122, 22.018710312735202 ], [ -102.543892341402028, 22.010525217744799 ], [ -102.552922103048246, 22.014570377890475 ], [ -102.551579895838088, 22.019442972990493 ], [ -102.557191909388393, 22.020326312038566 ], [ -102.56066734778733, 22.029378037329106 ], [ -102.569422249739844, 22.028291726460822 ], [ -102.570165901501696, 22.024532000736734 ], [ -102.574736645382615, 22.025000730282695 ], [ -102.573810721041468, 22.034898662992585 ], [ -102.591113481100521, 22.031374043027778 ], [ -102.592890449630147, 22.04736552029421 ], [ -102.602261569652541, 22.048542170070299 ], [ -102.602206480205297, 22.040068689812095 ], [ -102.616576880467107, 22.036983850358368 ], [ -102.61558968955498, 22.046564339729869 ], [ -102.608638200390217, 22.05323690958889 ], [ -102.612961319994938, 22.071094539737807 ], [ -102.620776939816437, 22.081471430183875 ], [ -102.643494139778696, 22.093520799770978 ], [ -102.659401059556771, 22.090148079729584 ], [ -102.661754970474746, 22.085937229576217 ], [ -102.669044180192131, 22.087621720436573 ], [ -102.667474169633891, 22.093298549700737 ], [ -102.676761799744881, 22.100204250143072 ], [ -102.684034379621778, 22.086697149720653 ], [ -102.691180939925985, 22.086203319996216 ], [ -102.692576819588027, 22.090206679867482 ], [ -102.684701219663197, 22.105224109799874 ], [ -102.6934853403597, 22.104722949658221 ], [ -102.690865230032557, 22.106555030033071 ], [ -102.690141950114565, 22.123394980428586 ], [ -102.683414139647425, 22.129913579883908 ], [ -102.68612113956965, 22.137908850081626 ], [ -102.681733679680974, 22.141074090046601 ], [ -102.682440939642746, 22.145925249926478 ], [ -102.674344710083105, 22.147781430077664 ], [ -102.669415690199756, 22.159589579795352 ], [ -102.675491740313959, 22.168495780350653 ], [ -102.675894510179177, 22.175572519620498 ], [ -102.666718350235669, 22.180940979904637 ], [ -102.669310080160102, 22.194023579963908 ], [ -102.66107762992867, 22.190904829939889 ], [ -102.65159598039574, 22.193140229833389 ], [ -102.655276680402523, 22.19497659960513 ], [ -102.645821550293832, 22.204306050132008 ], [ -102.643710719882975, 22.221172110412446 ], [ -102.63929893973696, 22.226039180161134 ], [ -102.670017049684645, 22.245702429836417 ], [ -102.66874284964544, 22.291871049713247 ], [ -102.527039339592903, 22.290899030350253 ], [ -102.506630720276434, 22.293812539652894 ], [ -102.501265109741354, 22.304269769674828 ], [ -102.489092399536048, 22.303483150447121 ], [ -102.470201630007708, 22.309210199611304 ], [ -102.466084200455185, 22.32228147978897 ], [ -102.456109599807235, 22.323232249602619 ] ] ] } },
{ "type": "Feature", "properties": { "code": "01011", "stateCode": "01", "municipalityCode": "011", "name": "San Francisco de los Romo" }, "geometry": { "type": "Polygon", "coordinates": [ [ [ -102.163358029696113, 22.099912029764752 ], [ -102.156376449742609, 22.097852250344204 ], [ -102.156573310165868, 22.091176750139454 ], [ -102.147260229705324, 22.086266910078471 ], [ -102.140860579698654, 22.075275340170752 ], [ -102.138517779907957, 22.06024734014504 ], [ -102.144567000011961, 22.035416689840957 ], [ -102.134634139547103, 22.029013230235094 ], [ -102.153202230451285, 22.022529719926279 ], [ -102.158441320472747, 22.016551449635756 ], [ -102.157821290198157, 22.026436350450908 ], [ -102.17104967980903, 22.025731679941803 ], [ -102.16622711962944, 22.039725629668155 ], [ -102.176654630177993, 22.041166620291939 ], [ -102.179654719529083, 22.033180459863082 ], [ -102.20791459961724, 22.037947139607208 ], [ -102.209268579589079, 22.028811380312877 ], [ -102.222815309648851, 22.031466090271273 ], [ -102.223416179781239, 22.010649319574487 ], [ -102.227193909535202, 22.0099855499634 ], [ -102.229095019784936, 21.999202570106704 ], [ -102.207771178874935, 21.994715369990907 ], [ -102.20317261972157, 21.971553879644798 ], [ -102.227615919826917, 21.974778340141434 ], [ -102.230012859699698, 21.961356880309843 ], [ -102.234514509872568, 21.956919690365023 ], [ -102.266678280458322, 21.943092370220956 ], [ -102.26637570956008, 21.951646969715444 ], [ -102.274141399906668, 21.953789599681439 ], [ -102.272285054625755, 21.957276375193896 ], [ -102.278800109405893, 21.958414000557635 ], [ -102.273484650273133, 21.972611660521991 ], [ -102.289173229314983, 21.975775350552588 ], [ -102.28869557018659, 21.980192020612183 ], [ -102.283146280379739, 21.984866231181758 ], [ -102.283640279125251, 21.980455889898803 ], [ -102.270395740339822, 21.97618326114986 ], [ -102.26918834025571, 21.982767051213834 ], [ -102.274025890703513, 21.986073320622538 ], [ -102.280778339654333, 21.985179690860477 ], [ -102.273644000013348, 22.000349580666231 ], [ -102.277868650038286, 21.999058680890677 ], [ -102.283739689883262, 22.002992821157296 ], [ -102.283006739838569, 22.009697620826856 ], [ -102.270090766909931, 22.004234449664928 ], [ -102.2650360901347, 22.009697180820382 ], [ -102.26558094964814, 22.02065805136116 ], [ -102.280556920476627, 22.02120060061641 ], [ -102.279096779730949, 22.033249510905382 ], [ -102.306447740061827, 22.033050569653934 ], [ -102.309510848573254, 22.025635970886157 ], [ -102.309611548484995, 22.032601046355246 ], [ -102.306529449220989, 22.035785380430845 ], [ -102.310340279928013, 22.037159909026471 ], [ -102.286105660210026, 22.063004379900601 ], [ -102.287509449812404, 22.074161710234993 ], [ -102.296520910185421, 22.07547653985711 ], [ -102.296348879912799, 22.084299150407666 ], [ -102.285182079864143, 22.082562459953134 ], [ -102.279270969770536, 22.089197020056034 ], [ -102.27313674991322, 22.087896139793912 ], [ -102.268523659741149, 22.079854220355259 ], [ -102.260764460144287, 22.079405139759391 ], [ -102.260467629566151, 22.087184369608 ], [ -102.226211709907133, 22.086121740424627 ], [ -102.222931399865971, 22.081554850057969 ], [ -102.225738429870177, 22.077988820442236 ], [ -102.204047570236341, 22.071851219760049 ], [ -102.202506650284505, 22.067906229894422 ], [ -102.199319259763982, 22.069090220261767 ], [ -102.198348890130362, 22.063970229819631 ], [ -102.203353690321521, 22.061936550113366 ], [ -102.200378230281899, 22.054871450036458 ], [ -102.194019650062543, 22.057381820412079 ], [ -102.191037379740521, 22.066101719980001 ], [ -102.184604090275599, 22.065242380139704 ], [ -102.18030305019488, 22.084278060108883 ], [ -102.17143628039166, 22.083751549732849 ], [ -102.163358029696113, 22.099912029764752 ] ] ] } },
{ "type": "Feature", "properties": { "code": "01009", "stateCode": "01", "municipalityCode": "009", "name": "Tepezalá" }, "geometry": { "type": "Polygon", "coordinates": [ [ [ -102.177375340318633, 22.36242974017453 ], [ -102.180722109850706, 22.350397940280086 ], [ -102.149847479719782, 22.347175060093907 ], [ -102.153230479828466, 22.29041021962361 ], [ -102.124110689890045, 22.286956400149343 ], [ -102.130148139853105, 22.241056969573904 ], [ -102.146548860166916, 22.233778519643604 ], [ -102.13279262033349, 22.215188650115575 ], [ -102.132992418828181, 22.202818479712413 ], [ -102.128105020049261, 22.20069303033809 ], [ -102.137058520227768, 22.191545260108565 ], [ -102.126527260268716, 22.157633490108879 ], [ -102.127897830055545, 22.153635569695464 ], [ -102.135372550095553, 22.153794879671029 ], [ -102.136399769553663, 22.149455060329689 ], [ -102.148936420288976, 22.154725229783057 ], [ -102.164154890081846, 22.140652980122493 ], [ -102.167810889641999, 22.125350519845462 ], [ -102.175732939745387, 22.129531740251984 ], [ -102.186305799103977, 22.161248831759302 ], [ -102.201419750293212, 22.159895799866213 ], [ -102.228009689994892, 22.170676030062335 ], [ -102.246881739719427, 22.170984019939066 ], [ -102.246150550239548, 22.177854739603227 ], [ -102.251082049728481, 22.183035450306878 ], [ -102.276520140400265, 22.187530140209667 ], [ -102.277330290110115, 22.225416878194434 ], [ -102.254046920372872, 22.22779068023566 ], [ -102.25723866034734, 22.232989430087319 ], [ -102.253209350084276, 22.240640780299575 ], [ -102.256768020422953, 22.246725709692157 ], [ -102.254451430301899, 22.251569909902503 ], [ -102.257110709992205, 22.259036450232706 ], [ -102.254235459901508, 22.260638750429983 ], [ -102.256749938954385, 22.265668430297364 ], [ -102.250166579207914, 22.271073089620188 ], [ -102.255288119011581, 22.271913569978729 ], [ -102.253406970185949, 22.279771289707352 ], [ -102.246621078796849, 22.280020060196307 ], [ -102.25053937031997, 22.288473919838971 ], [ -102.247152319629038, 22.288654139573541 ], [ -102.246470649933698, 22.292591779634051 ], [ -102.240113709653627, 22.292925750202311 ], [ -102.238737860205561, 22.29739757015945 ], [ -102.231358998857161, 22.296506740195991 ], [ -102.230901140230003, 22.299313109639375 ], [ -102.217741890142165, 22.294686549885608 ], [ -102.21314782986785, 22.314423220177435 ], [ -102.188429250441501, 22.317800690011126 ], [ -102.19044086045902, 22.319127089577254 ], [ -102.184829578728952, 22.340362679852955 ], [ -102.193665290145972, 22.352856680321207 ], [ -102.190696090050793, 22.352630999694394 ], [ -102.189018320108815, 22.362437829921973 ], [ -102.177375340318633, 22.36242974017453 ] ] ] } },
{ "type": "Feature", "properties": { "code": "01007", "stateCode": "01", "municipalityCode": "007", "name": "Rincón de Romos" }, "geometry": { "type": "Polygon", "coordinates": [ [ [ -102.226841599646235, 22.373928550172408 ], [ -102.223330659699627, 22.371336400108305 ], [ -102.21198682034867, 22.372697320273364 ], [ -102.211979198836715, 22.362465180397752 ], [ -102.189018320108772, 22.362437829921927 ], [ -102.19069609005075, 22.352630999694341 ], [ -102.194143779748288, 22.350642659727438 ], [ -102.184829578728994, 22.340362679852941 ], [ -102.190440860458978, 22.319127089577233 ], [ -102.188429250441473, 22.317800690011108 ], [ -102.213147829867907, 22.314423220177403 ], [ -102.217741890142136, 22.294686549885608 ], [ -102.230901140229975, 22.299313109639339 ], [ -102.231358998857189, 22.296506740195973 ], [ -102.238737860205617, 22.297397570159394 ], [ -102.240113709653599, 22.292925750202311 ], [ -102.246470649933755, 22.292591779634019 ], [ -102.247152319628995, 22.288654139573502 ], [ -102.250539370320013, 22.288473919839024 ], [ -102.246621078796807, 22.280020060196296 ], [ -102.253406970186006, 22.279771289707373 ], [ -102.255288119011624, 22.2719135699787 ], [ -102.250166579207942, 22.271073089620149 ], [ -102.256749938954357, 22.265668430297438 ], [ -102.254235459901466, 22.260638750429948 ], [ -102.257110709992247, 22.259036450232752 ], [ -102.254451430301941, 22.251569909902447 ], [ -102.256768020422996, 22.2467257096921 ], [ -102.253209350084305, 22.240640780299561 ], [ -102.257238660347312, 22.232989430087301 ], [ -102.254046920372829, 22.227790680235717 ], [ -102.277330290110143, 22.225416878194384 ], [ -102.276520140400208, 22.18753014020972 ], [ -102.25922177022052, 22.186356019585084 ], [ -102.258133260397202, 22.175452380415283 ], [ -102.259974380030442, 22.17325646000041 ], [ -102.265076049801209, 22.175470539855091 ], [ -102.266866169595417, 22.172380950029204 ], [ -102.276657750478151, 22.173636710337465 ], [ -102.276604340320688, 22.170635940200111 ], [ -102.280680690184496, 22.169473920428224 ], [ -102.295934620008381, 22.169570460221472 ], [ -102.296511460408851, 22.155212910239438 ], [ -102.292975120396576, 22.146317399699047 ], [ -102.299712350200309, 22.14569096974575 ], [ -102.30318440029113, 22.140456550189644 ], [ -102.350589520350496, 22.146557000215292 ], [ -102.354882137513115, 22.126965318318714 ], [ -102.360229532753479, 22.128599952164425 ], [ -102.358527629550224, 22.14309857034409 ], [ -102.368237339607631, 22.142959119598551 ], [ -102.374079459885905, 22.135847290357166 ], [ -102.379930719853419, 22.138646230243754 ], [ -102.371928119964622, 22.170854779563257 ], [ -102.380416719992041, 22.172073939582489 ], [ -102.381061089525303, 22.186912460102391 ], [ -102.376168200443772, 22.194621599589059 ], [ -102.392651569951369, 22.204074489638206 ], [ -102.369212619986513, 22.204419740104854 ], [ -102.361033340424569, 22.231005489963017 ], [ -102.389059169568711, 22.227578460322803 ], [ -102.399244650423384, 22.231669890203882 ], [ -102.406985280101097, 22.228299970362293 ], [ -102.420280430446212, 22.235247319783884 ], [ -102.425202450124786, 22.234520089660958 ], [ -102.427527600277003, 22.23005656970988 ], [ -102.44274287960009, 22.235937859696012 ], [ -102.441934939531933, 22.273013719791464 ], [ -102.451284019764486, 22.262446169845745 ], [ -102.452203450387387, 22.273634860373637 ], [ -102.458013399627205, 22.277962680311461 ], [ -102.456525629967203, 22.286335080316011 ], [ -102.450117949552308, 22.288049679570797 ], [ -102.456109599807235, 22.323232249602619 ], [ -102.462173969892675, 22.322842740266029 ], [ -102.461020859748373, 22.331758879741642 ], [ -102.468093309722363, 22.332388029983459 ], [ -102.471187819726637, 22.336254879918069 ], [ -102.46864194962231, 22.35188147972104 ], [ -102.451058888834567, 22.352125550080455 ], [ -102.387878999909617, 22.364141199736846 ], [ -102.378442819159588, 22.360878580556953 ], [ -102.339338348931278, 22.361504941214342 ], [ -102.349491018964002, 22.346725380493897 ], [ -102.362653718592782, 22.346474850657508 ], [ -102.362376399103411, 22.328824650801295 ], [ -102.304183489407052, 22.331989741257946 ], [ -102.305266379881701, 22.319186050351927 ], [ -102.316520740442002, 22.312916110150987 ], [ -102.31548647992264, 22.308650830222422 ], [ -102.306912020088532, 22.303101599699374 ], [ -102.294586750173821, 22.300833339685493 ], [ -102.296677429544843, 22.289469859689195 ], [ -102.292837059704041, 22.291507660120704 ], [ -102.279799750286045, 22.287825749854701 ], [ -102.277559460220886, 22.281677979969562 ], [ -102.261636909592966, 22.285705449746565 ], [ -102.262173510021228, 22.294473150118563 ], [ -102.254982050089595, 22.293185910230726 ], [ -102.253984570419647, 22.299430249709086 ], [ -102.246190149561031, 22.298421379796057 ], [ -102.247163340008953, 22.310760429917835 ], [ -102.243002400257552, 22.320313949757736 ], [ -102.256113339070779, 22.321068149611001 ], [ -102.255027138927346, 22.324914200341478 ], [ -102.247214260096456, 22.324446029895096 ], [ -102.245126020353268, 22.341999280016864 ], [ -102.241025598818666, 22.341819139789941 ], [ -102.242357680260255, 22.346768249683247 ], [ -102.238946539584816, 22.354613049748533 ], [ -102.252489429627886, 22.36793916985771 ], [ -102.25320070957352, 22.374494509713937 ], [ -102.226841599646235, 22.373928550172408 ] ] ] } },
{ "type": "Feature", "properties": { "code": "01006", "stateCode": "01", "municipalityCode": "006", "name": "Pabellón de Arteaga" }, "geometry": { "type": "Polygon", "coordinates": [ [ [ -102.253453920367562, 22.183024339839385 ], [ -102.246150550239605, 22.177854739603209 ], [ -102.246881739719385, 22.170984019939116 ], [ -102.228009689994849, 22.170676030062321 ], [ -102.20416488954794, 22.160907060311409 ], [ -102.204545689517673, 22.145075620359446 ], [ -102.215910661376881, 22.13757297136857 ], [ -102.213161019009732, 22.135349938877489 ], [ -102.214175320400429, 22.130422520034664 ], [ -102.21800962962196, 22.129632770281592 ], [ -102.215984769739379, 22.126981650136734 ], [ -102.21932951970355, 22.104885980254569 ], [ -102.192503310265181, 22.101504909884735 ], [ -102.1990356897211, 22.07096589021684 ], [ -102.191037379740521, 22.066101719980001 ], [ -102.194019650062543, 22.057381820412079 ], [ -102.200378230281899, 22.054871450036458 ], [ -102.203353690321521, 22.061936550113366 ], [ -102.198348890130362, 22.063970229819631 ], [ -102.199319259763982, 22.069090220261767 ], [ -102.202506650284505, 22.067906229894422 ], [ -102.204047570236341, 22.071851219760049 ], [ -102.225738429870177, 22.077988820442236 ], [ -102.222931399865971, 22.081554850057969 ], [ -102.226211709907133, 22.086121740424627 ], [ -102.260467629566151, 22.087184369608 ], [ -102.260764460144287, 22.079405139759391 ], [ -102.264512249838972, 22.079589050049933 ], [ -102.268523659741149, 22.079854220355259 ], [ -102.27313674991322, 22.087896139793912 ], [ -102.279270969770536, 22.089197020056034 ], [ -102.285182079864143, 22.082562459953134 ], [ -102.296348879912799, 22.084299150407666 ], [ -102.296520910185421, 22.07547653985711 ], [ -102.287509449812404, 22.074161710234993 ], [ -102.286105660210026, 22.063004379900601 ], [ -102.291460540275082, 22.054921460259965 ], [ -102.30005497980936, 22.050941910553423 ], [ -102.310340279928013, 22.037159909026471 ], [ -102.319376510337804, 22.040418709640079 ], [ -102.321638539569719, 22.034572550145285 ], [ -102.332594089743523, 22.032402920296622 ], [ -102.332273710035977, 22.026734509653117 ], [ -102.337081709776072, 22.026842180071721 ], [ -102.338109119842372, 22.035675859871201 ], [ -102.333008980786701, 22.035767510592297 ], [ -102.33458201603024, 22.046445629770187 ], [ -102.325094460440212, 22.045891510265914 ], [ -102.326732479700297, 22.050042650354413 ], [ -102.335677570174923, 22.050665219505525 ], [ -102.3375880902137, 22.060116830090365 ], [ -102.35476674973718, 22.062767229665241 ], [ -102.356980309519855, 22.050437620335668 ], [ -102.362202079673622, 22.045870430438669 ], [ -102.381740229754499, 22.059071139681762 ], [ -102.383212820325639, 22.044349430447319 ], [ -102.387285769722794, 22.040319460316635 ], [ -102.416557770549289, 22.037596158181309 ], [ -102.41877606328795, 22.080475990707075 ], [ -102.391878626351328, 22.08858866691601 ], [ -102.382391361968928, 22.127820260307967 ], [ -102.354363034561345, 22.115905507238445 ], [ -102.357238063958619, 22.121759467400675 ], [ -102.353068118560714, 22.128693126415978 ], [ -102.350589520350496, 22.146557000215292 ], [ -102.30318440029113, 22.140456550189644 ], [ -102.299712350200309, 22.14569096974575 ], [ -102.292975120396576, 22.146317399699047 ], [ -102.296511460408851, 22.155212910239438 ], [ -102.295934620008381, 22.169570460221472 ], [ -102.280680690184496, 22.169473920428224 ], [ -102.276604340320688, 22.170635940200111 ], [ -102.276657750478151, 22.173636710337465 ], [ -102.266866169595417, 22.172380950029204 ], [ -102.265076049801209, 22.175470539855091 ], [ -102.259974380030442, 22.17325646000041 ], [ -102.259611179539192, 22.183070150142786 ], [ -102.253453920367562, 22.183024339839385 ] ] ] } },
{ "type": "Feature", "properties": { "code": "01004", "stateCode": "01", "municipalityCode": "004", "name": "Cosío" }, "geometry": { "type": "Polygon", "coordinates": [ [ [ -102.29830685001501, 22.459589680315716 ], [ -102.290076399527777, 22.419917949746313 ], [ -102.281839289985669, 22.413804170395014 ], [ -102.273981060047277, 22.414331150104864 ], [ -102.270917890006132, 22.411751780436159 ], [ -102.273054199523145, 22.408772600113359 ], [ -102.267394049967749, 22.406566679687295 ], [ -102.255248720340447, 22.387428660063424 ], [ -102.2502993702157, 22.387221710370419 ], [ -102.250565489812871, 22.380853920152976 ], [ -102.254943229744697, 22.37886837008557 ], [ -102.252489429627829, 22.367939169857657 ], [ -102.238946539584845, 22.354613049748462 ], [ -102.242357680260213, 22.346768249683286 ], [ -102.241025598818624, 22.341819139789887 ], [ -102.245126020353297, 22.341999280016793 ], [ -102.247214260096413, 22.324446029895039 ], [ -102.255027138927304, 22.324914200341425 ], [ -102.256113339070822, 22.32106814961104 ], [ -102.243002400257595, 22.320313949757679 ], [ -102.247163340008981, 22.310760429917867 ], [ -102.246190149561073, 22.298421379796004 ], [ -102.253984570419604, 22.299430249709101 ], [ -102.254982050089538, 22.293185910230637 ], [ -102.262173510021171, 22.294473150118595 ], [ -102.261636909593022, 22.285705449746583 ], [ -102.277559460220829, 22.281677979969562 ], [ -102.279799750286102, 22.287825749854736 ], [ -102.292837059704084, 22.291507660120725 ], [ -102.296677429544872, 22.289469859689209 ], [ -102.294586750173778, 22.300833339685546 ], [ -102.30691202008849, 22.303101599699353 ], [ -102.315486479922683, 22.308650830222476 ], [ -102.316520740441959, 22.312916110151019 ], [ -102.305266379881672, 22.319186050351949 ], [ -102.304183489407052, 22.331989741257946 ], [ -102.362376399103439, 22.328824650801238 ], [ -102.362653718592739, 22.346474850657454 ], [ -102.34949101896396, 22.346725380493933 ], [ -102.339338348931236, 22.361504941214363 ], [ -102.378442819159616, 22.360878580556985 ], [ -102.359250278630725, 22.384951690959628 ], [ -102.362877079474544, 22.388747281037269 ], [ -102.321364720163743, 22.388532650151149 ], [ -102.321030509584219, 22.418291349974648 ], [ -102.312040049664475, 22.440818200299184 ], [ -102.311804800071172, 22.456915819715146 ], [ -102.29830685001501, 22.459589680315716 ] ] ] } },
{ "type": "Feature", "properties": { "code": "01005", "stateCode": "01", "municipalityCode": "005", "name": "Jesús María" }, "geometry": { "type": "Polygon", "coordinates": [ [ [ -102.353907780283521, 22.06254613962086 ], [ -102.3375880902137, 22.060116830090365 ], [ -102.335677570174923, 22.050665219505525 ], [ -102.326732479700297, 22.050042650354413 ], [ -102.325094460440212, 22.045891510265914 ], [ -102.33458201603024, 22.046445629770187 ], [ -102.333008980786701, 22.035767510592297 ], [ -102.338109119842372, 22.035675859871201 ], [ -102.337081709776072, 22.026842180071721 ], [ -102.332273710035977, 22.026734509653117 ], [ -102.332594089743523, 22.032402920296622 ], [ -102.321638539569719, 22.034572550145285 ], [ -102.319376510337804, 22.040418709640079 ], [ -102.306529449220989, 22.035785380430845 ], [ -102.309611548484995, 22.032601046355246 ], [ -102.309510848573254, 22.025635970886157 ], [ -102.306447740061827, 22.033050569653934 ], [ -102.279096779730949, 22.033249510905382 ], [ -102.280556920476627, 22.02120060061641 ], [ -102.26558094964814, 22.02065805136116 ], [ -102.2650360901347, 22.009697180820382 ], [ -102.270090766909931, 22.004234449664928 ], [ -102.283006739838569, 22.009697620826856 ], [ -102.283739689883262, 22.002992821157296 ], [ -102.277868650038286, 21.999058680890677 ], [ -102.273644000013348, 22.000349580666231 ], [ -102.280778339654333, 21.985179690860477 ], [ -102.274025890703513, 21.986073320622538 ], [ -102.26918834025571, 21.982767051213834 ], [ -102.270395740339822, 21.97618326114986 ], [ -102.283640279125251, 21.980455889898803 ], [ -102.283146280379739, 21.984866231181758 ], [ -102.288826599534787, 21.979944450564467 ], [ -102.289180429853161, 21.974120001150649 ], [ -102.286910570260702, 21.976853021159446 ], [ -102.273484650273133, 21.972611660521991 ], [ -102.283057579668679, 21.946818220561134 ], [ -102.290525629997205, 21.946882350135724 ], [ -102.290659279585142, 21.944557951093138 ], [ -102.308514739957076, 21.947674941398667 ], [ -102.308416516887988, 21.934393141416159 ], [ -102.343404429657369, 21.939010179653362 ], [ -102.339245289913052, 21.927569259549664 ], [ -102.346298461664162, 21.927355399700982 ], [ -102.346201750018423, 21.912351279653038 ], [ -102.363776780471625, 21.916811648442057 ], [ -102.365869568868689, 21.905401750961595 ], [ -102.388282182395372, 21.909325029508576 ], [ -102.389452568692704, 21.904849120963217 ], [ -102.396607600568672, 21.905937618013059 ], [ -102.388692479483439, 21.894148751256008 ], [ -102.409894829502832, 21.892460406363242 ], [ -102.420492940088081, 21.886419969965022 ], [ -102.421520580007666, 21.877525679817186 ], [ -102.430643320262703, 21.865546550545819 ], [ -102.436585919560855, 21.841263520836293 ], [ -102.451305920174903, 21.829623050973275 ], [ -102.456477820335863, 21.817588881132746 ], [ -102.462986539920479, 21.817379921002125 ], [ -102.46177959981533, 21.814603580657085 ], [ -102.495513339614533, 21.816539750027129 ], [ -102.508096890348398, 21.813469800152639 ], [ -102.515582520149962, 21.816364020374493 ], [ -102.519104050229231, 21.809895089727149 ], [ -102.528124429991834, 21.812373680286385 ], [ -102.544825950045023, 21.802539170210231 ], [ -102.561984682083576, 21.803740736710381 ], [ -102.589716959118377, 21.795141951460447 ], [ -102.585515225466295, 21.829153555184082 ], [ -102.596400931777723, 21.830247471908109 ], [ -102.598430540522827, 21.865164490679941 ], [ -102.586395301155733, 21.867238940297224 ], [ -102.585343505972943, 21.87017589857027 ], [ -102.585024202036337, 21.878050228785082 ], [ -102.590423537171745, 21.879733771186036 ], [ -102.580303237537549, 21.899338229699254 ], [ -102.59048869732176, 21.898448406833115 ], [ -102.579465968758214, 21.90596449649783 ], [ -102.583408535782411, 21.908674534353199 ], [ -102.582038392739165, 21.911872981171307 ], [ -102.589555517971434, 21.912726149966531 ], [ -102.583762454602592, 21.91684653896888 ], [ -102.586873161930285, 21.917225787304684 ], [ -102.581712301072429, 21.940707707701975 ], [ -102.571763586938403, 21.97233455753365 ], [ -102.562979091624783, 21.989137327859428 ], [ -102.565728736580539, 21.994843737325006 ], [ -102.564866169159444, 22.00571762259997 ], [ -102.559724892428335, 22.005213004999238 ], [ -102.557469307483899, 22.00027693336293 ], [ -102.552922103048246, 22.014570377890475 ], [ -102.543892341402028, 22.010525217744799 ], [ -102.539846844662122, 22.018710312735202 ], [ -102.53537292628576, 22.018688784186626 ], [ -102.529035185793163, 22.012901884287896 ], [ -102.519824673877025, 22.021281858826022 ], [ -102.517705581153436, 22.020241852067706 ], [ -102.516330409022842, 22.024305564099603 ], [ -102.510911755022335, 22.019876318289135 ], [ -102.507958693697518, 22.022945081257106 ], [ -102.481383049366059, 22.022567751284839 ], [ -102.469322274088469, 22.011558860530648 ], [ -102.472182560910952, 21.997818430345518 ], [ -102.461535278037076, 21.998892273440841 ], [ -102.455714217237471, 21.989369206020307 ], [ -102.449009809040632, 21.985419697087423 ], [ -102.447082987903926, 21.989527640226115 ], [ -102.432299526951496, 21.995832275686507 ], [ -102.427191453963559, 22.018062365265333 ], [ -102.421103835762764, 22.019503665317078 ], [ -102.421839905221191, 22.025333693901072 ], [ -102.416156693761963, 22.028103991304285 ], [ -102.416557770549289, 22.037596158181309 ], [ -102.387285769722794, 22.040319460316635 ], [ -102.383212820325639, 22.044349430447319 ], [ -102.381740229754499, 22.059071139681762 ], [ -102.362202079673622, 22.045870430438669 ], [ -102.356980309519855, 22.050437620335668 ], [ -102.353907780283521, 22.06254613962086 ] ] ] } },
{ "type": "Feature", "properties": { "code": "01010", "stateCode": "01", "municipalityCode": "010", "name": "El Llano" }, "geometry": { "type": "Polygon", "coordinates": [ [ [ -102.034267513676724, 22.069363715222266 ], [ -102.022086170047885, 22.052726260363567 ], [ -102.022770779942789, 22.044256290084132 ], [ -102.011439199893459, 22.03366337025578 ], [ -102.007621060013975, 22.039930910133691 ], [ -101.987469950366091, 22.039166479962176 ], [ -101.991939740039314, 22.00793964979912 ], [ -101.957391170400555, 22.009635019873379 ], [ -101.961429379830335, 22.018105820960034 ], [ -101.95321359974939, 22.009117200618288 ], [ -101.948058770459625, 22.008779081331348 ], [ -101.890374600191876, 21.950950149557411 ], [ -101.885799879630028, 21.932611629938393 ], [ -101.881761979955186, 21.93813203031641 ], [ -101.884590540379349, 21.939222149739511 ], [ -101.872671309758431, 21.946514379792731 ], [ -101.835289450322975, 21.941770580183608 ], [ -101.838003369530583, 21.907344369723329 ], [ -101.880212620445647, 21.910149779975438 ], [ -102.01995401961517, 21.862536109732989 ], [ -102.020794429693566, 21.851167630261358 ], [ -102.038417510217229, 21.85319804723165 ], [ -102.041742940460395, 21.823067649631657 ], [ -102.055123736690518, 21.816356771153579 ], [ -102.052867430072794, 21.813337799643786 ], [ -102.057979820438277, 21.801870090369867 ], [ -102.064507650046011, 21.796204850152883 ], [ -102.068797180343296, 21.798913599609701 ], [ -102.071662578510072, 21.794773691530292 ], [ -102.104974091195842, 21.80310719555937 ], [ -102.107602179577157, 21.799373033352925 ], [ -102.11503092312438, 21.800248665893992 ], [ -102.117319935183303, 21.794141956783495 ], [ -102.132009886527399, 21.796644704956243 ], [ -102.132597265575143, 21.793284704581215 ], [ -102.14082972822294, 21.79453852097134 ], [ -102.140519189881715, 21.797146794529329 ], [ -102.145953279302901, 21.787934185735285 ], [ -102.153433172531805, 21.788912761302527 ], [ -102.150551196461421, 21.809711780519923 ], [ -102.160295329523564, 21.811350352436502 ], [ -102.159188271329754, 21.820790932835454 ], [ -102.169719994033315, 21.823478545646065 ], [ -102.17088519417409, 21.831835158128655 ], [ -102.167570685557578, 21.843016961275133 ], [ -102.176216076755395, 21.843908169233131 ], [ -102.174828456485614, 21.87047299599006 ], [ -102.157200083941007, 21.869580258146581 ], [ -102.155294826819286, 21.910594598747256 ], [ -102.162498764644127, 21.906271316474403 ], [ -102.162061583590145, 21.919668870084411 ], [ -102.166188440366525, 21.919593954071509 ], [ -102.164207758519453, 21.937238228572159 ], [ -102.129696524864102, 21.936932893430878 ], [ -102.12991374738121, 21.939778874148796 ], [ -102.138532285093945, 21.940340847832022 ], [ -102.131913060136483, 21.976899926726887 ], [ -102.100633705383117, 21.972208454252332 ], [ -102.10084694457916, 21.96484019947864 ], [ -102.097337528264447, 21.960989290460542 ], [ -102.092487511471759, 21.961223309458507 ], [ -102.097828716721651, 21.992175224038434 ], [ -102.096905611485013, 22.023002526627579 ], [ -102.064945020000238, 22.017428279671478 ], [ -102.060091380299966, 22.044406580452925 ], [ -102.05482062968666, 22.045903350251667 ], [ -102.050809540449748, 22.041994940300061 ], [ -102.045394420414638, 22.04906107959135 ], [ -102.034051770124279, 22.052034689848156 ], [ -102.040610829842862, 22.058282289746039 ], [ -102.043239000433601, 22.056635109546434 ], [ -102.049959079744255, 22.061137940364826 ], [ -102.034267513676724, 22.069363715222266 ] ] ] } },
{ "type": "Feature", "properties": { "code": "01003", "stateCode": "01", "municipalityCode": "003", "name": "Calvillo" }, "geometry": { "type": "Polygon", "coordinates": [ [ [ -102.685338690351387, 22.105581979756582 ], [ -102.685688450177395, 22.099627309758045 ], [ -102.692576819588027, 22.090206679867482 ], [ -102.691180939925985, 22.086203319996216 ], [ -102.684034379621778, 22.086697149720653 ], [ -102.676761799744881, 22.100204250143072 ], [ -102.667474169633891, 22.093298549700737 ], [ -102.669044180192131, 22.087621720436573 ], [ -102.661754970474746, 22.085937229576217 ], [ -102.659401059556771, 22.090148079729584 ], [ -102.643494139778696, 22.093520799770978 ], [ -102.620776939816437, 22.081471430183875 ], [ -102.612961319994938, 22.071094539737807 ], [ -102.608638200390217, 22.05323690958889 ], [ -102.61558968955498, 22.046564339729869 ], [ -102.617592630201344, 22.03753936999281 ], [ -102.602206480205297, 22.040068689812095 ], [ -102.602261569652541, 22.048542170070299 ], [ -102.592890449630147, 22.04736552029421 ], [ -102.591113481100521, 22.031374043027778 ], [ -102.573810721041468, 22.034898662992585 ], [ -102.574736645382615, 22.025000730282695 ], [ -102.56066734778733, 22.029378037329106 ], [ -102.557191909388393, 22.020326312038566 ], [ -102.551579895838088, 22.019442972990493 ], [ -102.555129890903686, 22.002227936330058 ], [ -102.557469307483899, 22.00027693336293 ], [ -102.559724892428335, 22.005213004999238 ], [ -102.564866169159444, 22.00571762259997 ], [ -102.565728736580539, 21.994843737325006 ], [ -102.562979091624783, 21.989137327859428 ], [ -102.571763586938403, 21.97233455753365 ], [ -102.581712301072429, 21.940707707701975 ], [ -102.586873161930285, 21.917225787304684 ], [ -102.583762454602592, 21.91684653896888 ], [ -102.589555517971434, 21.912726149966531 ], [ -102.582038392739165, 21.911872981171307 ], [ -102.583408535782411, 21.908674534353199 ], [ -102.579465968758214, 21.90596449649783 ], [ -102.59048869732176, 21.898448406833115 ], [ -102.580303237537549, 21.899338229699254 ], [ -102.590423537171745, 21.879733771186036 ], [ -102.585024202036337, 21.878050228785082 ], [ -102.586395301155733, 21.867238940297224 ], [ -102.598430540522827, 21.865164490679941 ], [ -102.596400931777723, 21.830247471908109 ], [ -102.585515225466295, 21.829153555184082 ], [ -102.589716959118377, 21.795141951460447 ], [ -102.571021246601859, 21.799218426150457 ], [ -102.570062545864445, 21.802364150960731 ], [ -102.546742458495814, 21.803029645261134 ], [ -102.529618509669362, 21.784536400231843 ], [ -102.534994629841165, 21.781255550252201 ], [ -102.553894230013015, 21.780002630005697 ], [ -102.555566279720324, 21.775202260426347 ], [ -102.551692199921106, 21.767272279548678 ], [ -102.557341859755738, 21.767324169806063 ], [ -102.559383349867545, 21.755118229686577 ], [ -102.566614660341173, 21.754831489760825 ], [ -102.576837279817482, 21.748890579791812 ], [ -102.57659042046393, 21.745833319981323 ], [ -102.583142520399207, 21.747102369809081 ], [ -102.583140430379046, 21.743858399657736 ], [ -102.596278739779962, 21.744049629720131 ], [ -102.596774320337545, 21.75498199986923 ], [ -102.601208310087884, 21.755768879844016 ], [ -102.6063121700099, 21.751057219667359 ], [ -102.618123279686358, 21.755651780151229 ], [ -102.633493830456445, 21.767339460028573 ], [ -102.643539120096136, 21.761884489787342 ], [ -102.650923309568881, 21.765422220177111 ], [ -102.659575629616455, 21.762383719827991 ], [ -102.668926349785863, 21.764051450297277 ], [ -102.678767579677483, 21.753173739664522 ], [ -102.690668569947576, 21.752437200063341 ], [ -102.697317539845514, 21.741513661972338 ], [ -102.696263289676466, 21.728768020384365 ], [ -102.714024749909782, 21.730097779999838 ], [ -102.715605199923999, 21.734091280357216 ], [ -102.722116149841, 21.719554110381949 ], [ -102.737323399670316, 21.715608969901215 ], [ -102.741626379682032, 21.721000109623517 ], [ -102.744109540443702, 21.719180819684841 ], [ -102.772180910331159, 21.737823769846919 ], [ -102.775696970152012, 21.734589400100425 ], [ -102.779508179858325, 21.739871580400919 ], [ -102.778256280188401, 21.742674949962016 ], [ -102.785204859659899, 21.745653400306885 ], [ -102.792309650293717, 21.754990120213222 ], [ -102.805991120234381, 21.763965690372537 ], [ -102.816916259560358, 21.766475369644471 ], [ -102.821125140263561, 21.773435620156867 ], [ -102.820095120470654, 21.778456819971254 ], [ -102.831262150098141, 21.797248580259399 ], [ -102.842404860480499, 21.798530720099698 ], [ -102.842250749771623, 21.804757201231016 ], [ -102.84596214020506, 21.799983259545989 ], [ -102.853345060011605, 21.799053149620647 ], [ -102.851791109800175, 21.811937750078076 ], [ -102.84754474999022, 21.81894019989252 ], [ -102.850285659961742, 21.825088580321026 ], [ -102.847314750283005, 21.833409219620798 ], [ -102.85805096958687, 21.833226350264777 ], [ -102.87417657965527, 21.852770999600786 ], [ -102.863380119884994, 21.863765779671969 ], [ -102.860546140040341, 21.880259690098992 ], [ -102.855747280227021, 21.88376109020631 ], [ -102.849187620372746, 21.906722999627085 ], [ -102.84335033951686, 21.912370949789693 ], [ -102.84622057023806, 21.915398139629097 ], [ -102.838250449939665, 21.939298649691025 ], [ -102.833725019851641, 21.940303399597859 ], [ -102.823223290271841, 21.955542380326673 ], [ -102.801049690163367, 22.003941000123007 ], [ -102.791498619995835, 22.015988349570915 ], [ -102.783310250210761, 22.017691919969099 ], [ -102.782286080381539, 22.028132059762388 ], [ -102.768981260351723, 22.037822889930904 ], [ -102.770464849752329, 22.041597890109511 ], [ -102.760989739712031, 22.046286739610398 ], [ -102.753180260084903, 22.06325782009025 ], [ -102.755805709546962, 22.073662079599913 ], [ -102.728666850244153, 22.08850506032524 ], [ -102.710489109850684, 22.093886140057908 ], [ -102.6934853403597, 22.104722949658221 ], [ -102.685338690351387, 22.105581979756582 ] ] ] } },
{ "type": "Feature", "properties": { "code": "01002", "stateCode": "01", "municipalityCode": "002", "name": "Asientos" }, "geometry": { "type": "Polygon", "coordinates": [ [ [ -102.075627049820085, 22.306072779894933 ], [ -102.056704489566627, 22.299920999596452 ], [ -102.055663800327238, 22.295306169826368 ], [ -102.058407769830126, 22.293654860372417 ], [ -102.051213579582651, 22.291213030443572 ], [ -102.03726964989508, 22.298975680062931 ], [ -102.02988252012743, 22.288992999731796 ], [ -102.029210260255212, 22.269004680293598 ], [ -102.022494578578389, 22.241585490625763 ], [ -102.002474630078737, 22.241444060062769 ], [ -101.99971608013611, 22.233656029561864 ], [ -102.000993079911993, 22.168110549959447 ], [ -102.029467140133193, 22.16866561990464 ], [ -102.03773734034408, 22.159776089803362 ], [ -102.041094480325981, 22.161799230132608 ], [ -102.045221309642955, 22.153733230428564 ], [ -102.017075489952404, 22.153961279633172 ], [ -102.025915180378604, 22.129770999961625 ], [ -101.986027949996028, 22.120827449861014 ], [ -101.967573939803444, 22.111202480493098 ], [ -101.864275110196758, 22.041509480999128 ], [ -101.862293370305309, 22.046736550867447 ], [ -101.855191540299401, 22.046511170861823 ], [ -101.85516288033412, 22.04179854091424 ], [ -101.861491291156725, 22.035902539490777 ], [ -101.859154599887688, 22.034418260947785 ], [ -101.861065850065714, 22.022089880848952 ], [ -101.858328349955116, 22.020898221163307 ], [ -101.861143620015582, 22.021106431077488 ], [ -101.861038109563651, 21.998745711257357 ], [ -101.86379870975756, 21.990015660928375 ], [ -101.891252510080051, 21.976592050645966 ], [ -101.894734050057139, 21.989656420749562 ], [ -101.906835249762054, 21.992006120455166 ], [ -101.912598490391971, 21.997485740806841 ], [ -101.909445719675332, 21.989024031336914 ], [ -101.900069849606467, 21.986724430508591 ], [ -101.898227309645065, 21.983263031059824 ], [ -101.895831229847303, 21.963332200677119 ], [ -101.897780219974251, 21.958387910910478 ], [ -101.948058770459625, 22.008779081331348 ], [ -101.95321359974939, 22.009117200618288 ], [ -101.961429379830335, 22.018105820960034 ], [ -101.957391170400555, 22.009635019873379 ], [ -101.991939740039314, 22.00793964979912 ], [ -101.987469950366091, 22.039166479962176 ], [ -102.007621060013975, 22.039930910133691 ], [ -102.011439199893459, 22.03366337025578 ], [ -102.022770779942789, 22.044256290084132 ], [ -102.022086170047885, 22.052726260363567 ], [ -102.03426862040746, 22.069365339823829 ], [ -102.049959079744255, 22.061137940364826 ], [ -102.043239000433601, 22.056635109546434 ], [ -102.040610829842862, 22.058282289746039 ], [ -102.034051770124279, 22.052034689848156 ], [ -102.045394420414638, 22.04906107959135 ], [ -102.050809540449748, 22.041994940300061 ], [ -102.05482062968666, 22.045903350251667 ], [ -102.060091380299966, 22.044406580452925 ], [ -102.064945020000238, 22.017428279671478 ], [ -102.096905611485013, 22.023002526627579 ], [ -102.109660845441695, 22.027119897648532 ], [ -102.116472745624478, 22.040944258471139 ], [ -102.116281081105896, 22.044643094041589 ], [ -102.110989689962665, 22.04574078385911 ], [ -102.111632540655307, 22.053492265088284 ], [ -102.103680619184686, 22.057227035766935 ], [ -102.106653081073034, 22.060579305293142 ], [ -102.107322401959564, 22.074758308538964 ], [ -102.140929509438209, 22.075343854884771 ], [ -102.147260229705324, 22.086266910078471 ], [ -102.156573310165868, 22.091176750139454 ], [ -102.156376449742609, 22.097852250344204 ], [ -102.16285994019249, 22.100328080112384 ], [ -102.17143628039166, 22.083751549732849 ], [ -102.18030305019488, 22.084278060108883 ], [ -102.184604090275599, 22.065242380139704 ], [ -102.194348970095746, 22.06654397015879 ], [ -102.196071939680039, 22.071072109977152 ], [ -102.1990356897211, 22.07096589021684 ], [ -102.192503310265181, 22.101504909884735 ], [ -102.21932951970355, 22.104885980254569 ], [ -102.215984769739379, 22.126981650136734 ], [ -102.21800962962196, 22.129632770281592 ], [ -102.214175320400429, 22.130422520034664 ], [ -102.213161019009732, 22.135349938877489 ], [ -102.215910661376881, 22.13757297136857 ], [ -102.204545689517673, 22.145075620359446 ], [ -102.20416488954794, 22.160907060311409 ], [ -102.186305799103948, 22.161248831759323 ], [ -102.17573293974533, 22.129531740251952 ], [ -102.167810889642027, 22.125350519845423 ], [ -102.164154890081804, 22.140652980122479 ], [ -102.148936420289019, 22.154725229783001 ], [ -102.13639976955362, 22.14945506032964 ], [ -102.134629459961104, 22.154217249573275 ], [ -102.127897830055602, 22.153635569695517 ], [ -102.128123379809466, 22.164545659749628 ], [ -102.133437939617963, 22.173272710430176 ], [ -102.13705852022774, 22.191545260108619 ], [ -102.12810502004929, 22.200693030338037 ], [ -102.132992418828238, 22.20281847971237 ], [ -102.132792620333461, 22.215188650115632 ], [ -102.146548860166945, 22.23377851964359 ], [ -102.130148139853063, 22.241056969573904 ], [ -102.124110689890003, 22.28695640014929 ], [ -102.106583799727872, 22.285365459953042 ], [ -102.105249860302024, 22.28079282977885 ], [ -102.090924679782177, 22.291207180018752 ], [ -102.089571399854179, 22.288998860040149 ], [ -102.075627049820085, 22.306072779894933 ] ] ] } }
]
}
