{"type":"FeatureCollection","features":[{"type":"Feature","properties":{"code":"02007","stateCode":"02","municipalityCode":"007","name":"San Felipe"},"geometry":{"type":"MultiPolygon","coordinates":[[[[-114.3821,29.8226],[-114.3784,29.8139],[-114.36991,29.80902],[-114.36957,29.80634],[-114.3807,29.8131],[-114.38579,29.80982],[-114.3895,29.81126],[-114.38968,29.80834],[-114.3923,29.8098],[-114.39198,29.81863],[-114.39604,29.81953],[-114.3821,29.8226]]],[[[-114.41746,29.98801],[-114.40196,29.98276],[-114.39169,29.96184],[-114.40943,29.9555],[-114.41532,29.94866],[-114.4113,29.95602],[-114.41237,29.96095],[-114.41958,29.96241],[-114.41866,29.96566],[-114.42372,29.96696],[-114.41563,29.97514],[-114.41579,29.98151],[-114.42007,29.98505],[-114.41746,29.98801]]],[[[-114.39088,29.99344],[-114.38701,29.99204],[-114.38957,29.98868],[-114.39088,29.99344]]],[[[-114.47361,30.02282],[-114.4733,30.01421],[-114.47498,30.01295],[-114.47996,30.02024],[-114.47361,30.02282]]],[[[-114.49108,30.04744],[-114.49126,30.05334],[-114.48924,30.05472],[-114.48652,30.05125],[-114.49108,30.04744]]],[[[-114.55038,30.09397],[-114.54013,30.09225],[-114.53518,30.08326],[-114.54178,30.08347],[-114.54692,30.09039],[-114.55389,30.08976],[-114.55038,30.09397]]],[[[-114.62554,30.13118],[-114.62725,30.13039],[-114.62651,30.13143],[-114.62554,30.13118]]],[[[-115.14576,31.82471],[-115.10663,31.80549],[-115.05628,31.71248],[-115.07231,31.67505],[-115.07512,31.56111],[-115.0697,31.4781],[-115.06688,31.46914],[-115.05323,31.44049],[-115.02978,31.44836],[-114.98782,31.36163],[-114.85655,31.39084],[-114.85592,31.38408],[-114.85278,31.38269],[-114.85789,31.3808],[-114.86319,31.36952],[-114.86107,31.36481],[-114.8657,31.36435],[-114.86905,31.35657],[-114.86743,31.35312],[-114.87029,31.35451],[-114.87181,31.34582],[-114.87467,31.34609],[-114.87914,31.33821],[-114.88293,31.31144],[-114.87957,31.31077],[-114.88554,31.30588],[-114.88304,31.30664],[-114.88438,31.30365],[-114.87955,31.29724],[-114.88423,31.28675],[-114.89007,31.28451],[-114.88923,31.27236],[-114.88457,31.27165],[-114.89469,31.26484],[-114.88652,31.26004],[-114.88143,31.26275],[-114.88656,31.25854],[-114.88272,31.25502],[-114.88112,31.23925],[-114.8854,31.2196],[-114.88409,31.2061],[-114.89093,31.15373],[-114.88417,31.1185],[-114.87031,31.09399],[-114.85592,31.07863],[-114.83218,31.06673],[-114.82291,31.05418],[-114.81417,31.05217],[-114.8117,31.04404],[-114.82427,31.03953],[-114.83272,31.02207],[-114.83409,31.00175],[-114.82853,30.99675],[-114.82464,30.99911],[-114.82191,30.99683],[-114.82484,30.99861],[-114.82936,30.99389],[-114.82635,30.99149],[-114.82109,30.99593],[-114.82464,30.99193],[-114.82303,30.98798],[-114.81061,30.97867],[-114.72021,30.937],[-114.71069,30.90917],[-114.71085,30.89114],[-114.70654,30.88406],[-114.70527,30.86734],[-114.70211,30.86624],[-114.70973,30.84523],[-114.70302,30.82562],[-114.69696,30.81725],[-114.70015,30.76975],[-114.69318,30.74455],[-114.70536,30.71229],[-114.69442,30.67738],[-114.69851,30.63214],[-114.67785,30.58871],[-114.66546,30.57802],[-114.65254,30.55717],[-114.64882,30.52702],[-114.64135,30.51831],[-114.63032,30.48942],[-114.63097,30.4775],[-114.63924,30.45404],[-114.6305,30.41931],[-114.63672,30.40455],[-114.63446,30.39572],[-114.64357,30.37704],[-114.6407,30.36732],[-114.6353,30.36417],[-114.63727,30.35775],[-114.63485,30.34949],[-114.63611,30.34468],[-114.63831,30.34876],[-114.64162,30.34884],[-114.63909,30.3393],[-114.6443,30.33692],[-114.64403,30.32349],[-114.64649,30.3206],[-114.64455,30.31481],[-114.65165,30.29735],[-114.65158,30.28994],[-114.65616,30.28423],[-114.65506,30.27729],[-114.64114,30.26637],[-114.63974,30.25847],[-114.65201,30.24165],[-114.65054,30.2253],[-114.66801,30.20045],[-114.66772,30.19142],[-114.65246,30.17493],[-114.64531,30.15734],[-114.64021,30.15247],[-114.63889,30.14559],[-114.63522,30.14293],[-114.63324,30.12641],[-114.6275,30.11953],[-114.60807,30.1117],[-114.60183,30.10492],[-114.59696,30.08872],[-114.58328,30.07137],[-114.5834,30.0524],[-114.57778,30.04447],[-114.57619,30.03315],[-114.5659,30.02694],[-114.5651,30.01113],[-114.55121,30.00181],[-114.55064,29.99681],[-114.53869,29.9835],[-114.54065,29.97736],[-114.53617,29.97026],[-114.48747,29.94877],[-114.47089,29.91353],[-114.44746,29.90815],[-114.43927,29.90781],[-114.43653,29.91061],[-114.41298,29.89069],[-114.40914,29.87827],[-114.41475,29.85677],[-114.41327,29.84812],[-114.40158,29.83134],[-114.39406,29.82798],[-114.40324,29.82762],[-114.40955,29.8212],[-114.40966,29.81597],[-114.39833,29.80974],[-114.40121,29.80488],[-114.39909,29.80319],[-114.39741,29.80746],[-114.39286,29.81012],[-114.39605,29.79464],[-114.38772,29.77865],[-114.37261,29.77025],[-114.36127,29.77229],[-114.35353,29.7685],[-114.34562,29.76043],[-114.3424,29.7466],[-114.32986,29.74269],[-114.30787,29.74102],[-114.30388,29.74522],[-114.30267,29.74151],[-114.29532,29.74256],[-114.28716,29.74936],[-114.28826,29.7529],[-114.28145,29.75969],[-114.29105,29.75666],[-114.29271,29.76722],[-114.28446,29.76522],[-114.28026,29.77251],[-114.27585,29.76992],[-114.27156,29.77242],[-114.26478,29.76797],[-114.26274,29.76221],[-114.25942,29.76712],[-114.2585,29.75984],[-114.24325,29.76273],[-114.22976,29.75078],[-114.20752,29.74382],[-114.19988,29.72718],[-114.18137,29.70808],[-114.16646,29.70157],[-114.15928,29.69106],[-114.14889,29.69388],[-114.14432,29.6913],[-114.1323,29.67177],[-114.11484,29.65996],[-114.11081,29.65303],[-114.06397,29.6295],[-114.05909,29.616],[-114.04663,29.59685],[-114.03116,29.59405],[-114.02725,29.58669],[-114.01505,29.57821],[-113.9951,29.57787],[-113.98017,29.56673],[-113.97428,29.5563],[-113.95754,29.54019],[-113.95161,29.5386],[-113.94314,29.52416],[-113.93051,29.52006],[-113.928,29.51262],[-113.91632,29.50555],[-113.89689,29.48487],[-113.88019,29.4775],[-113.86217,29.46218],[-113.83619,29.45615],[-113.84847,29.43904],[-113.88182,29.44479],[-113.89306,29.43412],[-113.92269,29.43056],[-113.93159,29.41674],[-113.92984,29.39626],[-113.95903,29.35916],[-113.96663,29.29869],[-113.99931,29.29462],[-114.02788,29.28603],[-114.10836,29.29205],[-114.2248,29.3243],[-114.28136,29.35953],[-114.33961,29.54931],[-114.48601,29.59307],[-114.69138,29.9978],[-114.78724,30.0557],[-114.84099,30.07464],[-114.84547,30.12323],[-114.8754,30.22619],[-114.95252,30.30614],[-114.96623,30.35778],[-114.96873,30.406],[-115.04857,30.45093],[-115.0893,30.42877],[-115.12203,30.42184],[-115.12695,30.46681],[-115.1059,30.49629],[-115.12112,30.51779],[-115.10091,30.54627],[-115.09633,30.55943],[-115.1563,30.60363],[-115.21482,30.679],[-115.23652,30.7721],[-115.30776,30.77244],[-115.34254,30.81496],[-115.39459,30.97185],[-115.46371,31.47937],[-115.5605,31.55902],[-115.60365,31.62445],[-115.5666,31.64337],[-115.53733,31.6698],[-115.38335,31.77226],[-115.31192,31.80459],[-115.29276,31.79113],[-115.2277,31.81761],[-115.18747,31.83027],[-115.18341,31.83282],[-115.18119,31.857],[-115.17531,31.84522],[-115.14576,31.82471]]]]}},{"type":"Feature","properties":{"code":"02003","stateCode":"02","municipalityCode":"003","name":"Tecate"},"geometry":{"type":"Polygon","coordinates":[[[-116.73856,32.56685],[-115.8793,32.63608],[-115.88224,32.59326],[-115.8742,32.38623],[-116.14619,32.23744],[-116.52926,32.24536],[-116.60685,32.21121],[-116.60984,32.2151],[-116.61092,32.24421],[-116.6143,32.24302],[-116.62088,32.26531],[-116.63528,32.2743],[-116.68925,32.2861],[-116.69112,32.32634],[-116.65669,32.35405],[-116.65388,32.35103],[-116.63939,32.36378],[-116.66576,32.38754],[-116.65297,32.39829],[-116.66851,32.41134],[-116.6755,32.45514],[-116.68153,32.45898],[-116.69109,32.48347],[-116.71572,32.47295],[-116.72106,32.4804],[-116.72449,32.48003],[-116.70974,32.51767],[-116.71916,32.52404],[-116.72339,32.52065],[-116.7312,32.52147],[-116.73071,32.52634],[-116.73731,32.52823],[-116.74265,32.53873],[-116.75097,32.54145],[-116.75525,32.5566],[-116.73324,32.5582],[-116.73856,32.56685]]]}},{"type":"Feature","properties":{"code":"02004","stateCode":"02","municipalityCode":"004","name":"Tijuana"},"geometry":{"type":"MultiPolygon","coordinates":[[[[-117.24565,32.4139],[-117.24369,32.41504],[-117.2422,32.41144],[-117.23997,32.39109],[-117.24432,32.39505],[-117.2443,32.40499],[-117.24922,32.41085],[-117.25077,32.41968],[-117.24565,32.4139]]],[[[-117.25978,32.41888],[-117.25939,32.4198],[-117.25728,32.4185],[-117.25946,32.41877],[-117.25961,32.41471],[-117.25978,32.41888]]],[[[-117.29894,32.44553],[-117.29674,32.44368],[-117.29408,32.43372],[-117.30004,32.44034],[-117.29894,32.44553]]],[[[-117.1245,32.53426],[-116.73883,32.56682],[-116.73324,32.5582],[-116.75525,32.5566],[-116.75097,32.54145],[-116.74265,32.53873],[-116.73731,32.52823],[-116.73071,32.52634],[-116.7312,32.52147],[-116.72339,32.52065],[-116.71916,32.52404],[-116.70974,32.51767],[-116.72449,32.48003],[-116.72106,32.4804],[-116.71572,32.47295],[-116.69109,32.48347],[-116.68153,32.45898],[-116.6755,32.45514],[-116.66851,32.41134],[-116.65297,32.39829],[-116.66576,32.38754],[-116.63939,32.36378],[-116.65388,32.35103],[-116.65669,32.35405],[-116.69112,32.32634],[-116.68925,32.2861],[-116.63528,32.2743],[-116.62088,32.26531],[-116.6143,32.24302],[-116.61092,32.24421],[-116.60984,32.2151],[-116.60685,32.21121],[-116.67227,32.18235],[-116.82255,32.29828],[-116.94932,32.29839],[-116.94931,32.31528],[-116.90685,32.33509],[-116.94929,32.34334],[-116.94928,32.3659],[-116.96244,32.37875],[-116.97422,32.37483],[-116.98583,32.40194],[-117.02016,32.41354],[-117.02005,32.41641],[-117.03786,32.41434],[-117.03932,32.4111],[-117.04611,32.41237],[-117.05245,32.41691],[-117.05061,32.42083],[-117.06293,32.42636],[-117.06742,32.41053],[-117.09216,32.40872],[-117.1027,32.4389],[-117.11329,32.45051],[-117.12451,32.48538],[-117.1245,32.53426]]]]}},{"type":"Feature","properties":{"code":"02001","stateCode":"02","municipalityCode":"001","name":"Ensenada"},"geometry":{"type":"MultiPolygon","coordinates":[[[[-115.21765,28.37774],[-115.21191,28.37231],[-115.20679,28.37305],[-115.2041,28.36448],[-115.19771,28.36549],[-115.19726,28.36181],[-115.19417,28.36169],[-115.19528,28.33227],[-115.18623,28.31473],[-115.17414,28.30616],[-115.17401,28.28877],[-115.16377,28.26042],[-115.17013,28.24366],[-115.17359,28.21494],[-115.16958,28.20237],[-115.15979,28.19224],[-115.15665,28.16605],[-115.16051,28.15042],[-115.15757,28.1441],[-115.1592,28.13784],[-115.17476,28.12382],[-115.18626,28.10538],[-115.18587,28.09904],[-115.18245,28.09602],[-115.18521,28.09746],[-115.18345,28.09376],[-115.18796,28.08662],[-115.18145,28.06947],[-115.18953,28.05498],[-115.18088,28.04059],[-115.18556,28.03706],[-115.18534,28.03136],[-115.19633,28.03808],[-115.21002,28.03952],[-115.21591,28.03658],[-115.21614,28.03341],[-115.22095,28.03539],[-115.22387,28.03105],[-115.22984,28.02953],[-115.23268,28.02988],[-115.23256,28.03448],[-115.24567,28.03395],[-115.25537,28.0375],[-115.25214,28.0432],[-115.26546,28.07288],[-115.27827,28.08671],[-115.28951,28.09276],[-115.30689,28.09476],[-115.318,28.09117],[-115.31954,28.08706],[-115.33425,28.08622],[-115.3384,28.0793],[-115.34375,28.07999],[-115.34538,28.0743],[-115.35071,28.07409],[-115.35968,28.08099],[-115.35646,28.08034],[-115.3584,28.08416],[-115.35283,28.08769],[-115.35297,28.09129],[-115.35594,28.09173],[-115.35221,28.09516],[-115.35614,28.10697],[-115.35223,28.10816],[-115.35296,28.11724],[-115.34634,28.11716],[-115.33809,28.1212],[-115.33806,28.1239],[-115.33502,28.12284],[-115.31625,28.13784],[-115.24295,28.2209],[-115.24491,28.2268],[-115.24059,28.22699],[-115.23804,28.2319],[-115.2525,28.25644],[-115.25398,28.26935],[-115.25794,28.27343],[-115.25377,28.28616],[-115.26441,28.29404],[-115.2616,28.29468],[-115.26289,28.30013],[-115.2571,28.29909],[-115.25742,28.30477],[-115.25409,28.30414],[-115.25513,28.3109],[-115.24956,28.31159],[-115.24772,28.31571],[-115.24943,28.32687],[-115.24593,28.32902],[-115.25159,28.33666],[-115.25045,28.33988],[-115.23995,28.34244],[-115.24576,28.35427],[-115.24306,28.35319],[-115.23589,28.36139],[-115.22959,28.36248],[-115.2284,28.36622],[-115.23136,28.36925],[-115.22917,28.37262],[-115.21765,28.37774]]],[[[-116.79852,31.80683],[-116.78879,31.80659],[-116.78694,31.79097],[-116.79307,31.80155],[-116.79705,31.80314],[-116.79852,31.80683]]],[[[-116.80604,31.81322],[-116.80121,31.81198],[-116.80141,31.8059],[-116.80269,31.80982],[-116.80928,31.80989],[-116.80604,31.81322]]],[[[-115.87429,32.38623],[-115.84779,31.99005],[-115.5605,31.55902],[-115.46371,31.47937],[-115.39459,30.97185],[-115.34254,30.81496],[-115.30776,30.77244],[-115.32575,30.73345],[-115.55342,30.7193],[-115.57724,31.04769],[-115.55745,31.07485],[-115.57199,31.07932],[-115.58692,31.08989],[-115.60276,31.07521],[-115.61123,31.08167],[-115.62281,31.09931],[-115.62055,31.10143],[-115.62688,31.12005],[-115.64233,31.12645],[-115.69277,31.12183],[-115.69172,31.11571],[-115.72149,31.10084],[-115.73113,31.10472],[-115.74228,31.10442],[-115.74418,31.11478],[-115.74991,31.09032],[-115.77411,31.06284],[-115.82331,31.07611],[-115.85274,31.08054],[-115.89175,31.08057],[-115.91135,31.06941],[-115.93672,31.06254],[-115.96077,31.04441],[-115.98669,31.04707],[-115.99628,31.03677],[-116.02567,31.04201],[-116.05147,31.01565],[-116.05862,31.02183],[-116.08629,31.01426],[-116.09463,30.98264],[-116.09892,30.98254],[-116.10835,30.99105],[-116.11435,30.98304],[-116.13452,30.97805],[-116.14657,30.98136],[-116.13901,30.96269],[-116.22125,30.91785],[-116.23293,30.93145],[-116.24546,30.93343],[-116.27154,30.96784],[-116.28483,30.96944],[-116.29985,30.96064],[-116.31826,30.95574],[-116.33054,30.95928],[-116.33853,30.97228],[-116.3387,30.98535],[-116.32878,31.01691],[-116.31319,31.09573],[-116.3095,31.15238],[-116.32557,31.18073],[-116.33516,31.19033],[-116.33993,31.20767],[-116.35254,31.21378],[-116.3529,31.2252],[-116.36351,31.24704],[-116.38416,31.26644],[-116.39238,31.28356],[-116.39991,31.28372],[-116.40678,31.29215],[-116.41647,31.29281],[-116.41727,31.30279],[-116.42519,31.30984],[-116.43297,31.31199],[-116.44019,31.32503],[-116.44551,31.32339],[-116.45071,31.33137],[-116.4555,31.32874],[-116.45726,31.33263],[-116.45413,31.33247],[-116.45298,31.33601],[-116.45571,31.3467],[-116.46663,31.34985],[-116.46862,31.36024],[-116.47362,31.36033],[-116.48749,31.36933],[-116.48676,31.37998],[-116.50201,31.40584],[-116.50063,31.41076],[-116.51292,31.41457],[-116.51228,31.41925],[-116.52174,31.43449],[-116.54449,31.44695],[-116.54729,31.44601],[-116.55061,31.45211],[-116.57098,31.46487],[-116.58264,31.46644],[-116.59664,31.46067],[-116.60246,31.46328],[-116.60867,31.49723],[-116.63417,31.51718],[-116.64846,31.51606],[-116.64668,31.51934],[-116.6602,31.52886],[-116.65938,31.53383],[-116.66652,31.54019],[-116.66457,31.54668],[-116.66917,31.55263],[-116.67847,31.55476],[-116.68082,31.55079],[-116.68504,31.55043],[-116.69111,31.55326],[-116.68792,31.5591],[-116.69208,31.57137],[-116.68154,31.57121],[-116.67665,31.57435],[-116.67635,31.57833],[-116.65377,31.57919],[-116.65157,31.58241],[-116.65075,31.58809],[-116.65461,31.59395],[-116.66395,31.60008],[-116.66762,31.61785],[-116.65422,31.64233],[-116.64993,31.66454],[-116.67989,31.69656],[-116.67663,31.69726],[-116.67768,31.6997],[-116.69167,31.70387],[-116.68842,31.70683],[-116.69327,31.70925],[-116.69647,31.71605],[-116.70328,31.71613],[-116.7061,31.71158],[-116.70739,31.71436],[-116.70816,31.71155],[-116.71398,31.71386],[-116.71707,31.71805],[-116.71489,31.725],[-116.72431,31.72261],[-116.72664,31.73381],[-116.72856,31.73182],[-116.73287,31.73598],[-116.73429,31.73422],[-116.73659,31.74138],[-116.744,31.7439],[-116.74161,31.74988],[-116.72751,31.74912],[-116.69771,31.73271],[-116.68212,31.72907],[-116.6722,31.71895],[-116.66192,31.71913],[-116.64335,31.73431],[-116.62558,31.77232],[-116.61898,31.7755],[-116.62296,31.76472],[-116.62558,31.76453],[-116.62495,31.75442],[-116.63148,31.75147],[-116.63451,31.73602],[-116.63798,31.73541],[-116.63595,31.73323],[-116.6401,31.72649],[-116.65281,31.72027],[-116.64901,31.71835],[-116.64747,31.70933],[-116.64128,31.70941],[-116.64766,31.71624],[-116.63236,31.73299],[-116.6281,31.73261],[-116.62674,31.73779],[-116.62919,31.73765],[-116.62156,31.74998],[-116.62004,31.76339],[-116.61107,31.76678],[-116.60997,31.77092],[-116.61038,31.77478],[-116.61553,31.77514],[-116.61984,31.77997],[-116.61211,31.80167],[-116.60956,31.82034],[-116.61305,31.84141],[-116.61787,31.84495],[-116.62134,31.84121],[-116.62102,31.84604],[-116.6161,31.84593],[-116.6202,31.85104],[-116.61784,31.85289],[-116.62099,31.85625],[-116.62318,31.85517],[-116.62037,31.85378],[-116.6243,31.85255],[-116.62487,31.85553],[-116.6218,31.85757],[-116.62641,31.86016],[-116.63162,31.85921],[-116.62928,31.85606],[-116.63352,31.85504],[-116.6288,31.85151],[-116.62527,31.84399],[-116.62609,31.84035],[-116.6262,31.84437],[-116.63999,31.86016],[-116.659,31.8633],[-116.66029,31.86118],[-116.65929,31.8633],[-116.66256,31.86428],[-116.66394,31.86182],[-116.65998,31.86044],[-116.66892,31.86143],[-116.69937,31.89478],[-116.70582,31.89388],[-116.7025,31.89063],[-116.72063,31.90236],[-116.74633,31.90208],[-116.75629,31.91365],[-116.75646,31.94461],[-116.76199,31.96146],[-116.76881,31.97093],[-116.78043,31.97774],[-116.79073,31.97672],[-116.79948,31.98207],[-116.82422,31.97713],[-116.83339,31.97885],[-116.84132,31.98642],[-116.85153,31.98558],[-116.86057,31.9994],[-116.86447,32.00013],[-116.86444,32.00419],[-116.88095,32.01868],[-116.8871,32.03443],[-116.88449,32.04308],[-116.8876,32.04891],[-116.88307,32.05029],[-116.88487,32.05436],[-116.88211,32.05329],[-116.87891,32.05417],[-116.87777,32.05569],[-116.87877,32.05466],[-116.87999,32.05459],[-116.87795,32.05654],[-116.87974,32.057],[-116.8804,32.05471],[-116.88527,32.05532],[-116.88225,32.05629],[-116.88122,32.06764],[-116.88233,32.07964],[-116.88662,32.08618],[-116.8845,32.08832],[-116.52926,32.24536],[-116.14619,32.23744],[-115.87429,32.38623]]]]}},{"type":"Feature","properties":{"code":"02006","stateCode":"02","municipalityCode":"006","name":"San Quintín"},"geometry":{"type":"MultiPolygon","coordinates":[[[[-114.11561,28.09639],[-114.11566,28.09359],[-114.11626,28.09622],[-114.11711,28.09581],[-114.11783,28.08718],[-114.12174,28.09477],[-114.11561,28.09639]]],[[[-112.30699,28.39094],[-112.29677,28.38136],[-112.30083,28.37784],[-112.29974,28.37292],[-112.31566,28.3786],[-112.32011,28.37619],[-112.32056,28.38221],[-112.31651,28.38216],[-112.31497,28.38703],[-112.31012,28.38698],[-112.30699,28.39094]]],[[[-115.54533,28.31151],[-115.5422,28.30629],[-115.53679,28.30473],[-115.53683,28.30022],[-115.54367,28.29137],[-115.54794,28.29753],[-115.54591,28.302],[-115.54986,28.30447],[-115.54863,28.31008],[-115.54533,28.31151]]],[[[-115.57197,28.31256],[-115.56766,28.31392],[-115.56093,28.30808],[-115.57057,28.30828],[-115.57197,28.31256]]],[[[-115.59236,28.31676],[-115.58263,28.30572],[-115.57529,28.31093],[-115.57591,28.30226],[-115.57993,28.30206],[-115.58074,28.29575],[-115.58281,28.29922],[-115.59055,28.29517],[-115.59176,28.29938],[-115.59662,28.29695],[-115.60645,28.3002],[-115.60175,28.30564],[-115.60136,28.31593],[-115.59763,28.31413],[-115.59236,28.31676]]],[[[-112.89233,28.67826],[-112.86743,28.6711],[-112.86024,28.673],[-112.84786,28.66198],[-112.83867,28.66116],[-112.83749,28.65702],[-112.80305,28.63584],[-112.79777,28.62743],[-112.78433,28.61881],[-112.77997,28.61033],[-112.76397,28.60225],[-112.75897,28.59386],[-112.75256,28.59153],[-112.77216,28.57686],[-112.78261,28.58036],[-112.78348,28.58621],[-112.78932,28.58728],[-112.79193,28.59931],[-112.79891,28.61058],[-112.80854,28.6156],[-112.80994,28.61924],[-112.82983,28.62735],[-112.84377,28.64018],[-112.85349,28.64109],[-112.85573,28.64419],[-112.86785,28.64397],[-112.86679,28.65287],[-112.87209,28.65498],[-112.87815,28.66575],[-112.89138,28.67469],[-112.89233,28.67826]]],[[[-112.90366,28.69853],[-112.90472,28.69829],[-112.90416,28.69932],[-112.90366,28.69853]]],[[[-112.93139,28.70935],[-112.92078,28.69969],[-112.91582,28.69822],[-112.91321,28.70074],[-112.90959,28.69646],[-112.89761,28.69723],[-112.89843,28.6847],[-112.89507,28.6799],[-112.9146,28.69129],[-112.93137,28.69643],[-112.93483,28.70153],[-112.93139,28.70935]]],[[[-112.96413,28.72466],[-112.96194,28.72331],[-112.9645,28.72381],[-112.96413,28.72466]]],[[[-112.9667,28.73436],[-112.96587,28.73338],[-112.96709,28.7338],[-112.9667,28.73436]]],[[[-112.96084,28.7346],[-112.95287,28.72564],[-112.95274,28.72854],[-112.95084,28.72742],[-112.94629,28.71716],[-112.95176,28.7248],[-112.95788,28.72258],[-112.95838,28.72779],[-112.96567,28.73113],[-112.96084,28.7346]]],[[[-114.27868,28.67041],[-114.27766,28.66869],[-114.27938,28.66935],[-114.27868,28.67041]]],[[[-114.28086,28.6933],[-114.27836,28.6938],[-114.27862,28.69297],[-114.28086,28.6933]]],[[[-112.9851,28.8264],[-112.97574,28.82549],[-112.97525,28.82288],[-112.9816,28.82101],[-112.98635,28.82403],[-112.9851,28.8264]]],[[[-112.99939,28.83687],[-112.99891,28.83634],[-112.99959,28.83646],[-112.99939,28.83687]]],[[[-113.35752,28.82651],[-113.35828,28.82741],[-113.35736,28.82794],[-113.35752,28.82651]]],[[[-114.35236,28.76776],[-114.35113,28.76715],[-114.35232,28.76716],[-114.35236,28.76776]]],[[[-113.02998,28.88584],[-113.02775,28.88758],[-113.02671,28.88599],[-113.02998,28.88584]]],[[[-113.03909,28.90014],[-113.03273,28.89934],[-113.03275,28.8957],[-113.04038,28.88453],[-113.04446,28.88365],[-113.04803,28.8944],[-113.0445,28.89007],[-113.04078,28.89078],[-113.03743,28.89689],[-113.03909,28.90014]]],[[[-113.35911,28.88343],[-113.35799,28.88249],[-113.35994,28.8827],[-113.35911,28.88343]]],[[[-113.0443,28.9112],[-113.04283,28.91156],[-113.04326,28.91069],[-113.0443,28.9112]]],[[[-113.38365,28.92409],[-113.38528,28.92471],[-113.38478,28.92649],[-113.38365,28.92409]]],[[[-113.48229,28.95644],[-113.48297,28.95589],[-113.48309,28.95609],[-113.48229,28.95644]]],[[[-113.47462,28.95719],[-113.47644,28.95537],[-113.47741,28.95589],[-113.47462,28.95719]]],[[[-113.47547,28.96784],[-113.48138,28.9673],[-113.4808,28.9743],[-113.48511,28.9789],[-113.47709,28.9749],[-113.47547,28.96784]]],[[[-113.52071,28.99704],[-113.51835,28.99772],[-113.51807,28.99513],[-113.52071,28.99704]]],[[[-113.52124,28.9984],[-113.51966,28.9989],[-113.52013,28.99788],[-113.52124,28.9984]]],[[[-113.51254,29.00272],[-113.50198,28.99398],[-113.50902,28.99317],[-113.51135,28.98873],[-113.51696,28.99384],[-113.51537,28.99944],[-113.5123,28.99984],[-113.51557,29.00202],[-113.51254,29.00272]]],[[[-113.52393,29.00546],[-113.52111,29.00528],[-113.52431,29.0016],[-113.52393,29.00546]]],[[[-113.51107,29.01177],[-113.51407,29.00973],[-113.51593,29.00986],[-113.51517,29.01161],[-113.51107,29.01177]]],[[[-113.52505,29.01329],[-113.52409,29.01195],[-113.525,29.01072],[-113.52505,29.01329]]],[[[-113.50506,29.0142],[-113.50653,29.01387],[-113.50506,29.01489],[-113.50506,29.0142]]],[[[-113.51432,29.01631],[-113.51079,29.01407],[-113.51109,29.01336],[-113.51635,29.01341],[-113.51432,29.01631]]],[[[-113.46941,29.02418],[-113.46424,29.02159],[-113.46031,29.0132],[-113.46628,29.01394],[-113.46941,29.02418]]],[[[-113.499,29.02739],[-113.49828,29.02744],[-113.49831,29.02713],[-113.499,29.02739]]],[[[-113.08345,29.0689],[-113.08485,29.06315],[-113.08767,29.06204],[-113.09258,29.06291],[-113.09508,29.06195],[-113.09731,29.06156],[-113.0975,29.06183],[-113.09227,29.06412],[-113.09795,29.06309],[-113.09592,29.06678],[-113.08345,29.0689]]],[[[-114.6158,28.96571],[-114.61619,28.96531],[-114.61621,28.96573],[-114.6158,28.96571]]],[[[-113.513,29.06142],[-113.51232,29.06182],[-113.51259,29.06109],[-113.513,29.06142]]],[[[-113.52185,29.06964],[-113.51587,29.06722],[-113.51488,29.06483],[-113.52185,29.06964]]],[[[-113.52767,29.09316],[-113.50944,29.0961],[-113.50234,29.09042],[-113.50818,29.08024],[-113.50303,29.07683],[-113.50552,29.06328],[-113.49925,29.05491],[-113.50273,29.04983],[-113.49678,29.04743],[-113.49578,29.0414],[-113.48918,29.03769],[-113.50473,29.03923],[-113.5072,29.04211],[-113.50312,29.04561],[-113.50697,29.04732],[-113.5025,29.0475],[-113.50285,29.04909],[-113.5069,29.0475],[-113.51379,29.0521],[-113.50972,29.062],[-113.5156,29.07057],[-113.51483,29.07699],[-113.52184,29.07834],[-113.52767,29.09316]]],[[[-113.53004,29.09846],[-113.52728,29.0981],[-113.53085,29.09617],[-113.53004,29.09846]]],[[[-113.60821,29.16813],[-113.60693,29.16676],[-113.60806,29.16604],[-113.60821,29.16813]]],[[[-113.526,29.55079],[-113.51138,29.54944],[-113.51153,29.53816],[-113.47439,29.5311],[-113.47641,29.52588],[-113.46169,29.5181],[-113.45627,29.51083],[-113.44629,29.50659],[-113.43561,29.4932],[-113.431,29.49206],[-113.4254,29.47385],[-113.41716,29.47061],[-113.41712,29.46659],[-113.40656,29.46066],[-113.39336,29.45925],[-113.39295,29.44928],[-113.38481,29.44358],[-113.38387,29.43359],[-113.3728,29.42191],[-113.36165,29.40134],[-113.36334,29.39544],[-113.35204,29.38735],[-113.3518,29.38291],[-113.36197,29.37375],[-113.36662,29.36098],[-113.37614,29.34951],[-113.37009,29.32363],[-113.37067,29.31235],[-113.36679,29.30785],[-113.34497,29.29575],[-113.30443,29.29131],[-113.29444,29.28125],[-113.28836,29.28076],[-113.28272,29.28842],[-113.27853,29.28739],[-113.27603,29.29055],[-113.27427,29.28481],[-113.26054,29.28966],[-113.26103,29.28379],[-113.25546,29.28277],[-113.23747,29.28907],[-113.20717,29.28471],[-113.18354,29.28955],[-113.16759,29.27889],[-113.17681,29.26511],[-113.17862,29.24767],[-113.17706,29.23247],[-113.17281,29.22701],[-113.17238,29.19686],[-113.16703,29.19104],[-113.17402,29.16606],[-113.17456,29.12778],[-113.16319,29.1058],[-113.15387,29.09504],[-113.15592,29.07917],[-113.14837,29.06619],[-113.12466,29.06128],[-113.1235,29.05637],[-113.1002,29.05623],[-113.11515,29.02856],[-113.11615,28.98699],[-113.12242,28.98737],[-113.13928,29.00285],[-113.14972,29.00602],[-113.15463,29.01502],[-113.18859,29.02836],[-113.20035,29.048],[-113.24395,29.06713],[-113.24879,29.07312],[-113.24991,29.08396],[-113.25976,29.09171],[-113.26402,29.10455],[-113.28678,29.12944],[-113.29827,29.13671],[-113.30069,29.1451],[-113.3135,29.14817],[-113.31975,29.1572],[-113.32469,29.15731],[-113.33039,29.1623],[-113.33155,29.15948],[-113.35061,29.16858],[-113.36387,29.18744],[-113.38592,29.19627],[-113.40441,29.20947],[-113.40416,29.2133],[-113.43031,29.24296],[-113.42783,29.25501],[-113.43025,29.25906],[-113.4348,29.25939],[-113.44282,29.27568],[-113.44964,29.28013],[-113.45608,29.27827],[-113.46465,29.28126],[-113.47399,29.27778],[-113.47908,29.28121],[-113.49692,29.28379],[-113.49683,29.28883],[-113.50328,29.29775],[-113.50729,29.32319],[-113.52548,29.33482],[-113.53141,29.35182],[-113.53927,29.35664],[-113.54573,29.37156],[-113.55613,29.37695],[-113.55732,29.38589],[-113.56642,29.3924],[-113.56993,29.40015],[-113.58822,29.40892],[-113.59243,29.41753],[-113.58837,29.42742],[-113.59443,29.43845],[-113.59226,29.45103],[-113.58522,29.46435],[-113.57789,29.4682],[-113.57546,29.48066],[-113.5683,29.48908],[-113.56362,29.5052],[-113.56456,29.51176],[-113.57005,29.5153],[-113.56909,29.52167],[-113.57234,29.52202],[-113.568,29.52861],[-113.57212,29.53836],[-113.55869,29.54601],[-113.56035,29.53619],[-113.556,29.53413],[-113.55292,29.53792],[-113.55358,29.53435],[-113.5455,29.53399],[-113.54066,29.53873],[-113.53501,29.53797],[-113.52478,29.54328],[-113.526,29.55079]]],[[[-113.55871,29.55426],[-113.55755,29.54876],[-113.55903,29.5461],[-113.55871,29.55426]]],[[[-113.53978,29.5664],[-113.53436,29.56201],[-113.5453,29.56541],[-113.53978,29.5664]]],[[[-113.56686,29.56648],[-113.55966,29.56087],[-113.56051,29.55531],[-113.56217,29.56018],[-113.56399,29.55233],[-113.5757,29.54599],[-113.57934,29.56099],[-113.56686,29.56648]]],[[[-118.2607,29.18891],[-118.27055,29.17504],[-118.27365,29.16302],[-118.28238,29.15776],[-118.2882,29.14443],[-118.28745,29.13306],[-118.28158,29.11652],[-118.28239,29.10861],[-118.25354,29.09465],[-118.22807,29.06199],[-118.22292,29.03828],[-118.22432,29.02535],[-118.22146,29.01078],[-118.22968,28.99543],[-118.22901,28.97495],[-118.22097,28.96257],[-118.2276,28.93698],[-118.22795,28.92177],[-118.23856,28.91528],[-118.24823,28.891],[-118.26094,28.88348],[-118.27049,28.88895],[-118.29575,28.87948],[-118.29565,28.88531],[-118.28611,28.88933],[-118.28251,28.89625],[-118.2878,28.91114],[-118.28598,28.91236],[-118.29307,28.91896],[-118.29247,28.92771],[-118.29841,28.93575],[-118.29405,28.94386],[-118.2982,28.95166],[-118.29294,28.95302],[-118.29092,28.96768],[-118.2939,28.97206],[-118.30287,28.97177],[-118.31355,28.98004],[-118.30532,28.98656],[-118.30948,28.99869],[-118.305,29.00446],[-118.3141,29.01955],[-118.31711,29.03784],[-118.3265,29.04926],[-118.33885,29.05516],[-118.34545,29.06729],[-118.36092,29.07272],[-118.36465,29.07755],[-118.35119,29.11461],[-118.35451,29.12214],[-118.35355,29.1294],[-118.36526,29.14637],[-118.33396,29.16945],[-118.32099,29.16983],[-118.31585,29.1753],[-118.30808,29.17067],[-118.29489,29.17151],[-118.28865,29.18033],[-118.27971,29.18067],[-118.26465,29.19063],[-118.2607,29.18891]]],[[[-115.49963,29.61493],[-115.50029,29.61453],[-115.49966,29.61502],[-115.49963,29.61493]]],[[[-115.79135,29.79716],[-115.78819,29.79338],[-115.7951,29.78656],[-115.79486,29.79261],[-115.79135,29.79716]]],[[[-116.11257,30.4973],[-116.10799,30.49567],[-116.10438,30.48552],[-116.09994,30.48489],[-116.10169,30.48308],[-116.10987,30.48031],[-116.123,30.48466],[-116.12339,30.49146],[-116.11257,30.4973]]],[[[-115.64233,31.12645],[-115.62688,31.12005],[-115.62055,31.10143],[-115.62281,31.09931],[-115.61123,31.08167],[-115.60276,31.07521],[-115.58692,31.08989],[-115.57199,31.07932],[-115.55745,31.07485],[-115.57724,31.04769],[-115.55342,30.7193],[-115.32575,30.73345],[-115.30776,30.77244],[-115.23652,30.7721],[-115.21482,30.679],[-115.1563,30.60363],[-115.09633,30.55943],[-115.10091,30.54627],[-115.12112,30.51779],[-115.1059,30.49629],[-115.12695,30.46681],[-115.12203,30.42184],[-115.0893,30.42877],[-115.04857,30.45093],[-114.96873,30.406],[-114.96623,30.35778],[-114.95252,30.30614],[-114.8754,30.22619],[-114.84547,30.12323],[-114.84099,30.07464],[-114.78724,30.0557],[-114.69138,29.9978],[-114.48601,29.59307],[-114.33961,29.54931],[-114.28136,29.35953],[-114.2248,29.3243],[-114.10836,29.29205],[-114.02788,29.28603],[-113.99931,29.29462],[-113.96663,29.29869],[-113.95903,29.35916],[-113.92984,29.39626],[-113.93159,29.41674],[-113.92269,29.43056],[-113.89306,29.43412],[-113.88182,29.44479],[-113.84847,29.43904],[-113.83583,29.45556],[-113.83144,29.44915],[-113.83209,29.4352],[-113.82576,29.42942],[-113.80554,29.42616],[-113.79759,29.41793],[-113.78851,29.41755],[-113.78567,29.41357],[-113.7722,29.4097],[-113.7616,29.3915],[-113.726,29.36685],[-113.71657,29.34914],[-113.707,29.34194],[-113.69486,29.3245],[-113.68445,29.31945],[-113.66844,29.30462],[-113.65828,29.30203],[-113.65664,29.29736],[-113.63752,29.28359],[-113.62528,29.25329],[-113.65296,29.22421],[-113.6563,29.20932],[-113.6392,29.19807],[-113.64301,29.18426],[-113.63625,29.17891],[-113.63533,29.17335],[-113.62715,29.17539],[-113.62088,29.16094],[-113.61295,29.16009],[-113.60914,29.16366],[-113.60511,29.14586],[-113.59328,29.1304],[-113.58302,29.12696],[-113.57788,29.11927],[-113.5714,29.11659],[-113.56295,29.08595],[-113.55736,29.08198],[-113.55063,29.06784],[-113.53871,29.05803],[-113.53899,29.03986],[-113.53447,29.03235],[-113.53825,29.03108],[-113.53705,29.03654],[-113.54113,29.0393],[-113.5491,29.03996],[-113.56073,29.02328],[-113.56305,29.00734],[-113.56069,28.99932],[-113.54719,28.98503],[-113.54651,28.96661],[-113.54179,28.95578],[-113.54247,28.95384],[-113.54535,28.96251],[-113.55621,28.95389],[-113.55737,28.94675],[-113.54757,28.93329],[-113.54528,28.92334],[-113.53481,28.906],[-113.52699,28.89999],[-113.52608,28.89307],[-113.50347,28.88938],[-113.4795,28.89434],[-113.47904,28.9027],[-113.47148,28.91423],[-113.47804,28.91779],[-113.47697,28.92003],[-113.48313,28.92061],[-113.48735,28.92804],[-113.48605,28.93246],[-113.48027,28.93182],[-113.48316,28.93795],[-113.48149,28.94181],[-113.47439,28.94352],[-113.47996,28.9478],[-113.46999,28.94932],[-113.45788,28.94394],[-113.44684,28.9512],[-113.45552,28.9442],[-113.4526,28.9393],[-113.44724,28.93967],[-113.44789,28.94562],[-113.44098,28.94875],[-113.4383,28.95979],[-113.43302,28.95213],[-113.42413,28.94912],[-113.42868,28.93507],[-113.41437,28.9237],[-113.40504,28.9263],[-113.40609,28.93164],[-113.40131,28.93572],[-113.38553,28.93958],[-113.38267,28.93566],[-113.38635,28.92916],[-113.39114,28.9291],[-113.39391,28.91505],[-113.36781,28.90387],[-113.37811,28.90206],[-113.38051,28.8938],[-113.36772,28.87725],[-113.35715,28.87389],[-113.36605,28.87029],[-113.37031,28.86125],[-113.37072,28.83716],[-113.36406,28.82243],[-113.35143,28.81685],[-113.35595,28.81299],[-113.35387,28.80551],[-113.34054,28.80208],[-113.312,28.80344],[-113.3028,28.80955],[-113.30258,28.81264],[-113.29518,28.81371],[-113.29492,28.81859],[-113.28563,28.81991],[-113.28698,28.82545],[-113.28329,28.82814],[-113.26867,28.83162],[-113.25981,28.84073],[-113.25155,28.84072],[-113.24882,28.83688],[-113.24535,28.83882],[-113.24255,28.83407],[-113.23395,28.83576],[-113.23046,28.82798],[-113.22075,28.82499],[-113.21389,28.81471],[-113.21226,28.80309],[-113.20123,28.79821],[-113.19644,28.79255],[-113.1987,28.77916],[-113.19394,28.77397],[-113.19194,28.76503],[-113.19473,28.7494],[-113.18932,28.73017],[-113.1855,28.72753],[-113.18214,28.7152],[-113.17506,28.71147],[-113.17669,28.70477],[-113.17293,28.70336],[-113.17325,28.69519],[-113.16875,28.69187],[-113.16883,28.68437],[-113.15883,28.66007],[-113.13475,28.64214],[-113.12879,28.63231],[-113.13017,28.59802],[-113.11445,28.55835],[-113.11371,28.527],[-113.10381,28.50537],[-113.09139,28.49703],[-113.08051,28.49401],[-113.07504,28.48504],[-113.03867,28.47506],[-113.03435,28.46625],[-113.01535,28.45745],[-113.00125,28.45447],[-112.97097,28.45681],[-112.90305,28.47507],[-112.88499,28.46333],[-112.88817,28.45671],[-112.88336,28.4565],[-112.88271,28.45097],[-112.87423,28.45012],[-112.88249,28.43791],[-112.88015,28.43432],[-112.86852,28.43207],[-112.86672,28.42529],[-112.86255,28.4266],[-112.86638,28.43219],[-112.86069,28.43391],[-112.859,28.44024],[-112.84652,28.44078],[-112.84779,28.43012],[-112.84417,28.42197],[-112.85106,28.41942],[-112.85985,28.40388],[-112.85502,28.39873],[-112.85346,28.38745],[-112.84931,28.3821],[-112.85466,28.3736],[-112.85285,28.36599],[-112.85595,28.36523],[-112.8695,28.33676],[-112.8755,28.31163],[-112.87378,28.30415],[-112.86826,28.29983],[-112.87319,28.28255],[-112.86342,28.26803],[-112.84289,28.25364],[-112.82387,28.22871],[-112.80456,28.20826],[-112.80139,28.20835],[-112.80171,28.20369],[-112.78662,28.19674],[-112.79605,28.18768],[-112.79757,28.17442],[-112.80615,28.16073],[-112.81181,28.13759],[-112.81246,28.11688],[-112.80842,28.11097],[-112.80979,28.10731],[-112.80304,28.08452],[-112.79252,28.07763],[-112.78884,28.06783],[-112.80047,28.0524],[-112.80463,28.02755],[-112.79974,28.01506],[-112.79062,28.00664],[-112.76478,28.0],[-114.20544,28.0],[-114.17563,28.03347],[-114.13626,28.0851],[-114.11971,28.08146],[-114.11603,28.07167],[-114.11509,28.04831],[-114.13542,28.02952],[-114.13309,28.01793],[-114.12746,28.01283],[-114.12316,28.0153],[-114.1249,28.02114],[-114.11373,28.02593],[-114.11981,28.03652],[-114.11851,28.03727],[-114.11504,28.02908],[-114.11273,28.02533],[-114.11173,28.0248],[-114.11161,28.02421],[-114.11071,28.02361],[-114.11353,28.02772],[-114.10774,28.0335],[-114.10224,28.03664],[-114.09337,28.03602],[-114.09464,28.03142],[-114.09896,28.03377],[-114.09715,28.03101],[-114.10356,28.02358],[-114.10171,28.02127],[-114.10703,28.02264],[-114.1014,28.01753],[-114.10255,28.01965],[-114.09968,28.01961],[-114.10208,28.02422],[-114.0837,28.02644],[-114.07898,28.04111],[-114.07261,28.04648],[-114.0612,28.04625],[-114.06483,28.05233],[-114.07789,28.05682],[-114.07825,28.05451],[-114.09183,28.06494],[-114.09008,28.06215],[-114.09646,28.06544],[-114.09245,28.05793],[-114.0992,28.05915],[-114.10172,28.0995],[-114.10274,28.09671],[-114.10055,28.10814],[-114.10989,28.11944],[-114.1065,28.12988],[-114.07934,28.17157],[-114.06545,28.20704],[-114.05929,28.20873],[-114.05743,28.20514],[-114.0612,28.20435],[-114.05777,28.20247],[-114.06377,28.18499],[-114.06105,28.17144],[-114.0665,28.15595],[-114.07704,28.1457],[-114.0746,28.13433],[-114.07614,28.115],[-114.06088,28.0822],[-114.05798,28.08218],[-114.0588,28.08597],[-114.05565,28.08116],[-114.04814,28.07995],[-114.04929,28.08645],[-114.04041,28.09073],[-114.04832,28.10427],[-114.05403,28.12332],[-114.05047,28.14783],[-114.03917,28.16151],[-114.03897,28.17074],[-114.04488,28.17594],[-114.04608,28.17317],[-114.05634,28.17276],[-114.05157,28.18065],[-114.05441,28.18456],[-114.0501,28.19048],[-114.03685,28.1808],[-114.0354,28.18539],[-114.04738,28.19302],[-114.05125,28.20103],[-114.05237,28.22395],[-114.06434,28.24237],[-114.06466,28.24578],[-114.05909,28.24741],[-114.06701,28.25873],[-114.06477,28.26044],[-114.07765,28.26329],[-114.07977,28.26852],[-114.07635,28.27167],[-114.07917,28.27107],[-114.08039,28.26861],[-114.07927,28.26415],[-114.07517,28.25769],[-114.07846,28.2593],[-114.07993,28.25691],[-114.07644,28.25092],[-114.07487,28.24999],[-114.07398,28.24907],[-114.07396,28.24841],[-114.08258,28.25712],[-114.08159,28.25173],[-114.08656,28.25508],[-114.08877,28.25269],[-114.08648,28.24918],[-114.09254,28.25001],[-114.08202,28.24643],[-114.09133,28.24594],[-114.0958,28.24075],[-114.10311,28.2388],[-114.11536,28.24297],[-114.11684,28.25175],[-114.12496,28.25684],[-114.09091,28.32285],[-114.06403,28.38701],[-114.04987,28.43151],[-114.04553,28.46366],[-114.05048,28.473],[-114.06834,28.48671],[-114.06918,28.51409],[-114.07954,28.52184],[-114.08658,28.52279],[-114.09635,28.54613],[-114.11649,28.55904],[-114.13334,28.56327],[-114.14956,28.55953],[-114.16132,28.5692],[-114.15646,28.58552],[-114.15515,28.60856],[-114.16395,28.64055],[-114.18378,28.65709],[-114.21439,28.66214],[-114.22466,28.66661],[-114.24017,28.66625],[-114.23949,28.66398],[-114.24763,28.65864],[-114.24541,28.65291],[-114.25898,28.66396],[-114.26923,28.66003],[-114.27174,28.6646],[-114.27061,28.69048],[-114.27901,28.69533],[-114.28283,28.70394],[-114.30156,28.70562],[-114.30149,28.711],[-114.30525,28.71313],[-114.30732,28.72012],[-114.31595,28.72691],[-114.34074,28.73216],[-114.34719,28.73089],[-114.34325,28.75305],[-114.34395,28.75766],[-114.34758,28.75774],[-114.3517,28.76499],[-114.34862,28.77231],[-114.35978,28.77988],[-114.36074,28.79446],[-114.37312,28.81137],[-114.37899,28.81318],[-114.3862,28.80657],[-114.39687,28.8162],[-114.39868,28.83329],[-114.40538,28.83721],[-114.4029,28.83839],[-114.40626,28.86256],[-114.41745,28.87952],[-114.42652,28.88393],[-114.43781,28.87583],[-114.44042,28.88955],[-114.44973,28.90655],[-114.45296,28.90896],[-114.46124,28.90735],[-114.48879,28.93204],[-114.50553,28.93494],[-114.51135,28.93003],[-114.52588,28.93188],[-114.52951,28.92784],[-114.52761,28.92345],[-114.53101,28.91775],[-114.53641,28.92781],[-114.54557,28.93427],[-114.54346,28.93949],[-114.54867,28.95555],[-114.56252,28.97036],[-114.57647,28.97512],[-114.58464,28.96984],[-114.58141,28.96527],[-114.59211,28.96976],[-114.5915,28.97353],[-114.59846,28.97563],[-114.59777,28.9814],[-114.60139,28.98627],[-114.60227,28.992],[-114.5994,28.99338],[-114.60214,28.99562],[-114.59937,29.00019],[-114.6047,29.00148],[-114.60117,29.00461],[-114.60084,29.0112],[-114.60688,29.02012],[-114.60473,29.02743],[-114.60862,29.05738],[-114.61256,29.06378],[-114.61851,29.06318],[-114.62113,29.078],[-114.62728,29.09023],[-114.63611,29.09796],[-114.65212,29.09665],[-114.67584,29.1132],[-114.68333,29.10897],[-114.6964,29.1104],[-114.70265,29.10115],[-114.71043,29.11143],[-114.71607,29.11006],[-114.71749,29.12081],[-114.72268,29.12636],[-114.72535,29.13583],[-114.72897,29.13787],[-114.73455,29.13528],[-114.73676,29.13877],[-114.73454,29.14227],[-114.73561,29.16159],[-114.74441,29.1824],[-114.75189,29.18494],[-114.75435,29.18166],[-114.7685,29.19645],[-114.77351,29.19761],[-114.77696,29.19413],[-114.78162,29.19797],[-114.78583,29.19703],[-114.79716,29.211],[-114.80519,29.209],[-114.81264,29.21355],[-114.82304,29.23567],[-114.83157,29.24136],[-114.83754,29.23686],[-114.84622,29.24606],[-114.85069,29.26001],[-114.85871,29.26559],[-114.86352,29.27567],[-114.87353,29.28439],[-114.87917,29.28454],[-114.88759,29.29792],[-114.89957,29.30456],[-114.90407,29.31209],[-114.9116,29.31462],[-114.95052,29.36061],[-114.96763,29.37535],[-114.98244,29.3823],[-115.01196,29.38535],[-115.03016,29.39794],[-115.044,29.40158],[-115.0732,29.41645],[-115.09528,29.4167],[-115.1069,29.42145],[-115.13017,29.418],[-115.14016,29.42265],[-115.15384,29.42066],[-115.1792,29.43148],[-115.18949,29.42808],[-115.19902,29.45279],[-115.21129,29.47236],[-115.22942,29.48642],[-115.23823,29.50293],[-115.25327,29.51623],[-115.27723,29.52518],[-115.29868,29.54071],[-115.31621,29.5429],[-115.34116,29.55596],[-115.36955,29.56041],[-115.37856,29.55812],[-115.39383,29.57466],[-115.4077,29.57795],[-115.41486,29.59245],[-115.42798,29.6008],[-115.44409,29.61769],[-115.45795,29.62512],[-115.47838,29.62682],[-115.49309,29.6168],[-115.50609,29.61707],[-115.52458,29.63531],[-115.54059,29.64313],[-115.55661,29.66132],[-115.56373,29.66368],[-115.57417,29.68145],[-115.58615,29.69299],[-115.60219,29.69797],[-115.61927,29.695],[-115.67873,29.74395],[-115.68677,29.74496],[-115.69933,29.75483],[-115.68648,29.80752],[-115.68477,29.83378],[-115.70189,29.89999],[-115.72342,29.92853],[-115.74288,29.9479],[-115.78835,29.95942],[-115.80376,29.95826],[-115.81149,29.94785],[-115.81349,29.94993],[-115.80936,29.95622],[-115.81143,29.95883],[-115.79651,30.00956],[-115.78131,30.09085],[-115.79015,30.11099],[-115.78809,30.11688],[-115.80229,30.13399],[-115.80022,30.14081],[-115.80296,30.15195],[-115.79631,30.18159],[-115.79471,30.21224],[-115.79636,30.2509],[-115.8034,30.28065],[-115.81612,30.30857],[-115.82635,30.31864],[-115.84032,30.34738],[-115.86213,30.36748],[-115.90105,30.39313],[-115.91929,30.40083],[-115.9394,30.40401],[-115.96682,30.39894],[-115.98733,30.38816],[-115.98531,30.39494],[-115.97161,30.41059],[-115.96822,30.40627],[-115.96403,30.41091],[-115.95895,30.40834],[-115.93718,30.41102],[-115.94329,30.41964],[-115.94131,30.42615],[-115.94355,30.42613],[-115.94168,30.43332],[-115.94403,30.43401],[-115.93983,30.43339],[-115.94515,30.43642],[-115.94443,30.43701],[-115.94126,30.43622],[-115.9409,30.4365],[-115.94376,30.43881],[-115.93865,30.44272],[-115.94383,30.44645],[-115.93367,30.45809],[-115.95072,30.46257],[-115.96086,30.47971],[-115.96821,30.48617],[-115.97796,30.4848],[-115.98222,30.49422],[-115.97695,30.49533],[-115.97705,30.49869],[-115.99281,30.49893],[-115.98925,30.51146],[-115.99255,30.50507],[-115.99836,30.50436],[-115.99958,30.49748],[-115.98784,30.49128],[-115.98096,30.48227],[-115.97832,30.48417],[-115.9798,30.47825],[-115.97495,30.47676],[-115.97462,30.4765],[-115.9742,30.47598],[-115.97408,30.47572],[-115.97874,30.47218],[-115.97761,30.46932],[-115.9723,30.46653],[-115.96901,30.46924],[-115.96303,30.46322],[-115.96364,30.45371],[-115.9579,30.45097],[-115.95658,30.44599],[-115.96116,30.44209],[-115.95732,30.43814],[-115.965,30.43601],[-115.97126,30.42692],[-115.97824,30.42725],[-115.99316,30.44078],[-115.99531,30.45131],[-116.00334,30.45421],[-116.01495,30.45012],[-116.02151,30.45592],[-116.02728,30.45419],[-116.01454,30.44148],[-116.01653,30.4376],[-116.01373,30.42866],[-115.99472,30.40664],[-115.99624,30.38684],[-115.97902,30.36438],[-115.98452,30.35691],[-115.98884,30.35681],[-115.99482,30.36057],[-116.00081,30.35964],[-116.00753,30.36547],[-116.00516,30.38575],[-116.01196,30.41693],[-116.0201,30.43238],[-116.03211,30.4369],[-116.03595,30.458],[-116.04432,30.46363],[-116.04304,30.46711],[-116.04853,30.47254],[-116.0484,30.49269],[-116.0436,30.50361],[-116.0322,30.57432],[-116.0281,30.66476],[-116.03255,30.6974],[-116.04682,30.71888],[-116.04953,30.76692],[-116.05368,30.78574],[-116.06435,30.80704],[-116.07474,30.81684],[-116.0872,30.82183],[-116.0964,30.81898],[-116.10657,30.82359],[-116.15108,30.86064],[-116.16089,30.86356],[-116.16897,30.86046],[-116.17643,30.86288],[-116.19116,30.87818],[-116.20493,30.8872],[-116.21033,30.9056],[-116.21659,30.91548],[-116.22151,30.91781],[-116.13901,30.96269],[-116.14657,30.98136],[-116.13452,30.97805],[-116.11435,30.98304],[-116.10835,30.99105],[-116.09892,30.98254],[-116.09463,30.98264],[-116.08629,31.01426],[-116.05862,31.02183],[-116.05147,31.01565],[-116.02567,31.04201],[-115.99628,31.03677],[-115.98669,31.04707],[-115.96077,31.04441],[-115.93672,31.06254],[-115.91135,31.06941],[-115.89175,31.08057],[-115.85274,31.08054],[-115.82331,31.07611],[-115.77411,31.06284],[-115.74991,31.09032],[-115.74418,31.11478],[-115.74228,31.10442],[-115.73113,31.10472],[-115.72149,31.10084],[-115.69172,31.11571],[-115.69277,31.12183],[-115.64233,31.12645]]]]}},{"type":"Feature","properties":{"code":"02005","stateCode":"02","municipalityCode":"005","name":"Playas de Rosarito"},"geometry":{"type":"Polygon","coordinates":[[[-117.06293,32.42636],[-117.05061,32.42083],[-117.05245,32.41691],[-117.04611,32.41237],[-117.03932,32.4111],[-117.03786,32.41434],[-117.02005,32.41641],[-117.02016,32.41354],[-116.98583,32.40194],[-116.97422,32.37483],[-116.96244,32.37875],[-116.94928,32.3659],[-116.94929,32.34334],[-116.90685,32.33509],[-116.94931,32.31528],[-116.94932,32.29839],[-116.82255,32.29828],[-116.67227,32.18235],[-116.8845,32.08832],[-116.88863,32.1332],[-116.90143,32.16316],[-116.90779,32.16505],[-116.90691,32.17415],[-116.91316,32.18621],[-116.91482,32.20575],[-116.9278,32.2339],[-116.93639,32.24242],[-116.95709,32.25189],[-117.00438,32.26399],[-117.01086,32.26864],[-117.02412,32.26842],[-117.03111,32.27956],[-117.03926,32.28564],[-117.05128,32.32292],[-117.05747,32.33409],[-117.05956,32.33175],[-117.05887,32.33741],[-117.07133,32.36483],[-117.07588,32.36833],[-117.07113,32.36939],[-117.07129,32.37002],[-117.07621,32.36878],[-117.07541,32.36724],[-117.07673,32.368],[-117.07547,32.37273],[-117.09099,32.39779],[-117.09638,32.41565],[-117.09429,32.41646],[-117.09216,32.40872],[-117.06742,32.41053],[-117.06293,32.42636]]]}},{"type":"Feature","properties":{"code":"02002","stateCode":"02","municipalityCode":"002","name":"Mexicali"},"geometry":{"type":"MultiPolygon","coordinates":[[[[-114.75913,31.81241],[-114.74356,31.79581],[-114.7478,31.79854],[-114.73444,31.76975],[-114.71399,31.74878],[-114.66867,31.71878],[-114.65347,31.69486],[-114.65064,31.67987],[-114.66817,31.67629],[-114.66954,31.68291],[-114.688,31.68693],[-114.69602,31.69935],[-114.71164,31.71032],[-114.69408,31.69503],[-114.6897,31.68172],[-114.693,31.6791],[-114.70019,31.68027],[-114.7043,31.68702],[-114.71086,31.68161],[-114.7175,31.68118],[-114.72527,31.68636],[-114.72209,31.69457],[-114.72553,31.6932],[-114.73085,31.69739],[-114.74073,31.69506],[-114.76385,31.70567],[-114.7911,31.73],[-114.80023,31.7631],[-114.79994,31.81264],[-114.78616,31.81872],[-114.7697,31.81683],[-114.75913,31.81241]]],[[[-115.8793,32.63608],[-114.71972,32.71865],[-114.7461,32.67596],[-114.75016,32.66167],[-114.76231,32.65159],[-114.76464,32.64317],[-114.78143,32.63256],[-114.78543,32.62237],[-114.79038,32.62112],[-114.80222,32.62528],[-114.80792,32.62035],[-114.80798,32.60621],[-114.80132,32.58835],[-114.81225,32.56223],[-114.8082,32.55926],[-114.79495,32.56103],[-114.79181,32.55785],[-114.80432,32.54433],[-114.80321,32.53],[-114.81056,32.52185],[-114.80781,32.51031],[-114.81307,32.50294],[-114.81593,32.48298],[-114.82379,32.48011],[-114.83247,32.4814],[-114.8392,32.47542],[-114.84908,32.47342],[-114.86759,32.48127],[-114.87343,32.48923],[-114.88387,32.49227],[-114.89732,32.48779],[-114.90013,32.48348],[-114.92895,32.48483],[-114.935,32.48187],[-114.93935,32.4684],[-114.93194,32.4397],[-114.94151,32.4311],[-114.94829,32.41928],[-114.96145,32.41171],[-114.96071,32.40266],[-114.95357,32.39663],[-114.9545,32.39335],[-114.96399,32.39416],[-114.96845,32.39065],[-114.96322,32.3767],[-114.96188,32.35475],[-114.96659,32.33879],[-114.99023,32.32022],[-114.99352,32.31172],[-115.0076,32.30542],[-115.03643,32.27776],[-115.04272,32.27007],[-115.04167,32.26129],[-115.05302,32.24517],[-115.04705,32.24307],[-115.04201,32.23296],[-115.00577,32.20641],[-114.97532,32.178],[-114.98974,32.14638],[-114.95701,32.03864],[-114.96743,31.99688],[-114.96548,31.91842],[-114.94513,31.91012],[-114.93788,31.89078],[-114.91362,31.88134],[-114.90969,31.86726],[-114.89072,31.87233],[-114.87162,31.86448],[-114.85699,31.86654],[-114.84319,31.86355],[-114.82569,31.82882],[-114.81886,31.82091],[-114.80688,31.81668],[-114.81071,31.78462],[-114.8148,31.7728],[-114.8182,31.7726],[-114.81972,31.76799],[-114.82169,31.73289],[-114.81343,31.71822],[-114.81898,31.71314],[-114.81266,31.70922],[-114.8057,31.696],[-114.80087,31.69649],[-114.80554,31.69388],[-114.80251,31.68947],[-114.79684,31.68836],[-114.79386,31.67761],[-114.79085,31.67641],[-114.79163,31.66583],[-114.78575,31.64771],[-114.78879,31.64251],[-114.78316,31.63704],[-114.7858,31.63532],[-114.78363,31.63123],[-114.78718,31.62818],[-114.78665,31.62346],[-114.79226,31.62138],[-114.79162,31.6146],[-114.80524,31.60912],[-114.81189,31.61346],[-114.8103,31.60944],[-114.81456,31.6091],[-114.81262,31.60829],[-114.81414,31.6065],[-114.81941,31.60854],[-114.82196,31.61604],[-114.83068,31.62099],[-114.84035,31.60954],[-114.83889,31.60407],[-114.84164,31.60279],[-114.83803,31.59226],[-114.84642,31.59529],[-114.84749,31.58869],[-114.85533,31.58554],[-114.85238,31.57875],[-114.85637,31.57585],[-114.85433,31.57043],[-114.86223,31.54165],[-114.86138,31.53573],[-114.86867,31.52798],[-114.86134,31.51027],[-114.85811,31.50955],[-114.858,31.50175],[-114.85615,31.50258],[-114.85858,31.4887],[-114.85296,31.48677],[-114.85775,31.48664],[-114.85314,31.47313],[-114.85545,31.44591],[-114.86001,31.4362],[-114.85671,31.43257],[-114.86298,31.43081],[-114.85512,31.42957],[-114.85391,31.42724],[-114.85857,31.42881],[-114.85948,31.42556],[-114.85664,31.42488],[-114.86347,31.4219],[-114.86238,31.41851],[-114.87032,31.42196],[-114.86811,31.41405],[-114.87075,31.41292],[-114.87377,31.40038],[-114.86508,31.4009],[-114.85942,31.3956],[-114.8618,31.39316],[-114.85681,31.39446],[-114.85715,31.38959],[-114.98782,31.36163],[-115.02978,31.44836],[-115.05323,31.44049],[-115.06947,31.47636],[-115.07512,31.56111],[-115.07231,31.67505],[-115.05628,31.71248],[-115.10663,31.80549],[-115.14746,31.82576],[-115.17709,31.8467],[-115.18119,31.857],[-115.18341,31.83282],[-115.18747,31.83027],[-115.2277,31.81761],[-115.29276,31.79113],[-115.31192,31.80459],[-115.38335,31.77226],[-115.53733,31.6698],[-115.5666,31.64337],[-115.60447,31.62404],[-115.84779,31.99005],[-115.87429,32.38623],[-115.88224,32.59326],[-115.8793,32.63608]]]]}}]}