{"type":"FeatureCollection","features":[{"type":"Feature","properties":{"code":"03001","stateCode":"03","municipalityCode":"001","name":"Comondú"},"geometry":{"type":"MultiPolygon","coordinates":[[[[-111.99152,24.52554],[-111.96625,24.51805],[-111.92745,24.51952],[-111.89807,24.51596],[-111.86856,24.52125],[-111.8499,24.50852],[-111.84194,24.51346],[-111.83935,24.5098],[-111.84976,24.50801],[-111.8367,24.4961],[-111.83382,24.4853],[-111.82876,24.47962],[-111.8213,24.47884],[-111.81908,24.4672],[-111.80351,24.46536],[-111.79736,24.46149],[-111.78075,24.46255],[-111.74998,24.442],[-111.74952,24.43428],[-111.74013,24.42553],[-111.74183,24.4174],[-111.7352,24.41426],[-111.73304,24.4055],[-111.70351,24.37667],[-111.70562,24.37569],[-111.70903,24.38174],[-111.70791,24.3761],[-111.7035,24.37468],[-111.70526,24.37007],[-111.70087,24.36798],[-111.70136,24.36486],[-111.70239,24.36417],[-111.70418,24.36892],[-111.7059,24.36048],[-111.703,24.35642],[-111.6966,24.37059],[-111.6881,24.37897],[-111.69375,24.37842],[-111.68739,24.38151],[-111.68444,24.37972],[-111.69489,24.36942],[-111.70007,24.35899],[-111.69476,24.34608],[-111.70298,24.32476],[-111.7101,24.31944],[-111.71033,24.30482],[-111.7253,24.3279],[-111.7458,24.34826],[-111.81335,24.39321],[-111.86715,24.43408],[-111.89521,24.44889],[-111.9036,24.45648],[-111.90913,24.45716],[-111.91848,24.46769],[-111.92713,24.46891],[-111.9505,24.48996],[-112.00485,24.51123],[-112.00632,24.51555],[-111.99886,24.5179],[-111.99152,24.52554]]],[[[-110.86194,25.1294],[-110.86029,25.12873],[-110.86122,25.12803],[-110.86194,25.1294]]],[[[-110.69747,25.20556],[-110.69549,25.19934],[-110.70468,25.19408],[-110.69747,25.20556]]],[[[-110.91601,25.20988],[-110.91657,25.20916],[-110.91713,25.20994],[-110.91601,25.20988]]],[[[-110.68925,25.31156],[-110.70337,25.29039],[-110.71084,25.26741],[-110.71965,25.26073],[-110.73018,25.26181],[-110.73565,25.28237],[-110.73155,25.29196],[-110.71616,25.30448],[-110.69895,25.305],[-110.68925,25.31156]]],[[[-115.7661,24.95848],[-115.76561,24.95853],[-115.76591,24.95827],[-115.7661,24.95848]]],[[[-115.76463,24.95891],[-115.76432,24.959],[-115.76439,24.95884],[-115.76463,24.95891]]],[[[-115.765,24.96102],[-115.76477,24.96096],[-115.76494,24.96093],[-115.765,24.96102]]],[[[-112.16288,25.10017],[-112.166,25.09753],[-112.16733,25.0868],[-112.16245,25.06514],[-112.17162,25.06636],[-112.17182,25.06339],[-112.16577,25.06378],[-112.16317,25.05767],[-112.17172,25.04109],[-112.17803,25.04314],[-112.17925,25.0401],[-112.17569,25.0359],[-112.17241,25.03644],[-112.17157,25.03049],[-112.16215,25.02003],[-112.16215,25.01009],[-112.16461,25.0104],[-112.16179,25.00575],[-112.1642,25.00414],[-112.15603,24.98919],[-112.16501,24.98863],[-112.16201,24.98529],[-112.16286,24.98038],[-112.15716,24.9785],[-112.15371,24.97123],[-112.15836,24.96776],[-112.16637,24.97071],[-112.17897,24.96872],[-112.1897,24.95865],[-112.1852,24.93119],[-112.16652,24.91172],[-112.17279,24.89777],[-112.17817,24.89799],[-112.17398,24.89288],[-112.1766,24.88719],[-112.18843,24.89319],[-112.18629,24.89461],[-112.19159,24.89866],[-112.18993,24.9043],[-112.1924,24.90358],[-112.19382,24.90893],[-112.1877,24.91199],[-112.18816,24.90884],[-112.18025,24.90578],[-112.18521,24.90973],[-112.18227,24.91327],[-112.17629,24.91143],[-112.18055,24.91461],[-112.17759,24.92139],[-112.18735,24.92315],[-112.19066,24.91668],[-112.19411,24.9192],[-112.19653,24.91701],[-112.19142,24.88854],[-112.18127,24.88313],[-112.18252,24.87951],[-112.17744,24.8742],[-112.17822,24.87018],[-112.19199,24.8663],[-112.19378,24.86168],[-112.1955,24.86825],[-112.20657,24.8692],[-112.20296,24.86233],[-112.21885,24.85192],[-112.22086,24.85263],[-112.21893,24.8556],[-112.21985,24.85536],[-112.21955,24.85676],[-112.22131,24.85767],[-112.22132,24.85324],[-112.22497,24.85205],[-112.22289,24.8479],[-112.23078,24.84811],[-112.2321,24.84299],[-112.2246,24.84698],[-112.21766,24.84523],[-112.22101,24.84385],[-112.21491,24.84417],[-112.20922,24.83598],[-112.20876,24.82538],[-112.21282,24.82408],[-112.22286,24.82875],[-112.21869,24.82074],[-112.2143,24.82297],[-112.21216,24.81974],[-112.21015,24.82295],[-112.20965,24.81756],[-112.18897,24.80835],[-112.19824,24.80647],[-112.19425,24.80154],[-112.18841,24.80613],[-112.17836,24.79766],[-112.18468,24.80089],[-112.18751,24.79671],[-112.1722,24.79374],[-112.17918,24.79155],[-112.16537,24.77625],[-112.17418,24.77271],[-112.17154,24.76585],[-112.13473,24.73585],[-112.12929,24.71393],[-112.13066,24.70853],[-112.1243,24.70542],[-112.11598,24.68907],[-112.13819,24.6618],[-112.14378,24.65019],[-112.13908,24.63471],[-112.13476,24.63019],[-112.10362,24.61629],[-112.07926,24.58547],[-112.07213,24.5855],[-112.07332,24.57501],[-112.05761,24.55549],[-112.0604,24.54514],[-112.05734,24.53958],[-112.07649,24.54253],[-112.10194,24.55852],[-112.09913,24.56271],[-112.10096,24.574],[-112.11486,24.59993],[-112.13199,24.61743],[-112.14631,24.62057],[-112.15574,24.63817],[-112.15931,24.63967],[-112.15791,24.6444],[-112.17043,24.64751],[-112.17457,24.65262],[-112.16823,24.66064],[-112.16682,24.6708],[-112.16088,24.673],[-112.15106,24.66673],[-112.14727,24.6678],[-112.14043,24.67603],[-112.13687,24.6873],[-112.1396,24.72241],[-112.15334,24.74482],[-112.18872,24.77363],[-112.22619,24.78868],[-112.26021,24.78373],[-112.25856,24.78893],[-112.26245,24.78654],[-112.25805,24.75595],[-112.26003,24.74996],[-112.27015,24.75856],[-112.27489,24.77466],[-112.28641,24.7806],[-112.28988,24.78713],[-112.30496,24.794],[-112.29996,24.80453],[-112.30145,24.80842],[-112.28969,24.81184],[-112.27926,24.83308],[-112.2168,24.98822],[-112.15891,25.17087],[-112.13922,25.25483],[-112.13556,25.26123],[-112.12744,25.26474],[-112.12337,25.25516],[-112.12278,25.21497],[-112.1544,25.14368],[-112.16288,25.10017]]],[[[-112.10065,25.48921],[-112.09718,25.4875],[-112.10049,25.47529],[-112.09708,25.4599],[-112.1006,25.44624],[-112.0965,25.42654],[-112.099,25.4112],[-112.1046,25.40446],[-112.1096,25.37424],[-112.10746,25.37261],[-112.10962,25.37114],[-112.11004,25.37044],[-112.1057,25.37214],[-112.1036,25.36891],[-112.10441,25.36531],[-112.10693,25.36753],[-112.10338,25.36026],[-112.1082,25.35734],[-112.10339,25.33209],[-112.10609,25.32305],[-112.11785,25.30786],[-112.12036,25.28551],[-112.13374,25.28642],[-112.13781,25.2911],[-112.13904,25.30107],[-112.12429,25.33489],[-112.11639,25.36499],[-112.10423,25.44293],[-112.10353,25.46269],[-112.10704,25.4844],[-112.10065,25.48921]]],[[[-112.12012,25.49523],[-112.11955,25.49495],[-112.1199,25.49465],[-112.12012,25.49523]]],[[[-112.12033,25.49643],[-112.1204,25.49564],[-112.12073,25.49618],[-112.12033,25.49643]]],[[[-112.08872,25.67137],[-112.08089,25.66989],[-112.08798,25.66226],[-112.08351,25.64879],[-112.08909,25.64354],[-112.08902,25.65132],[-112.08648,25.65059],[-112.08923,25.65228],[-112.09272,25.66794],[-112.08872,25.67137]]],[[[-112.09186,25.68654],[-112.09255,25.67433],[-112.09625,25.66628],[-112.09095,25.65895],[-112.09181,25.65364],[-112.09536,25.6583],[-112.0955,25.63477],[-112.0889,25.60847],[-112.09218,25.59113],[-112.0926,25.55087],[-112.09667,25.53096],[-112.09777,25.50731],[-112.09582,25.50457],[-112.09375,25.50795],[-112.09329,25.50446],[-112.09707,25.5012],[-112.09364,25.50365],[-112.09303,25.50045],[-112.09598,25.49357],[-112.09939,25.49745],[-112.10287,25.51633],[-112.09761,25.59224],[-112.09813,25.68047],[-112.09186,25.68654]]],[[[-111.77325,26.55418],[-111.7304,26.25024],[-111.63419,25.65365],[-111.25466,25.41033],[-111.09804,25.47393],[-111.05086,25.44411],[-110.96005,25.24234],[-110.94089,25.23632],[-110.93404,25.21551],[-110.92546,25.2097],[-110.92166,25.21036],[-110.91613,25.1911],[-110.90642,25.18303],[-110.91241,25.1745],[-110.90754,25.14594],[-110.89313,25.13081],[-110.87935,25.12626],[-110.88092,25.12369],[-110.87516,25.11895],[-110.87594,25.11367],[-110.86909,25.10571],[-110.86963,25.09863],[-110.86398,25.09163],[-110.86312,25.08096],[-110.85746,25.07706],[-111.6839,24.5835],[-111.69197,24.58519],[-111.69754,24.57166],[-111.69516,24.56849],[-111.69195,24.56985],[-111.69583,24.56414],[-111.69144,24.56574],[-111.69316,24.55985],[-111.68823,24.55817],[-111.69644,24.55007],[-111.69999,24.53821],[-111.73242,24.54125],[-111.73434,24.548],[-111.72559,24.55356],[-111.7293,24.55407],[-111.7325,24.56007],[-111.7371,24.55434],[-111.73659,24.54971],[-111.74564,24.54826],[-111.75291,24.542],[-111.79353,24.54554],[-111.80864,24.55784],[-111.81057,24.56818],[-111.81447,24.55862],[-111.80631,24.54388],[-111.80184,24.5418],[-111.80393,24.54103],[-111.80114,24.53907],[-111.80328,24.53898],[-111.8038,24.5387],[-111.7983,24.53834],[-111.79993,24.53693],[-111.78705,24.52647],[-111.78415,24.52864],[-111.77862,24.52226],[-111.75822,24.51564],[-111.78136,24.51339],[-111.79814,24.51817],[-111.80251,24.51481],[-111.80741,24.51625],[-111.8131,24.51228],[-111.80969,24.50874],[-111.81612,24.50643],[-111.82238,24.51927],[-111.81567,24.56244],[-111.81704,24.57627],[-111.84072,24.63662],[-111.8601,24.6633],[-111.90208,24.70809],[-111.93702,24.73621],[-111.94157,24.74491],[-111.93992,24.74729],[-111.92705,24.7409],[-111.92187,24.73073],[-111.91138,24.72411],[-111.91337,24.73162],[-111.91459,24.72962],[-111.91504,24.73419],[-111.92678,24.74887],[-111.95903,24.76955],[-111.96343,24.77871],[-111.97056,24.78467],[-111.96631,24.78976],[-111.96821,24.79368],[-111.97266,24.79177],[-111.97536,24.79422],[-111.97672,24.78456],[-111.96424,24.7595],[-111.96556,24.75594],[-111.97429,24.75618],[-111.96506,24.74693],[-111.94704,24.75559],[-111.94691,24.75232],[-111.96268,24.74747],[-111.96506,24.73743],[-111.98475,24.73874],[-111.98463,24.74564],[-111.98868,24.74897],[-111.99548,24.74617],[-111.98962,24.7462],[-111.98805,24.74344],[-111.99696,24.73978],[-111.98984,24.74037],[-111.98393,24.73708],[-112.03006,24.73555],[-112.02958,24.74409],[-112.02445,24.7447],[-112.02325,24.74258],[-112.02825,24.74321],[-112.02463,24.74133],[-112.01881,24.74498],[-112.03243,24.75812],[-112.02937,24.7649],[-112.0386,24.76631],[-112.03223,24.77387],[-112.03821,24.78406],[-112.04529,24.78723],[-112.03894,24.79449],[-112.02749,24.79462],[-112.03101,24.80015],[-112.02817,24.80118],[-112.03702,24.80484],[-112.03579,24.81115],[-112.03758,24.8188],[-112.0377,24.81046],[-112.04046,24.81676],[-112.04436,24.81752],[-112.04654,24.8253],[-112.05402,24.82904],[-112.03765,24.83433],[-112.03539,24.82878],[-112.02804,24.82958],[-112.03275,24.82612],[-112.03311,24.82176],[-112.0239,24.815],[-112.02474,24.82387],[-112.03028,24.82289],[-112.0247,24.82758],[-112.0277,24.83174],[-112.02563,24.83737],[-112.02949,24.84056],[-112.02826,24.83678],[-112.03317,24.83872],[-112.03268,24.84146],[-112.03849,24.84607],[-112.03628,24.84016],[-112.03002,24.83565],[-112.04048,24.8371],[-112.04783,24.83415],[-112.05155,24.83578],[-112.04607,24.8376],[-112.04943,24.84],[-112.05696,24.82946],[-112.0408,24.80807],[-112.04041,24.80044],[-112.05059,24.80408],[-112.05033,24.81236],[-112.05447,24.80874],[-112.05638,24.81275],[-112.06036,24.81209],[-112.0564,24.81234],[-112.05527,24.80836],[-112.0499,24.80074],[-112.04416,24.79885],[-112.05069,24.79734],[-112.05146,24.78422],[-112.04526,24.75971],[-112.0406,24.75278],[-112.06616,24.74591],[-112.07395,24.73952],[-112.07832,24.72995],[-112.06628,24.75655],[-112.06202,24.75681],[-112.06496,24.76205],[-112.07135,24.76783],[-112.07212,24.76404],[-112.07687,24.76421],[-112.0946,24.79646],[-112.10934,24.80007],[-112.10617,24.79312],[-112.09878,24.79164],[-112.0924,24.78566],[-112.09279,24.77893],[-112.09058,24.77837],[-112.10439,24.77983],[-112.11404,24.78989],[-112.12014,24.78395],[-112.12209,24.78828],[-112.11634,24.79179],[-112.11714,24.80484],[-112.09956,24.80479],[-112.10092,24.80219],[-112.09853,24.80135],[-112.09839,24.80448],[-112.0938,24.80122],[-112.09517,24.81193],[-112.10185,24.81217],[-112.09108,24.83316],[-112.0977,24.83853],[-112.09393,24.83133],[-112.09617,24.83206],[-112.10171,24.84244],[-112.09786,24.84875],[-112.09967,24.85069],[-112.10044,24.84853],[-112.10324,24.85158],[-112.10327,24.84457],[-112.10704,24.84247],[-112.11619,24.84883],[-112.11904,24.86453],[-112.1237,24.87167],[-112.12255,24.87625],[-112.11735,24.8814],[-112.11501,24.88035],[-112.11803,24.87854],[-112.11764,24.87631],[-112.11909,24.87481],[-112.11964,24.87151],[-112.11916,24.87025],[-112.11449,24.88001],[-112.11686,24.88488],[-112.10355,24.89879],[-112.10042,24.89944],[-112.10012,24.89677],[-112.09865,24.90189],[-112.09582,24.89954],[-112.09166,24.90268],[-112.08276,24.90126],[-112.08712,24.89564],[-112.08425,24.89298],[-112.07927,24.90746],[-112.08121,24.9096],[-112.08557,24.90714],[-112.08304,24.90361],[-112.08777,24.90601],[-112.09453,24.90132],[-112.09928,24.90266],[-112.10501,24.89982],[-112.09744,24.90924],[-112.09469,24.9199],[-112.09952,24.91926],[-112.09898,24.91608],[-112.10606,24.9159],[-112.11144,24.93577],[-112.10436,24.93846],[-112.1022,24.93563],[-112.10415,24.93694],[-112.10502,24.9368],[-112.10536,24.93608],[-112.09678,24.92617],[-112.094,24.92577],[-112.09819,24.92956],[-112.09219,24.93307],[-112.08129,24.92325],[-112.07946,24.9245],[-112.08452,24.92857],[-112.07633,24.93338],[-112.0806,24.93518],[-112.08368,24.93074],[-112.09845,24.9404],[-112.09603,24.94473],[-112.08753,24.93803],[-112.08371,24.94505],[-112.08437,24.94143],[-112.0794,24.9387],[-112.07615,24.94438],[-112.07818,24.95031],[-112.08796,24.94874],[-112.09089,24.944],[-112.1046,24.95074],[-112.10124,24.94464],[-112.10769,24.94604],[-112.11044,24.94168],[-112.10784,24.95793],[-112.09827,24.96471],[-112.09449,24.96153],[-112.10402,24.98296],[-112.09669,25.00062],[-112.09819,25.00447],[-112.10215,25.0038],[-112.10077,25.00948],[-112.1104,25.00045],[-112.10962,24.99694],[-112.10218,24.99415],[-112.10864,24.99044],[-112.1095,24.97875],[-112.11267,24.97733],[-112.11604,24.98315],[-112.11394,24.98579],[-112.11533,24.98767],[-112.11994,24.98601],[-112.11955,24.98068],[-112.11514,24.97911],[-112.11892,24.97713],[-112.11812,24.97259],[-112.1279,24.96708],[-112.13452,24.95243],[-112.13927,24.94859],[-112.13501,24.93991],[-112.13765,24.93464],[-112.1304,24.9326],[-112.13514,24.93046],[-112.13619,24.92583],[-112.13049,24.92716],[-112.1272,24.92248],[-112.1337,24.91896],[-112.13256,24.91475],[-112.14406,24.90488],[-112.13986,24.9006],[-112.14332,24.90169],[-112.14108,24.89783],[-112.14514,24.89381],[-112.13971,24.89145],[-112.13683,24.88267],[-112.14321,24.88079],[-112.14395,24.87333],[-112.14143,24.87141],[-112.14422,24.86996],[-112.14091,24.86838],[-112.15157,24.86674],[-112.14347,24.86497],[-112.14167,24.86097],[-112.13739,24.86558],[-112.13541,24.86198],[-112.13679,24.84142],[-112.14157,24.83293],[-112.14137,24.83723],[-112.14529,24.83525],[-112.14069,24.82295],[-112.14362,24.8171],[-112.14077,24.81151],[-112.14422,24.80941],[-112.14336,24.80386],[-112.14844,24.80722],[-112.15498,24.82933],[-112.16004,24.83295],[-112.15789,24.83666],[-112.15329,24.83568],[-112.15528,24.83714],[-112.15127,24.84031],[-112.15285,24.84547],[-112.14402,24.84967],[-112.15144,24.85165],[-112.15065,24.8582],[-112.1456,24.85565],[-112.14923,24.86202],[-112.15529,24.85566],[-112.15319,24.85347],[-112.15488,24.84585],[-112.16171,24.84597],[-112.15846,24.843],[-112.16796,24.84037],[-112.17286,24.82983],[-112.16542,24.82083],[-112.16665,24.81835],[-112.16872,24.82153],[-112.17635,24.82001],[-112.17202,24.81936],[-112.16685,24.81207],[-112.17925,24.82118],[-112.18381,24.83438],[-112.18254,24.84283],[-112.18482,24.84363],[-112.18516,24.83957],[-112.18878,24.84423],[-112.18654,24.85959],[-112.1813,24.86005],[-112.18146,24.85441],[-112.17863,24.8515],[-112.17858,24.85564],[-112.17303,24.86082],[-112.16508,24.8609],[-112.16356,24.86898],[-112.16071,24.86562],[-112.15582,24.87046],[-112.15898,24.86996],[-112.16085,24.87495],[-112.1617,24.87008],[-112.16309,24.87275],[-112.16534,24.87352],[-112.16441,24.87028],[-112.17316,24.86709],[-112.16788,24.87885],[-112.16302,24.88166],[-112.16792,24.88451],[-112.1628,24.88944],[-112.16517,24.89493],[-112.16084,24.90027],[-112.1582,24.91047],[-112.16111,24.91514],[-112.15699,24.92202],[-112.16095,24.93408],[-112.16625,24.93096],[-112.16874,24.93594],[-112.16658,24.93793],[-112.17376,24.94106],[-112.1736,24.93579],[-112.1803,24.93847],[-112.18273,24.9442],[-112.17768,24.94727],[-112.18328,24.94656],[-112.18354,24.95984],[-112.1708,24.96792],[-112.1542,24.96405],[-112.15025,24.96728],[-112.15003,24.96476],[-112.14484,24.96569],[-112.14533,24.97409],[-112.15243,24.97762],[-112.13658,24.99865],[-112.13145,25.00976],[-112.13084,25.02544],[-112.12226,25.03808],[-112.12335,25.04241],[-112.13074,25.04697],[-112.12607,25.04827],[-112.12796,25.04969],[-112.12321,25.05596],[-112.12018,25.07243],[-112.13683,25.07214],[-112.1384,25.07702],[-112.14367,25.07333],[-112.1449,25.0752],[-112.15114,25.06598],[-112.15439,25.06498],[-112.15544,25.0682],[-112.15618,25.0847],[-112.15134,25.08868],[-112.1565,25.0922],[-112.1561,25.09769],[-112.14649,25.11196],[-112.14729,25.1034],[-112.14408,25.10167],[-112.14522,25.10469],[-112.14205,25.10468],[-112.14052,25.10743],[-112.14728,25.11679],[-112.14406,25.11669],[-112.15037,25.11936],[-112.14655,25.11934],[-112.14646,25.1211],[-112.15122,25.11937],[-112.14931,25.13727],[-112.14622,25.14404],[-112.14316,25.14304],[-112.14656,25.14648],[-112.132,25.16932],[-112.12965,25.18409],[-112.12008,25.18705],[-112.11237,25.18385],[-112.11358,25.18722],[-112.10791,25.18723],[-112.12481,25.1912],[-112.11445,25.2106],[-112.11628,25.22695],[-112.11411,25.23198],[-112.11046,25.23157],[-112.11573,25.22651],[-112.11405,25.22251],[-112.09392,25.22107],[-112.10852,25.2329],[-112.11402,25.233],[-112.11641,25.2295],[-112.11447,25.24068],[-112.09347,25.23786],[-112.08471,25.24439],[-112.08589,25.23581],[-112.08122,25.23287],[-112.07923,25.23728],[-112.08204,25.23856],[-112.07719,25.24229],[-112.07761,25.24777],[-112.082,25.25165],[-112.07848,25.2526],[-112.07711,25.25793],[-112.08654,25.25649],[-112.0841,25.26309],[-112.07958,25.26375],[-112.07512,25.27949],[-112.08007,25.28823],[-112.07761,25.29248],[-112.0823,25.29437],[-112.08418,25.2996],[-112.07838,25.29777],[-112.07295,25.30028],[-112.07712,25.30976],[-112.07191,25.32201],[-112.07673,25.33014],[-112.07046,25.33306],[-112.07765,25.34177],[-112.07014,25.3525],[-112.07485,25.35684],[-112.07869,25.35581],[-112.0774,25.3503],[-112.07997,25.3542],[-112.08421,25.35192],[-112.08695,25.35492],[-112.0854,25.36619],[-112.07736,25.36131],[-112.07297,25.36749],[-112.08596,25.37097],[-112.07483,25.37239],[-112.07499,25.37666],[-112.08721,25.37273],[-112.08875,25.37582],[-112.0892,25.37253],[-112.09345,25.37156],[-112.09111,25.39455],[-112.08736,25.39261],[-112.09378,25.39962],[-112.08263,25.40731],[-112.07808,25.40645],[-112.08375,25.41453],[-112.0874,25.41292],[-112.08712,25.40877],[-112.09055,25.41398],[-112.08609,25.42153],[-112.08581,25.43298],[-112.07934,25.42805],[-112.07666,25.42287],[-112.07849,25.4176],[-112.07531,25.41483],[-112.07073,25.41586],[-112.06713,25.43104],[-112.0684,25.44722],[-112.0749,25.43985],[-112.0816,25.44275],[-112.08571,25.43957],[-112.0886,25.44301],[-112.08679,25.45868],[-112.08253,25.45763],[-112.08764,25.45903],[-112.08761,25.4627],[-112.07955,25.46293],[-112.07881,25.46032],[-112.07023,25.46435],[-112.06618,25.4631],[-112.07079,25.46584],[-112.0804,25.46622],[-112.05844,25.47331],[-112.05841,25.47576],[-112.08329,25.46965],[-112.08739,25.47164],[-112.08686,25.47433],[-112.08908,25.47226],[-112.08759,25.4796],[-112.09052,25.47885],[-112.08658,25.48538],[-112.0856,25.48061],[-112.08473,25.48481],[-112.08285,25.4849],[-112.08112,25.48575],[-112.07854,25.48339],[-112.07823,25.48335],[-112.07788,25.4836],[-112.08126,25.48593],[-112.08571,25.48527],[-112.08034,25.50855],[-112.07744,25.50872],[-112.0792,25.50781],[-112.07943,25.50577],[-112.07873,25.50536],[-112.07301,25.50902],[-112.0705,25.50492],[-112.07429,25.50255],[-112.07167,25.49928],[-112.07858,25.49839],[-112.07533,25.49031],[-112.06519,25.49028],[-112.0638,25.49294],[-112.06515,25.49578],[-112.07046,25.49463],[-112.06469,25.50372],[-112.06945,25.5051],[-112.0669,25.5093],[-112.06783,25.51234],[-112.07045,25.51415],[-112.06978,25.50829],[-112.07097,25.51283],[-112.07752,25.50964],[-112.08003,25.51372],[-112.0792,25.51649],[-112.07376,25.51577],[-112.06316,25.52156],[-112.06377,25.52652],[-112.06768,25.52755],[-112.06488,25.53187],[-112.06955,25.5339],[-112.0635,25.54137],[-112.06902,25.55112],[-112.06516,25.55227],[-112.06447,25.55635],[-112.07032,25.55705],[-112.07572,25.55368],[-112.08373,25.55509],[-112.08465,25.55795],[-112.0828,25.56015],[-112.07574,25.55821],[-112.0724,25.56541],[-112.06615,25.56397],[-112.06574,25.56891],[-112.07432,25.57687],[-112.06607,25.57947],[-112.06173,25.58743],[-112.06629,25.59163],[-112.0633,25.59399],[-112.06511,25.59568],[-112.06107,25.60765],[-112.06308,25.61787],[-112.06857,25.61994],[-112.06995,25.61523],[-112.07396,25.62347],[-112.06522,25.62602],[-112.07082,25.62619],[-112.07107,25.63345],[-112.0667,25.633],[-112.06503,25.6369],[-112.07325,25.64694],[-112.06429,25.65199],[-112.06982,25.6539],[-112.0686,25.66075],[-112.076,25.66233],[-112.07477,25.67364],[-112.07194,25.67556],[-112.07055,25.67942],[-112.07145,25.6819],[-112.0737,25.6753],[-112.08068,25.68137],[-112.084,25.67874],[-112.08254,25.67406],[-112.08603,25.67588],[-112.08549,25.68291],[-112.08175,25.68393],[-112.0858,25.68371],[-112.08706,25.68748],[-112.0837,25.68718],[-112.08137,25.69576],[-112.07652,25.69525],[-112.07943,25.69196],[-112.07731,25.68712],[-112.07178,25.68924],[-112.07924,25.70742],[-112.074,25.71248],[-112.07534,25.72787],[-112.08061,25.72931],[-112.0796,25.71851],[-112.08335,25.7162],[-112.08028,25.71028],[-112.0859,25.70714],[-112.082,25.70626],[-112.08271,25.70079],[-112.09321,25.69878],[-112.09118,25.70735],[-112.08858,25.70754],[-112.09073,25.70798],[-112.08954,25.71249],[-112.0913,25.71814],[-112.09733,25.72875],[-112.09488,25.73271],[-112.0947,25.73385],[-112.09519,25.73581],[-112.09841,25.73539],[-112.09816,25.73735],[-112.09855,25.73839],[-112.09847,25.73531],[-112.09494,25.73363],[-112.09677,25.73106],[-112.09754,25.73385],[-112.09778,25.7289],[-112.09592,25.72322],[-112.0966,25.72228],[-112.09068,25.71135],[-112.09345,25.70773],[-112.09354,25.71166],[-112.09164,25.71089],[-112.09444,25.71515],[-112.09719,25.69255],[-112.10075,25.74815],[-112.10721,25.77947],[-112.11656,25.79974],[-112.12933,25.81497],[-112.13895,25.85147],[-112.163,25.89949],[-112.17521,25.94482],[-112.19302,25.9875],[-112.23428,26.03528],[-112.25874,26.05212],[-112.27638,26.05869],[-112.27747,26.06151],[-112.27096,26.07076],[-112.27585,26.07202],[-112.27752,26.0681],[-112.28293,26.06636],[-112.28542,26.06107],[-112.28148,26.0653],[-112.28196,26.06143],[-112.27857,26.06248],[-112.27888,26.06046],[-112.28971,26.05519],[-112.30863,26.07173],[-112.31232,26.10129],[-112.32797,26.1453],[-112.3475,26.18079],[-112.37492,26.21039],[-112.37457,26.21529],[-112.36391,26.21742],[-112.37014,26.21835],[-112.36615,26.22162],[-112.37734,26.21459],[-112.41037,26.24528],[-112.4548,26.26209],[-112.47368,26.25865],[-112.47754,26.25425],[-112.47536,26.24372],[-112.47818,26.23848],[-112.49783,26.23158],[-112.51825,26.24255],[-112.54191,26.26211],[-112.57915,26.2817],[-112.57958,26.28293],[-112.57919,26.28391],[-112.57518,26.28144],[-112.57089,26.28646],[-112.58146,26.28457],[-112.59471,26.29412],[-112.61401,26.30209],[-112.61924,26.309],[-112.6129,26.30503],[-112.6109,26.31281],[-112.61554,26.3193],[-112.6147,26.31475],[-112.61728,26.31776],[-112.61678,26.31142],[-112.62022,26.31035],[-112.63495,26.32064],[-112.65299,26.32521],[-112.66123,26.31948],[-112.67283,26.31952],[-112.68004,26.31466],[-112.68478,26.32584],[-112.71095,26.35656],[-112.75937,26.38889],[-112.76173,26.39624],[-112.76531,26.39612],[-112.76109,26.39313],[-112.76397,26.39139],[-112.79189,26.40709],[-112.89288,26.48609],[-112.95701,26.5204],[-112.9629,26.52862],[-112.96947,26.53071],[-111.77325,26.55418]]]]}},{"type":"Feature","properties":{"code":"03008","stateCode":"03","municipalityCode":"008","name":"Los Cabos"},"geometry":{"type":"MultiPolygon","coordinates":[[[[-109.89425,22.87494],[-109.89468,22.87531],[-109.89419,22.87546],[-109.89425,22.87494]]],[[[-109.89335,22.87634],[-109.89295,22.8759],[-109.89331,22.87573],[-109.89335,22.87634]]],[[[-109.63659,23.6268],[-109.58318,23.61231],[-109.58704,23.60802],[-109.58725,23.60082],[-109.58465,23.59949],[-109.58446,23.60379],[-109.5834,23.59833],[-109.58315,23.6029],[-109.58504,23.60532],[-109.58047,23.60253],[-109.58487,23.60725],[-109.58285,23.61115],[-109.58314,23.60612],[-109.57531,23.60085],[-109.52011,23.58461],[-109.51586,23.57168],[-109.50946,23.56772],[-109.47936,23.56101],[-109.46893,23.55585],[-109.46828,23.55184],[-109.47923,23.53388],[-109.4795,23.51974],[-109.46062,23.48719],[-109.4463,23.47726],[-109.44439,23.4682],[-109.43907,23.46244],[-109.4291,23.45831],[-109.42312,23.44543],[-109.42657,23.44254],[-109.43191,23.4138],[-109.42744,23.40552],[-109.41533,23.40357],[-109.41735,23.39462],[-109.41311,23.38722],[-109.41587,23.38192],[-109.4231,23.38282],[-109.43165,23.37704],[-109.42597,23.36129],[-109.42768,23.34607],[-109.42415,23.33858],[-109.4276,23.31746],[-109.42494,23.30558],[-109.439,23.27342],[-109.43595,23.24625],[-109.43793,23.23626],[-109.45029,23.22049],[-109.45501,23.20157],[-109.4851,23.16818],[-109.49487,23.15031],[-109.5088,23.14195],[-109.51772,23.12681],[-109.52688,23.12144],[-109.53624,23.10865],[-109.56532,23.09644],[-109.57638,23.08408],[-109.60884,23.0807],[-109.62717,23.07172],[-109.66861,23.06072],[-109.67036,23.05594],[-109.6727,23.06407],[-109.67732,23.06354],[-109.67153,23.05548],[-109.67981,23.04881],[-109.70034,23.04021],[-109.71434,23.02917],[-109.71787,23.0129],[-109.71288,23.00558],[-109.72139,23.00185],[-109.73303,22.98931],[-109.7597,22.98386],[-109.76346,22.97805],[-109.79477,22.96404],[-109.80152,22.9524],[-109.80674,22.94998],[-109.80852,22.93322],[-109.8293,22.91548],[-109.84015,22.91044],[-109.8429,22.90263],[-109.86688,22.89603],[-109.87211,22.89851],[-109.89188,22.8954],[-109.904,22.88758],[-109.90545,22.88167],[-109.90855,22.88157],[-109.90945,22.88633],[-109.91145,22.88563],[-109.90927,22.88223],[-109.91017,22.88248],[-109.9112,22.88081],[-109.91033,22.88207],[-109.90909,22.88186],[-109.91143,22.88044],[-109.90998,22.87864],[-109.90557,22.88077],[-109.89399,22.87678],[-109.89991,22.87436],[-109.96397,22.8721],[-109.98143,22.87948],[-110.01619,22.90345],[-110.06136,22.94907],[-110.06469,22.96064],[-110.08394,22.98797],[-110.09058,23.00898],[-110.09861,23.01944],[-110.11371,23.09663],[-110.11997,23.11274],[-109.94678,23.14554],[-109.93094,23.29068],[-109.8816,23.56575],[-109.69777,23.67145],[-109.69736,23.66315],[-109.68297,23.64882],[-109.64086,23.63262],[-109.63659,23.6268]]]]}},{"type":"Feature","properties":{"code":"03003","stateCode":"03","municipalityCode":"003","name":"La Paz"},"geometry":{"type":"MultiPolygon","coordinates":[[[[-110.14913,24.25255],[-110.14855,24.25191],[-110.14961,24.25195],[-110.14913,24.25255]]],[[[-110.33961,24.28908],[-110.33727,24.28837],[-110.34151,24.2859],[-110.33961,24.28908]]],[[[-109.79985,24.15796],[-109.8025,24.13671],[-109.81804,24.14282],[-109.86366,24.14745],[-109.87363,24.15298],[-109.87187,24.15955],[-109.89318,24.18683],[-109.92196,24.26036],[-109.92332,24.27149],[-109.91829,24.29093],[-109.93947,24.32498],[-109.93425,24.37593],[-109.93077,24.37585],[-109.92238,24.36552],[-109.91833,24.351],[-109.90815,24.34074],[-109.90101,24.32513],[-109.88981,24.31283],[-109.88219,24.2921],[-109.86977,24.27042],[-109.85755,24.25832],[-109.85502,24.24786],[-109.84723,24.23967],[-109.84249,24.22724],[-109.81974,24.20481],[-109.80978,24.18211],[-109.80827,24.17036],[-109.79985,24.15796]]],[[[-111.61882,24.37814],[-111.58675,24.3775],[-111.57974,24.37258],[-111.56906,24.37632],[-111.5563,24.36737],[-111.53194,24.36642],[-111.52747,24.36179],[-111.51751,24.36101],[-111.5138,24.35667],[-111.50619,24.35582],[-111.47664,24.33929],[-111.43794,24.32549],[-111.44382,24.32412],[-111.52377,24.35617],[-111.57859,24.3676],[-111.60622,24.36698],[-111.66328,24.35339],[-111.6701,24.35941],[-111.65494,24.37541],[-111.65046,24.37521],[-111.64469,24.36569],[-111.61882,24.37814]]],[[[-110.38295,24.45761],[-110.38468,24.45681],[-110.38488,24.45712],[-110.38295,24.45761]]],[[[-110.38664,24.46646],[-110.38209,24.46638],[-110.38851,24.46547],[-110.38664,24.46646]]],[[[-110.3991,24.48631],[-110.40179,24.48167],[-110.40847,24.47989],[-110.40921,24.48208],[-110.3991,24.48631]]],[[[-110.36183,24.53348],[-110.33575,24.52353],[-110.32136,24.50233],[-110.31151,24.50061],[-110.3055,24.50355],[-110.30224,24.49481],[-110.30647,24.48719],[-110.2994,24.47816],[-110.29233,24.47738],[-110.28911,24.47285],[-110.29378,24.45871],[-110.30955,24.45463],[-110.31338,24.44022],[-110.30805,24.42526],[-110.31835,24.42062],[-110.32764,24.40244],[-110.33899,24.40499],[-110.34812,24.40129],[-110.35158,24.4054],[-110.34489,24.41474],[-110.34936,24.41813],[-110.35465,24.41505],[-110.34694,24.43077],[-110.34963,24.43336],[-110.3627,24.43705],[-110.37048,24.42894],[-110.37272,24.43565],[-110.37205,24.44021],[-110.37167,24.43795],[-110.36654,24.44322],[-110.37616,24.44109],[-110.37151,24.44611],[-110.3786,24.44897],[-110.35451,24.45651],[-110.35589,24.45906],[-110.37119,24.45742],[-110.36824,24.46303],[-110.3564,24.46902],[-110.37652,24.46751],[-110.36348,24.48151],[-110.38649,24.47469],[-110.38592,24.47906],[-110.38929,24.4817],[-110.38288,24.48869],[-110.38506,24.49158],[-110.39086,24.49049],[-110.38495,24.49424],[-110.39136,24.49371],[-110.38928,24.49771],[-110.39325,24.49733],[-110.3804,24.50714],[-110.39729,24.50984],[-110.38762,24.51613],[-110.39944,24.51854],[-110.39207,24.52231],[-110.38252,24.52225],[-110.36183,24.53348]]],[[[-110.39817,24.59144],[-110.38123,24.58377],[-110.37979,24.57011],[-110.36769,24.56255],[-110.36726,24.55615],[-110.36131,24.55402],[-110.36078,24.543],[-110.36794,24.53074],[-110.36945,24.53462],[-110.37525,24.53464],[-110.37805,24.54009],[-110.38169,24.53906],[-110.38452,24.53141],[-110.39334,24.53283],[-110.38904,24.53899],[-110.39906,24.53635],[-110.38277,24.54955],[-110.37492,24.55159],[-110.38312,24.55701],[-110.40659,24.54481],[-110.40987,24.54759],[-110.40406,24.5523],[-110.41148,24.55385],[-110.39692,24.55709],[-110.39236,24.5633],[-110.40262,24.56147],[-110.401,24.56558],[-110.40572,24.56627],[-110.40576,24.56886],[-110.41418,24.56463],[-110.41449,24.56833],[-110.40129,24.5802],[-110.39599,24.58079],[-110.40188,24.58558],[-110.39817,24.59144]]],[[[-110.4044,24.5978],[-110.40123,24.59911],[-110.39953,24.59881],[-110.4044,24.5978]]],[[[-110.56626,24.84008],[-110.5686,24.82898],[-110.56029,24.82248],[-110.56523,24.81422],[-110.56832,24.81584],[-110.56498,24.81842],[-110.56764,24.82273],[-110.57694,24.8203],[-110.58693,24.8282],[-110.58107,24.83835],[-110.57027,24.84361],[-110.56626,24.84008]]],[[[-110.60526,24.84328],[-110.60542,24.84332],[-110.60522,24.8435],[-110.60526,24.84328]]],[[[-110.58121,24.85312],[-110.58,24.85299],[-110.58064,24.85219],[-110.58121,24.85312]]],[[[-110.60322,24.87511],[-110.60384,24.87439],[-110.60362,24.87718],[-110.60322,24.87511]]],[[[-110.84833,25.07317],[-110.84648,25.06935],[-110.82875,25.06289],[-110.82477,25.05766],[-110.82654,25.04701],[-110.81409,25.03316],[-110.79834,25.02954],[-110.79,25.03594],[-110.77469,25.02285],[-110.75713,25.01402],[-110.76191,25.00575],[-110.75716,25.00093],[-110.75986,24.99885],[-110.75827,24.99604],[-110.75188,24.99417],[-110.74876,24.98779],[-110.75153,24.98178],[-110.7497,24.96598],[-110.74282,24.95704],[-110.7338,24.95176],[-110.7322,24.94433],[-110.72173,24.93524],[-110.72032,24.92543],[-110.71374,24.92019],[-110.70522,24.92158],[-110.69891,24.91501],[-110.69947,24.91237],[-110.70206,24.91477],[-110.70605,24.91264],[-110.70807,24.90791],[-110.70397,24.9076],[-110.70368,24.90101],[-110.69207,24.89238],[-110.69043,24.88591],[-110.68529,24.88397],[-110.68879,24.87588],[-110.68401,24.86741],[-110.68473,24.85751],[-110.67532,24.84482],[-110.67337,24.82906],[-110.66456,24.81608],[-110.6646,24.81022],[-110.65707,24.80623],[-110.66215,24.79243],[-110.66526,24.76567],[-110.68182,24.74578],[-110.68823,24.73025],[-110.68995,24.70747],[-110.69422,24.70139],[-110.70665,24.69805],[-110.7183,24.68786],[-110.72861,24.66947],[-110.73346,24.63629],[-110.74045,24.61824],[-110.74024,24.58724],[-110.7332,24.56288],[-110.73806,24.55177],[-110.72917,24.5148],[-110.68703,24.46273],[-110.68931,24.45091],[-110.68448,24.44509],[-110.69227,24.43376],[-110.69247,24.42076],[-110.68951,24.41661],[-110.69316,24.40609],[-110.68326,24.39518],[-110.67853,24.39662],[-110.68342,24.39481],[-110.68153,24.38902],[-110.68508,24.38154],[-110.67927,24.37237],[-110.68149,24.35796],[-110.65507,24.32839],[-110.65492,24.32425],[-110.64019,24.31503],[-110.6415,24.30809],[-110.63499,24.29169],[-110.62216,24.27316],[-110.61628,24.27016],[-110.61145,24.25561],[-110.58202,24.2403],[-110.5761,24.2265],[-110.56399,24.22014],[-110.56494,24.21651],[-110.56039,24.21194],[-110.52907,24.20136],[-110.46981,24.18631],[-110.40006,24.17432],[-110.36523,24.17306],[-110.33601,24.17768],[-110.32482,24.17654],[-110.3274,24.16685],[-110.3408,24.15877],[-110.37104,24.149],[-110.3778,24.14936],[-110.38557,24.1622],[-110.4091,24.17265],[-110.42481,24.1748],[-110.43354,24.17145],[-110.43023,24.16336],[-110.42613,24.1634],[-110.43123,24.14796],[-110.42949,24.14207],[-110.41516,24.12853],[-110.424,24.12223],[-110.41717,24.1093],[-110.39212,24.1039],[-110.3671,24.11418],[-110.3621,24.11089],[-110.35492,24.11247],[-110.34937,24.11515],[-110.35105,24.11747],[-110.34721,24.12091],[-110.35031,24.1229],[-110.35006,24.12654],[-110.34558,24.12369],[-110.34813,24.12598],[-110.34671,24.13622],[-110.35199,24.14251],[-110.32843,24.15225],[-110.3256,24.15488],[-110.32759,24.15621],[-110.32267,24.15745],[-110.32612,24.15716],[-110.3244,24.15865],[-110.32253,24.15742],[-110.32438,24.1559],[-110.32166,24.15621],[-110.31954,24.16191],[-110.3047,24.17508],[-110.29976,24.21177],[-110.30076,24.21599],[-110.30249,24.2171],[-110.30314,24.21659],[-110.30517,24.21655],[-110.30584,24.21736],[-110.30118,24.21874],[-110.29936,24.21479],[-110.29837,24.215],[-110.30056,24.21893],[-110.31247,24.22024],[-110.31236,24.22799],[-110.30646,24.23317],[-110.3147,24.24206],[-110.31348,24.25043],[-110.31895,24.24337],[-110.3275,24.24434],[-110.3111,24.26125],[-110.32421,24.25789],[-110.32084,24.2658],[-110.32476,24.26954],[-110.32301,24.27141],[-110.33178,24.27713],[-110.32974,24.26986],[-110.3333,24.2678],[-110.33311,24.26113],[-110.33061,24.25719],[-110.3365,24.25855],[-110.3371,24.27534],[-110.33351,24.27906],[-110.32838,24.27845],[-110.32746,24.28198],[-110.3298,24.28539],[-110.33477,24.28427],[-110.33086,24.2897],[-110.33745,24.29536],[-110.33016,24.29678],[-110.32697,24.30118],[-110.33358,24.30025],[-110.33271,24.30587],[-110.33745,24.30279],[-110.33529,24.31256],[-110.33991,24.31595],[-110.33746,24.31782],[-110.32404,24.31488],[-110.31959,24.31879],[-110.31723,24.312],[-110.31458,24.31547],[-110.31633,24.32205],[-110.32256,24.31911],[-110.33434,24.32856],[-110.32481,24.33617],[-110.30554,24.33932],[-110.29717,24.35239],[-110.27313,24.3522],[-110.26863,24.34858],[-110.2503,24.34565],[-110.24556,24.35021],[-110.23102,24.34025],[-110.2302,24.33495],[-110.23538,24.33103],[-110.2355,24.31772],[-110.21693,24.30871],[-110.2167,24.30307],[-110.21187,24.29809],[-110.2013,24.29779],[-110.19332,24.29393],[-110.1844,24.2807],[-110.18475,24.26906],[-110.17437,24.25237],[-110.15144,24.24918],[-110.14818,24.24495],[-110.14173,24.24403],[-110.13736,24.23553],[-110.12373,24.22606],[-110.11656,24.22747],[-110.10125,24.21687],[-110.08926,24.21623],[-110.08882,24.2131],[-110.07874,24.2093],[-110.07277,24.20057],[-110.06389,24.19838],[-110.05725,24.19019],[-110.04017,24.17856],[-110.03142,24.17616],[-110.02972,24.17191],[-110.01772,24.17003],[-110.00852,24.15984],[-110.0033,24.13776],[-109.99788,24.12941],[-109.99942,24.11654],[-109.99369,24.10818],[-109.98881,24.05116],[-109.98421,24.04373],[-109.96982,24.03834],[-109.94981,24.03708],[-109.9448,24.03233],[-109.92978,24.02905],[-109.88233,24.03857],[-109.83246,24.06112],[-109.82663,24.06081],[-109.82528,24.04],[-109.81781,24.03294],[-109.80898,24.03134],[-109.80399,24.02187],[-109.80629,24.01439],[-109.81273,24.0108],[-109.81391,23.99868],[-109.82207,23.99141],[-109.82997,23.99212],[-109.83654,23.9812],[-109.83422,23.97932],[-109.83863,23.97103],[-109.83535,23.96621],[-109.83999,23.94987],[-109.83757,23.933],[-109.83177,23.91974],[-109.82408,23.91051],[-109.8044,23.89946],[-109.80055,23.89155],[-109.77284,23.87509],[-109.754,23.85706],[-109.74857,23.84704],[-109.73527,23.83967],[-109.73388,23.83317],[-109.71279,23.80922],[-109.69926,23.79895],[-109.70931,23.77661],[-109.71323,23.73768],[-109.71188,23.72858],[-109.70077,23.71101],[-109.69998,23.70011],[-109.69569,23.69216],[-109.69777,23.67145],[-109.8816,23.56575],[-109.93094,23.29068],[-109.94678,23.14554],[-110.11997,23.11274],[-110.13017,23.1396],[-110.1333,23.16032],[-110.15334,23.22946],[-110.16025,23.28957],[-110.16902,23.31874],[-110.17443,23.32741],[-110.18333,23.33365],[-110.19825,23.36312],[-110.20774,23.37283],[-110.20902,23.37994],[-110.21507,23.38247],[-110.21524,23.39392],[-110.22617,23.40064],[-110.22417,23.40405],[-110.23014,23.4034],[-110.23024,23.40941],[-110.23424,23.41323],[-110.23108,23.41687],[-110.23417,23.42627],[-110.2643,23.47675],[-110.2767,23.48841],[-110.29844,23.52571],[-110.32352,23.55485],[-110.38613,23.60002],[-110.43856,23.62476],[-110.51446,23.65267],[-110.55721,23.67225],[-110.61253,23.70744],[-110.68326,23.76875],[-110.82342,23.91709],[-110.85296,23.94372],[-110.87479,23.95579],[-110.8894,23.97654],[-110.95448,24.03392],[-111.00809,24.07066],[-111.00755,24.0773],[-111.0107,24.08206],[-111.03277,24.10047],[-111.11452,24.15218],[-111.1727,24.18147],[-111.27439,24.24287],[-111.37736,24.29616],[-111.43379,24.32105],[-111.43655,24.32573],[-111.36963,24.29639],[-111.36449,24.29127],[-111.35863,24.28881],[-111.35704,24.28878],[-111.35623,24.2899],[-111.35901,24.28933],[-111.36307,24.29477],[-111.37692,24.29989],[-111.37999,24.30458],[-111.38887,24.30579],[-111.42431,24.32446],[-111.43086,24.32433],[-111.43737,24.33053],[-111.45502,24.33535],[-111.46249,24.34325],[-111.47807,24.3491],[-111.48058,24.35505],[-111.47553,24.36203],[-111.49333,24.37544],[-111.49873,24.38783],[-111.51674,24.39553],[-111.52207,24.40727],[-111.52708,24.41045],[-111.54218,24.41453],[-111.54634,24.41029],[-111.55328,24.41136],[-111.55501,24.40612],[-111.55287,24.40531],[-111.55689,24.40476],[-111.55648,24.41615],[-111.55862,24.41603],[-111.56019,24.40635],[-111.56086,24.41179],[-111.56434,24.41357],[-111.57086,24.40581],[-111.57024,24.41124],[-111.57342,24.41031],[-111.57613,24.41628],[-111.58333,24.41491],[-111.58407,24.42272],[-111.58025,24.42706],[-111.58223,24.43318],[-111.59016,24.43216],[-111.59067,24.43113],[-111.58941,24.43027],[-111.5897,24.42963],[-111.59404,24.42799],[-111.60604,24.43436],[-111.61071,24.44063],[-111.60938,24.44482],[-111.61587,24.4564],[-111.62104,24.49033],[-111.62933,24.51578],[-111.65127,24.5472],[-111.65265,24.55245],[-111.64611,24.5449],[-111.63867,24.54332],[-111.63693,24.54854],[-111.65707,24.56953],[-111.6759,24.57471],[-111.6839,24.5835],[-110.85746,25.07706],[-110.84833,25.07317]]],[[[-110.51096,25.11499],[-110.50953,25.1113],[-110.51143,25.11151],[-110.51096,25.11499]]],[[[-110.70682,25.10502],[-110.69426,25.09312],[-110.68901,25.072],[-110.68132,25.0614],[-110.66914,25.05249],[-110.60323,25.0396],[-110.58924,25.03118],[-110.58859,25.02318],[-110.58262,25.02239],[-110.58261,25.01823],[-110.57523,25.0161],[-110.57549,25.00503],[-110.56872,24.99739],[-110.56614,24.98825],[-110.57034,24.95414],[-110.5524,24.92529],[-110.54712,24.90829],[-110.53323,24.89282],[-110.5323,24.8877],[-110.52559,24.88297],[-110.53069,24.87733],[-110.55176,24.87233],[-110.56788,24.8731],[-110.57877,24.86463],[-110.58982,24.86499],[-110.5837,24.86651],[-110.57345,24.87855],[-110.5745,24.88834],[-110.61075,24.90792],[-110.61756,24.91515],[-110.64164,24.91434],[-110.64149,24.91966],[-110.63521,24.92883],[-110.6428,24.94107],[-110.65558,24.94831],[-110.6595,24.97205],[-110.67307,24.99036],[-110.6738,25.00663],[-110.67823,25.01715],[-110.68199,25.02039],[-110.69683,25.02153],[-110.70457,25.03051],[-110.71367,25.0316],[-110.7175,25.05436],[-110.71268,25.06523],[-110.71092,25.10088],[-110.70682,25.10502]]]]}},{"type":"Feature","properties":{"code":"03002","stateCode":"03","municipalityCode":"002","name":"Mulegé"},"geometry":{"type":"MultiPolygon","coordinates":[[[[-111.436,26.64163],[-111.42824,26.63692],[-111.42509,26.62451],[-111.43044,26.62414],[-111.43223,26.63211],[-111.43692,26.63685],[-111.436,26.64163]]],[[[-113.22703,26.73236],[-113.22903,26.73138],[-113.21208,26.7277],[-113.20324,26.72223],[-113.19697,26.72347],[-113.19592,26.7189],[-113.19063,26.7216],[-113.17577,26.71883],[-113.16697,26.70777],[-113.16974,26.70666],[-113.16046,26.69809],[-113.16241,26.69493],[-113.15756,26.69681],[-113.15455,26.69345],[-113.15258,26.68741],[-113.15505,26.68508],[-113.14912,26.68291],[-113.14775,26.67537],[-113.13549,26.66305],[-113.13555,26.65818],[-113.14424,26.65758],[-113.1904,26.6853],[-113.24013,26.69714],[-113.26148,26.70886],[-113.26291,26.71493],[-113.23775,26.73301],[-113.22703,26.73236]]],[[[-113.23898,26.77152],[-113.19555,26.74973],[-113.19044,26.74452],[-113.1925,26.7388],[-113.19722,26.74279],[-113.19822,26.73937],[-113.20916,26.73683],[-113.20915,26.74085],[-113.21043,26.74179],[-113.20847,26.74238],[-113.20742,26.74352],[-113.21051,26.74226],[-113.20983,26.73714],[-113.21507,26.73863],[-113.21466,26.74759],[-113.22081,26.75185],[-113.22354,26.75816],[-113.21847,26.75522],[-113.21906,26.75966],[-113.22702,26.76458],[-113.22376,26.75724],[-113.23898,26.77152]]],[[[-111.91529,26.87818],[-111.91366,26.8783],[-111.9154,26.87758],[-111.91529,26.87818]]],[[[-111.81608,26.89574],[-111.80832,26.88714],[-111.80135,26.88892],[-111.79156,26.87447],[-111.76673,26.86131],[-111.76,26.85268],[-111.74834,26.84623],[-111.72675,26.82021],[-111.72159,26.807],[-111.68211,26.78017],[-111.66599,26.78125],[-111.66694,26.77288],[-111.65873,26.76529],[-111.65607,26.75658],[-111.64871,26.75325],[-111.64699,26.74505],[-111.63552,26.74324],[-111.63159,26.73934],[-111.62646,26.74107],[-111.62684,26.73276],[-111.61062,26.72762],[-111.60772,26.71909],[-111.5971,26.71706],[-111.594,26.71191],[-111.5823,26.71245],[-111.57929,26.70664],[-111.57197,26.70793],[-111.57337,26.70434],[-111.56929,26.6987],[-111.5612,26.69703],[-111.56383,26.67674],[-111.56784,26.67014],[-111.56534,26.63537],[-111.56796,26.63201],[-111.56304,26.62082],[-111.56736,26.61831],[-111.56428,26.61663],[-111.57041,26.58553],[-111.56552,26.55874],[-111.53988,26.54367],[-111.50112,26.53017],[-111.47592,26.53079],[-111.47236,26.53553],[-111.46039,26.53772],[-111.46342,26.53272],[-111.46213,26.52864],[-111.45618,26.52254],[-111.44218,26.51745],[-111.65166,26.55068],[-111.7112,26.55241],[-111.68066,26.58023],[-111.67704,26.58705],[-111.67978,26.59578],[-111.69213,26.60126],[-111.69462,26.61042],[-111.70855,26.61924],[-111.71535,26.63089],[-111.72885,26.63872],[-111.74127,26.65302],[-111.75932,26.66087],[-111.76437,26.66693],[-111.76569,26.67665],[-111.79447,26.68834],[-111.80825,26.71563],[-111.81445,26.71578],[-111.81623,26.72036],[-111.81338,26.73261],[-111.81768,26.74933],[-111.81568,26.76667],[-111.82358,26.78412],[-111.82299,26.79404],[-111.82766,26.80931],[-111.824,26.82022],[-111.82692,26.82773],[-111.83648,26.834],[-111.83816,26.84799],[-111.84548,26.85643],[-111.8437,26.86815],[-111.85225,26.87498],[-111.8512,26.87935],[-111.84606,26.88201],[-111.83239,26.88392],[-111.82195,26.89628],[-111.81608,26.89574]]],[[[-113.15447,26.9085],[-113.14926,26.90448],[-113.14974,26.8948],[-113.15469,26.89104],[-113.15186,26.89872],[-113.1625,26.90346],[-113.1619,26.91179],[-113.15712,26.91665],[-113.15447,26.9085]]],[[[-113.16205,26.9319],[-113.16203,26.92533],[-113.16,26.91975],[-113.16212,26.92516],[-113.16783,26.92785],[-113.16205,26.9319]]],[[[-111.91093,27.03633],[-111.91589,27.03395],[-111.91616,27.03726],[-111.90884,27.04285],[-111.91093,27.03633]]],[[[-111.90925,27.05896],[-111.90976,27.05974],[-111.90924,27.05993],[-111.90925,27.05896]]],[[[-112.06914,27.16538],[-112.06779,27.16486],[-112.06771,27.16408],[-112.06914,27.16538]]],[[[-112.08821,27.25886],[-112.06489,27.2398],[-112.06394,27.23468],[-112.05868,27.23431],[-112.0564,27.22967],[-112.04662,27.22456],[-112.05061,27.21723],[-112.04337,27.20835],[-112.04871,27.20396],[-112.05938,27.17965],[-112.06541,27.18363],[-112.07562,27.17762],[-112.08483,27.18575],[-112.0832,27.19058],[-112.0862,27.18967],[-112.08733,27.19172],[-112.08447,27.1929],[-112.08842,27.21595],[-112.09695,27.23041],[-112.10843,27.23858],[-112.10362,27.24091],[-112.10243,27.24855],[-112.09787,27.24964],[-112.09265,27.25853],[-112.08821,27.25886]]],[[[-114.29328,27.11056],[-114.28901,27.10131],[-114.28991,27.09851],[-114.29532,27.1015],[-114.29328,27.11056]]],[[[-114.29358,27.11223],[-114.29322,27.11297],[-114.29306,27.11253],[-114.29358,27.11223]]],[[[-114.37556,27.15073],[-114.37109,27.14785],[-114.37209,27.14536],[-114.38475,27.14595],[-114.37631,27.14791],[-114.37556,27.15073]]],[[[-111.88597,27.4557],[-111.86912,27.45451],[-111.85588,27.44074],[-111.85746,27.43332],[-111.85995,27.43065],[-111.883,27.42737],[-111.89535,27.43064],[-111.90181,27.43814],[-111.9013,27.4493],[-111.88597,27.4557]]],[[[-114.71096,27.51363],[-114.7104,27.51397],[-114.71022,27.51384],[-114.71096,27.51363]]],[[[-114.70997,27.51493],[-114.70953,27.51464],[-114.70998,27.51463],[-114.70997,27.51493]]],[[[-114.71119,27.51583],[-114.7107,27.51548],[-114.71102,27.51539],[-114.71119,27.51583]]],[[[-112.74141,27.84239],[-112.73713,27.84219],[-112.73647,27.8412],[-112.74141,27.84239]]],[[[-114.17973,27.76885],[-114.17929,27.76615],[-114.17539,27.76951],[-114.16597,27.76338],[-114.15902,27.74536],[-114.16023,27.74088],[-114.16464,27.74219],[-114.146,27.72144],[-114.17309,27.74357],[-114.17974,27.75717],[-114.18341,27.7528],[-114.18446,27.76785],[-114.17973,27.76885]]],[[[-114.2267,27.7679],[-114.21275,27.75118],[-114.21706,27.75589],[-114.22009,27.75392],[-114.18521,27.72134],[-114.20349,27.73172],[-114.2147,27.73347],[-114.21869,27.73756],[-114.21619,27.74103],[-114.2282,27.74585],[-114.22332,27.73664],[-114.24753,27.74352],[-114.2489,27.75537],[-114.23975,27.75533],[-114.2331,27.74942],[-114.236,27.75379],[-114.23384,27.75654],[-114.22984,27.74978],[-114.23088,27.75214],[-114.2259,27.75122],[-114.22677,27.75835],[-114.22933,27.75963],[-114.23098,27.75666],[-114.23282,27.75909],[-114.23024,27.76499],[-114.22804,27.7604],[-114.22595,27.75965],[-114.2288,27.76212],[-114.22607,27.76479],[-114.22111,27.76006],[-114.22578,27.76523],[-114.22821,27.76461],[-114.2267,27.7679]]],[[[-112.76004,27.90223],[-112.76048,27.90252],[-112.7597,27.90343],[-112.76004,27.90223]]],[[[-115.2243,27.89356],[-115.2223,27.89361],[-115.2228,27.89267],[-115.2243,27.89356]]],[[[-115.21568,27.89619],[-115.19864,27.88659],[-115.19089,27.88547],[-115.1826,27.87583],[-115.16211,27.87038],[-115.16027,27.86272],[-115.16631,27.85278],[-115.17502,27.84839],[-115.1783,27.84966],[-115.17658,27.8564],[-115.18282,27.86062],[-115.17914,27.86127],[-115.18021,27.8662],[-115.19532,27.88056],[-115.2132,27.88426],[-115.21875,27.8882],[-115.22005,27.89279],[-115.21568,27.89619]]],[[[-114.20544,28.0],[-112.76478,28.0],[-112.75632,27.96754],[-112.76689,27.93936],[-112.76131,27.9123],[-112.76583,27.904],[-112.76133,27.89673],[-112.76199,27.89247],[-112.76779,27.88951],[-112.7716,27.86315],[-112.76001,27.84778],[-112.74278,27.838],[-112.73548,27.8267],[-112.72831,27.82308],[-112.72389,27.82654],[-112.71969,27.82548],[-112.72097,27.81904],[-112.7137,27.80586],[-112.71709,27.79818],[-112.716,27.78592],[-112.70717,27.7794],[-112.70785,27.76463],[-112.70116,27.75141],[-112.68058,27.73073],[-112.67598,27.72163],[-112.66935,27.71588],[-112.66387,27.71539],[-112.66112,27.70944],[-112.64409,27.71037],[-112.63807,27.70612],[-112.64234,27.70284],[-112.6432,27.69532],[-112.64169,27.70164],[-112.63716,27.70485],[-112.63371,27.69482],[-112.62335,27.68756],[-112.62324,27.67819],[-112.60264,27.66916],[-112.60519,27.66763],[-112.60163,27.66894],[-112.59808,27.66474],[-112.60018,27.65651],[-112.59538,27.65048],[-112.57318,27.64246],[-112.56081,27.64508],[-112.54089,27.63821],[-112.53002,27.63804],[-112.51821,27.62982],[-112.48747,27.62109],[-112.47432,27.61256],[-112.4748,27.60658],[-112.46779,27.59923],[-112.46148,27.59699],[-112.45015,27.59868],[-112.43646,27.59042],[-112.41876,27.59055],[-112.41239,27.58349],[-112.40224,27.58178],[-112.39171,27.57029],[-112.37203,27.56303],[-112.36975,27.55794],[-112.36028,27.55259],[-112.35554,27.53449],[-112.33758,27.5189],[-112.33011,27.51761],[-112.32368,27.49324],[-112.32429,27.47074],[-112.31814,27.46084],[-112.32195,27.45335],[-112.32168,27.44327],[-112.31765,27.4377],[-112.31499,27.43705],[-112.31504,27.43577],[-112.31237,27.43387],[-112.31207,27.43294],[-112.31746,27.43525],[-112.31798,27.42894],[-112.30597,27.41931],[-112.29792,27.40415],[-112.30405,27.39488],[-112.30222,27.38391],[-112.29109,27.37183],[-112.287,27.37363],[-112.28605,27.37268],[-112.29166,27.36956],[-112.28692,27.36437],[-112.27015,27.35757],[-112.26847,27.3451],[-112.26295,27.34189],[-112.26049,27.33813],[-112.26604,27.34098],[-112.26195,27.33764],[-112.26229,27.33327],[-112.24348,27.32564],[-112.24386,27.31743],[-112.24132,27.3258],[-112.23455,27.31493],[-112.23127,27.29621],[-112.21722,27.28087],[-112.21267,27.26543],[-112.20378,27.25458],[-112.19555,27.25069],[-112.19499,27.24997],[-112.19344,27.24425],[-112.1936,27.23444],[-112.19569,27.22818],[-112.1993,27.22447],[-112.20239,27.21143],[-112.20445,27.20706],[-112.19955,27.22475],[-112.19521,27.22978],[-112.1937,27.24359],[-112.19612,27.25064],[-112.2017,27.24759],[-112.20427,27.24901],[-112.20614,27.24949],[-112.20718,27.24931],[-112.19951,27.24585],[-112.19805,27.24146],[-112.21099,27.22104],[-112.21313,27.22428],[-112.21638,27.22404],[-112.21228,27.22079],[-112.21567,27.21059],[-112.21292,27.20434],[-112.19099,27.1947],[-112.16683,27.17194],[-112.1651,27.16511],[-112.13195,27.15821],[-112.11383,27.14665],[-112.11222,27.14045],[-112.09752,27.13312],[-112.08673,27.13082],[-112.07065,27.13402],[-112.06722,27.12833],[-112.05513,27.12309],[-112.04387,27.12371],[-112.0092,27.11681],[-111.99277,27.09647],[-111.9727,27.09776],[-111.95222,27.09494],[-111.95303,27.08311],[-111.94424,27.07928],[-111.94833,27.07391],[-111.94595,27.06986],[-111.95832,27.06483],[-111.96804,27.06978],[-111.9736,27.06813],[-111.98853,27.05605],[-112.00645,27.03305],[-112.01453,27.00404],[-112.0144,26.97332],[-112.00756,26.95753],[-111.98615,26.94066],[-111.97597,26.93661],[-111.96373,26.91501],[-111.95587,26.91417],[-111.95698,26.90534],[-111.95249,26.90124],[-111.95656,26.90378],[-111.9737,26.89751],[-111.98252,26.88866],[-111.97303,26.89709],[-111.95349,26.89918],[-111.94899,26.89074],[-111.93739,26.8833],[-111.91583,26.87742],[-111.9124,26.87356],[-111.9119,26.85784],[-111.9021,26.85317],[-111.89443,26.84301],[-111.87249,26.83174],[-111.87247,26.81852],[-111.86301,26.80547],[-111.86167,26.78416],[-111.87463,26.77627],[-111.87815,26.7621],[-111.87651,26.75583],[-111.88339,26.76559],[-111.89133,26.76329],[-111.88969,26.76069],[-111.89754,26.75301],[-111.89123,26.75156],[-111.89103,26.74886],[-111.90124,26.74203],[-111.89988,26.73832],[-111.90726,26.73117],[-111.90273,26.72559],[-111.9074,26.72589],[-111.90905,26.71973],[-111.90244,26.71324],[-111.8981,26.71589],[-111.89119,26.71333],[-111.89086,26.71027],[-111.8844,26.71072],[-111.88634,26.70842],[-111.8832,26.69993],[-111.8763,26.69861],[-111.87675,26.70489],[-111.863,26.69335],[-111.85175,26.67247],[-111.84927,26.66122],[-111.85109,26.64981],[-111.84614,26.64398],[-111.83599,26.64128],[-111.83637,26.63794],[-111.83115,26.63932],[-111.83129,26.6364],[-111.81782,26.63332],[-111.81134,26.62495],[-111.8065,26.62631],[-111.80227,26.61095],[-111.79436,26.60277],[-111.79259,26.59061],[-111.78705,26.58664],[-111.78286,26.56823],[-111.76923,26.56194],[-111.76368,26.55444],[-112.98163,26.53054],[-112.99638,26.54615],[-113.03407,26.57128],[-113.05963,26.59302],[-113.06179,26.60019],[-113.0641,26.59907],[-113.08074,26.6158],[-113.10653,26.62993],[-113.13484,26.63609],[-113.13108,26.64002],[-113.12454,26.63879],[-113.12457,26.65197],[-113.11894,26.65428],[-113.11667,26.65133],[-113.11579,26.65527],[-113.11826,26.65488],[-113.11199,26.65934],[-113.10077,26.65627],[-113.09907,26.65006],[-113.08636,26.64143],[-113.08833,26.63118],[-113.08208,26.62284],[-113.08148,26.62727],[-113.07734,26.62823],[-113.08137,26.63545],[-113.07626,26.62846],[-113.07,26.63961],[-113.06248,26.64028],[-113.05644,26.63648],[-113.05288,26.6402],[-113.09241,26.6844],[-113.09697,26.69743],[-113.10197,26.69803],[-113.10261,26.70143],[-113.10314,26.69877],[-113.11396,26.71528],[-113.12175,26.71752],[-113.13019,26.72617],[-113.14673,26.75138],[-113.14936,26.75322],[-113.15193,26.74883],[-113.15044,26.75517],[-113.1409,26.75831],[-113.15084,26.77223],[-113.14986,26.77706],[-113.14393,26.77641],[-113.14058,26.78083],[-113.14956,26.79302],[-113.14216,26.79623],[-113.13588,26.79172],[-113.12897,26.79174],[-113.12487,26.79298],[-113.12552,26.79604],[-113.1307,26.79725],[-113.13451,26.79451],[-113.14642,26.80253],[-113.15245,26.79011],[-113.16256,26.79645],[-113.16975,26.79559],[-113.17427,26.79043],[-113.17012,26.78445],[-113.1706,26.77459],[-113.17144,26.77627],[-113.17309,26.77692],[-113.17326,26.77776],[-113.17388,26.77792],[-113.17674,26.77157],[-113.17286,26.76601],[-113.17558,26.76401],[-113.17967,26.76687],[-113.17971,26.76068],[-113.18225,26.76597],[-113.18606,26.76449],[-113.18156,26.75982],[-113.18603,26.75879],[-113.18613,26.75602],[-113.18644,26.76097],[-113.18843,26.7645],[-113.18952,26.76166],[-113.20072,26.76274],[-113.2041,26.76504],[-113.20392,26.7675],[-113.20444,26.76808],[-113.2046,26.76416],[-113.20315,26.76298],[-113.2102,26.76268],[-113.22318,26.77438],[-113.23321,26.77446],[-113.23571,26.7816],[-113.24487,26.78755],[-113.24285,26.79008],[-113.23583,26.78713],[-113.23039,26.79498],[-113.22188,26.7943],[-113.21718,26.79736],[-113.21406,26.78936],[-113.1952,26.79258],[-113.1947,26.79611],[-113.20011,26.7965],[-113.20053,26.79915],[-113.2093,26.79629],[-113.20035,26.80593],[-113.18702,26.80962],[-113.18134,26.82137],[-113.172,26.82336],[-113.16831,26.83068],[-113.14824,26.84531],[-113.13829,26.85796],[-113.13158,26.89251],[-113.13951,26.91728],[-113.13858,26.93748],[-113.15008,26.97044],[-113.16564,26.99278],[-113.16956,26.99394],[-113.17643,26.98927],[-113.16974,26.98671],[-113.16926,26.9796],[-113.17417,26.97404],[-113.18194,26.97532],[-113.188,26.96815],[-113.20103,26.928],[-113.20171,26.91773],[-113.19648,26.89546],[-113.20398,26.87294],[-113.20377,26.85052],[-113.23125,26.83523],[-113.24145,26.83558],[-113.25293,26.84531],[-113.26055,26.83734],[-113.26477,26.8216],[-113.27176,26.81952],[-113.26635,26.81557],[-113.2687,26.81435],[-113.26828,26.79757],[-113.27236,26.79147],[-113.27146,26.78725],[-113.27325,26.78802],[-113.27363,26.78744],[-113.26358,26.7838],[-113.26917,26.77562],[-113.26882,26.76631],[-113.27137,26.7659],[-113.26623,26.76491],[-113.26673,26.75322],[-113.28525,26.75226],[-113.32717,26.78008],[-113.36868,26.79748],[-113.42218,26.80668],[-113.45741,26.80514],[-113.46109,26.81029],[-113.45426,26.81147],[-113.446,26.80813],[-113.41356,26.80703],[-113.41728,26.81023],[-113.44855,26.81032],[-113.41206,26.81352],[-113.41301,26.81667],[-113.41017,26.81835],[-113.41465,26.81804],[-113.41369,26.81517],[-113.42363,26.81645],[-113.42009,26.81778],[-113.41996,26.81803],[-113.42018,26.81904],[-113.42711,26.8149],[-113.43283,26.81645],[-113.42509,26.8234],[-113.42241,26.82154],[-113.42101,26.8257],[-113.4102,26.82182],[-113.40009,26.81173],[-113.39104,26.81512],[-113.39618,26.82584],[-113.40866,26.82554],[-113.417,26.83255],[-113.43323,26.82653],[-113.4383,26.83223],[-113.45923,26.8308],[-113.46541,26.82956],[-113.46678,26.82424],[-113.47086,26.82334],[-113.47017,26.81561],[-113.47435,26.82545],[-113.4811,26.82335],[-113.48742,26.81352],[-113.47456,26.81277],[-113.47388,26.81073],[-113.48073,26.80866],[-113.4745,26.80684],[-113.46384,26.81255],[-113.46646,26.80401],[-113.51053,26.78953],[-113.52148,26.75299],[-113.54905,26.73751],[-113.54528,26.72725],[-113.54698,26.71885],[-113.56973,26.71493],[-113.57681,26.70475],[-113.60644,26.71273],[-113.63952,26.7297],[-113.66197,26.75976],[-113.6826,26.77774],[-113.70071,26.78875],[-113.69841,26.79195],[-113.66598,26.77531],[-113.66497,26.76713],[-113.65954,26.76029],[-113.64449,26.75648],[-113.64868,26.7567],[-113.64324,26.75346],[-113.64597,26.74286],[-113.64341,26.73837],[-113.62726,26.73282],[-113.6195,26.72355],[-113.58951,26.71409],[-113.59286,26.72173],[-113.59788,26.72142],[-113.59717,26.719],[-113.60642,26.73239],[-113.61866,26.73089],[-113.62139,26.73298],[-113.61973,26.73269],[-113.61776,26.7345],[-113.6215,26.73347],[-113.62663,26.74019],[-113.63701,26.73968],[-113.64172,26.7585],[-113.64769,26.76199],[-113.65621,26.76175],[-113.65743,26.76478],[-113.656,26.76323],[-113.65393,26.76421],[-113.65796,26.76526],[-113.65861,26.77147],[-113.66175,26.77226],[-113.65919,26.77366],[-113.66206,26.7735],[-113.67094,26.78556],[-113.67313,26.7854],[-113.67432,26.7874],[-113.67492,26.78779],[-113.67558,26.78793],[-113.67362,26.78294],[-113.67698,26.78362],[-113.68193,26.78844],[-113.67724,26.78656],[-113.67656,26.78658],[-113.67626,26.78682],[-113.67568,26.7879],[-113.69169,26.79586],[-113.69211,26.79356],[-113.70334,26.7941],[-113.70842,26.78892],[-113.71578,26.7905],[-113.72597,26.80055],[-113.73398,26.79975],[-113.74197,26.82703],[-113.76718,26.88502],[-113.78722,26.91803],[-113.82154,26.94961],[-113.85529,26.9708],[-113.90716,26.99141],[-113.95225,26.99898],[-113.9667,26.99757],[-113.97587,26.99316],[-113.98301,26.97221],[-114.0005,26.9726],[-113.99873,26.97122],[-114.00313,26.9695],[-114.00428,26.97345],[-114.01862,26.9845],[-114.03954,27.0128],[-114.05282,27.02023],[-114.05253,27.03321],[-114.06033,27.05018],[-114.09061,27.08648],[-114.12762,27.11317],[-114.15748,27.12873],[-114.19604,27.14266],[-114.26058,27.15155],[-114.29003,27.1435],[-114.29576,27.1358],[-114.29294,27.12785],[-114.29634,27.12274],[-114.29837,27.12876],[-114.31274,27.14176],[-114.32392,27.1481],[-114.32807,27.14698],[-114.3318,27.15603],[-114.36219,27.16288],[-114.38222,27.17949],[-114.39621,27.18204],[-114.39799,27.17565],[-114.41501,27.16866],[-114.42083,27.17338],[-114.42574,27.17172],[-114.42715,27.17485],[-114.43436,27.17647],[-114.43304,27.18339],[-114.42719,27.18923],[-114.428,27.19758],[-114.43443,27.20924],[-114.45577,27.22051],[-114.47932,27.21678],[-114.48076,27.22386],[-114.48779,27.22829],[-114.48506,27.23338],[-114.48856,27.2474],[-114.48474,27.26241],[-114.48864,27.27869],[-114.48556,27.28392],[-114.48824,27.34579],[-114.49963,27.39177],[-114.51408,27.41687],[-114.52678,27.42891],[-114.54204,27.43737],[-114.54583,27.43657],[-114.54945,27.4424],[-114.56402,27.45052],[-114.57682,27.4518],[-114.59187,27.47121],[-114.6019,27.47875],[-114.60974,27.47896],[-114.62201,27.48597],[-114.63252,27.48615],[-114.6343,27.49015],[-114.63996,27.48999],[-114.64071,27.49404],[-114.64932,27.49577],[-114.653,27.49998],[-114.66854,27.50626],[-114.68911,27.50881],[-114.71319,27.52145],[-114.72882,27.52109],[-114.73795,27.52423],[-114.73938,27.53222],[-114.7452,27.5323],[-114.74954,27.54332],[-114.75895,27.54832],[-114.76841,27.58168],[-114.78019,27.60202],[-114.79359,27.615],[-114.81165,27.62665],[-114.8304,27.6311],[-114.84386,27.62757],[-114.84408,27.61752],[-114.84702,27.61695],[-114.86469,27.63155],[-114.86156,27.63372],[-114.86309,27.63802],[-114.87402,27.64336],[-114.87146,27.64988],[-114.85662,27.63784],[-114.85108,27.64054],[-114.84726,27.64794],[-114.84725,27.65696],[-114.84965,27.6575],[-114.84571,27.66524],[-114.84643,27.6757],[-114.85339,27.6864],[-114.86594,27.69531],[-114.87824,27.69918],[-114.87949,27.69563],[-114.88655,27.69516],[-114.89351,27.69005],[-114.89305,27.68101],[-114.90272,27.67456],[-114.89938,27.66838],[-114.90061,27.66351],[-114.93386,27.67803],[-114.93325,27.68522],[-114.93802,27.68656],[-114.93554,27.68821],[-114.93669,27.69832],[-114.94494,27.71046],[-114.95388,27.71633],[-114.99021,27.72878],[-114.99736,27.72532],[-114.99862,27.71772],[-115.00466,27.71902],[-115.00555,27.71574],[-115.00682,27.71643],[-115.00968,27.72854],[-115.01698,27.73931],[-115.02593,27.74065],[-115.02355,27.74414],[-115.02538,27.75094],[-115.03433,27.76011],[-115.03179,27.76979],[-115.03549,27.78272],[-115.04135,27.79168],[-115.04667,27.79409],[-115.04579,27.79972],[-115.05054,27.80681],[-115.05209,27.82],[-115.08245,27.84795],[-115.07204,27.8558],[-115.05476,27.86175],[-115.02713,27.84676],[-115.01666,27.83215],[-115.00911,27.82875],[-114.97615,27.82523],[-114.9145,27.83464],[-114.8811,27.82812],[-114.86596,27.83048],[-114.85293,27.8265],[-114.85123,27.82009],[-114.83497,27.80934],[-114.78728,27.81571],[-114.77104,27.81199],[-114.76197,27.80585],[-114.74429,27.80513],[-114.73687,27.80851],[-114.72164,27.80495],[-114.71722,27.79453],[-114.70256,27.78822],[-114.68389,27.78664],[-114.66999,27.78936],[-114.65988,27.78133],[-114.64231,27.78165],[-114.6387,27.77693],[-114.60541,27.77395],[-114.56967,27.78439],[-114.56043,27.78193],[-114.53313,27.7862],[-114.50089,27.77214],[-114.45666,27.78928],[-114.40041,27.81853],[-114.39473,27.81482],[-114.39631,27.81291],[-114.39668,27.81521],[-114.39843,27.81525],[-114.39676,27.81265],[-114.40279,27.81644],[-114.40654,27.81447],[-114.40241,27.81283],[-114.40146,27.80772],[-114.39516,27.80519],[-114.39524,27.80808],[-114.39433,27.80524],[-114.39082,27.8042],[-114.39455,27.80882],[-114.3911,27.81017],[-114.38639,27.80311],[-114.38495,27.80884],[-114.38105,27.80542],[-114.38043,27.80881],[-114.37438,27.8063],[-114.37264,27.81094],[-114.36722,27.8106],[-114.36637,27.81355],[-114.36001,27.81512],[-114.35019,27.81225],[-114.34698,27.80759],[-114.33784,27.80805],[-114.33976,27.80674],[-114.33597,27.80184],[-114.33723,27.80613],[-114.33365,27.80295],[-114.3365,27.80159],[-114.33075,27.78896],[-114.33046,27.79108],[-114.32469,27.78768],[-114.33032,27.79787],[-114.32714,27.79406],[-114.32785,27.79857],[-114.33406,27.80472],[-114.33571,27.80972],[-114.33791,27.81251],[-114.3396,27.81362],[-114.33605,27.80913],[-114.343,27.81451],[-114.34231,27.81686],[-114.34019,27.81483],[-114.3414,27.81782],[-114.33703,27.81345],[-114.33644,27.81551],[-114.33635,27.81248],[-114.33757,27.81293],[-114.32954,27.80251],[-114.33469,27.81208],[-114.33155,27.8084],[-114.33334,27.82601],[-114.33067,27.82551],[-114.33572,27.83064],[-114.33026,27.82756],[-114.33377,27.83486],[-114.32839,27.83045],[-114.33086,27.8361],[-114.32626,27.83204],[-114.32901,27.83803],[-114.32484,27.83698],[-114.33223,27.84263],[-114.33239,27.84626],[-114.32842,27.84246],[-114.32883,27.84554],[-114.32848,27.84602],[-114.32421,27.84146],[-114.32423,27.84404],[-114.32329,27.83969],[-114.32268,27.84384],[-114.32768,27.84923],[-114.33365,27.85039],[-114.32722,27.8513],[-114.33243,27.85913],[-114.33706,27.85886],[-114.33529,27.85635],[-114.34118,27.8578],[-114.3385,27.85076],[-114.34647,27.8541],[-114.34373,27.84702],[-114.34974,27.84924],[-114.34858,27.84538],[-114.35223,27.84821],[-114.3508,27.84584],[-114.3551,27.84487],[-114.35363,27.84117],[-114.35694,27.83413],[-114.36525,27.8425],[-114.36258,27.83659],[-114.36915,27.84223],[-114.37089,27.83813],[-114.37695,27.83598],[-114.37373,27.83185],[-114.38026,27.83312],[-114.38205,27.8261],[-114.37941,27.82769],[-114.37827,27.82671],[-114.38312,27.82063],[-114.38983,27.81713],[-114.39116,27.8225],[-114.38026,27.83574],[-114.34181,27.86353],[-114.32066,27.8727],[-114.30717,27.87228],[-114.29631,27.86618],[-114.29324,27.85969],[-114.29513,27.84629],[-114.29487,27.85249],[-114.29895,27.85736],[-114.30301,27.8567],[-114.29602,27.84565],[-114.29564,27.83491],[-114.29653,27.83067],[-114.29871,27.82741],[-114.29634,27.83843],[-114.30388,27.84616],[-114.29777,27.83695],[-114.30902,27.84171],[-114.29936,27.82847],[-114.29982,27.82473],[-114.30186,27.82217],[-114.30102,27.82413],[-114.30319,27.825],[-114.30237,27.82296],[-114.30367,27.81414],[-114.30479,27.81187],[-114.3042,27.81817],[-114.31177,27.8271],[-114.30539,27.81839],[-114.31408,27.82767],[-114.31838,27.82714],[-114.32251,27.82129],[-114.31904,27.81409],[-114.32018,27.81773],[-114.30687,27.80809],[-114.30579,27.8018],[-114.30702,27.8066],[-114.31145,27.80704],[-114.30735,27.8029],[-114.31143,27.80593],[-114.312,27.80036],[-114.30728,27.79619],[-114.30861,27.79352],[-114.31308,27.79538],[-114.31024,27.79032],[-114.31466,27.79445],[-114.31614,27.7902],[-114.31187,27.78453],[-114.31308,27.78161],[-114.31248,27.78372],[-114.31511,27.78606],[-114.31542,27.78592],[-114.31774,27.78246],[-114.31598,27.77915],[-114.32049,27.77971],[-114.31853,27.7763],[-114.32105,27.77599],[-114.31539,27.77196],[-114.3139,27.77685],[-114.31553,27.77904],[-114.31539,27.77936],[-114.31483,27.77966],[-114.31173,27.77392],[-114.31237,27.76834],[-114.29875,27.7479],[-114.28319,27.73386],[-114.27031,27.728],[-114.25767,27.70808],[-114.24748,27.70108],[-114.24619,27.70337],[-114.24025,27.69567],[-114.2277,27.68872],[-114.20013,27.69128],[-114.1912,27.68396],[-114.17487,27.6802],[-114.16096,27.6722],[-114.14709,27.65671],[-114.15268,27.66206],[-114.14257,27.64311],[-114.12652,27.59885],[-114.12964,27.5949],[-114.12832,27.58787],[-114.11314,27.58659],[-114.11471,27.5899],[-114.11225,27.58827],[-114.11378,27.59222],[-114.11092,27.59227],[-114.10812,27.60009],[-114.11234,27.58652],[-114.10757,27.60057],[-114.10699,27.60087],[-114.11073,27.58988],[-114.1026,27.59036],[-114.10161,27.58591],[-114.1014,27.58878],[-114.09748,27.5907],[-114.0994,27.58903],[-114.09611,27.59046],[-114.09341,27.58734],[-114.09243,27.59007],[-114.09132,27.58736],[-114.08023,27.5967],[-114.07208,27.59297],[-114.07444,27.59988],[-114.08301,27.60257],[-114.08973,27.61188],[-114.09101,27.60998],[-114.09007,27.61219],[-114.05606,27.64251],[-114.06051,27.63681],[-114.04417,27.64221],[-114.02104,27.66134],[-113.96966,27.65858],[-113.96188,27.65631],[-113.95937,27.65148],[-113.95765,27.65696],[-113.96362,27.66484],[-113.95597,27.65582],[-113.95432,27.66123],[-113.93939,27.66718],[-113.94073,27.67031],[-113.92612,27.67837],[-113.92656,27.68605],[-113.92475,27.68438],[-113.92099,27.6972],[-113.92507,27.70087],[-113.91582,27.70954],[-113.9275,27.72728],[-113.94164,27.7316],[-113.94107,27.73376],[-113.94833,27.73334],[-113.94235,27.74157],[-113.94515,27.74494],[-113.94843,27.74701],[-113.9438,27.74181],[-113.94745,27.73685],[-113.95239,27.73767],[-113.96904,27.7497],[-113.97177,27.75092],[-113.97277,27.74869],[-113.97444,27.74883],[-113.97305,27.75199],[-113.97483,27.74869],[-113.97747,27.74506],[-113.97656,27.74279],[-113.97749,27.74394],[-113.97759,27.74457],[-113.97742,27.74552],[-113.97307,27.75297],[-113.97224,27.75277],[-113.98186,27.75932],[-113.98696,27.75857],[-113.98786,27.75421],[-113.9906,27.76212],[-113.99258,27.75834],[-113.99835,27.76006],[-114.00164,27.75308],[-114.01027,27.74938],[-114.01012,27.74599],[-114.0113,27.7479],[-114.03049,27.74344],[-114.028,27.74099],[-114.02883,27.7413],[-114.03162,27.7438],[-114.0398,27.75729],[-114.0452,27.78968],[-114.05231,27.78725],[-114.05563,27.80005],[-114.07118,27.81221],[-114.08147,27.80587],[-114.07819,27.80307],[-114.08266,27.80432],[-114.08487,27.80251],[-114.08554,27.80066],[-114.07775,27.80045],[-114.0773,27.80393],[-114.07335,27.80153],[-114.07968,27.79865],[-114.06503,27.78664],[-114.05427,27.76319],[-114.05303,27.76586],[-114.05115,27.76335],[-114.04261,27.74272],[-114.04431,27.73739],[-114.07053,27.73236],[-114.07442,27.73671],[-114.07013,27.73104],[-114.07639,27.73179],[-114.07488,27.72688],[-114.07888,27.72828],[-114.07829,27.72302],[-114.08216,27.72656],[-114.07941,27.72488],[-114.07869,27.73118],[-114.07478,27.73284],[-114.07689,27.73911],[-114.07655,27.73422],[-114.08274,27.72637],[-114.10527,27.71387],[-114.10146,27.71263],[-114.1002,27.71537],[-114.09795,27.71538],[-114.09602,27.71411],[-114.10022,27.71486],[-114.09831,27.70686],[-114.11681,27.71153],[-114.11456,27.71224],[-114.12333,27.71141],[-114.14643,27.72618],[-114.15049,27.73535],[-114.14636,27.73732],[-114.14787,27.74831],[-114.15712,27.76318],[-114.15898,27.77622],[-114.16988,27.78823],[-114.17063,27.7839],[-114.1723,27.7855],[-114.17726,27.79947],[-114.17582,27.81319],[-114.16578,27.82197],[-114.16177,27.82944],[-114.16436,27.82642],[-114.1667,27.82969],[-114.17791,27.81963],[-114.17858,27.82295],[-114.17385,27.83096],[-114.16977,27.83093],[-114.16466,27.83432],[-114.16997,27.83222],[-114.16898,27.83839],[-114.14139,27.8675],[-114.13942,27.8715],[-114.14103,27.86914],[-114.14171,27.87154],[-114.13353,27.88244],[-114.13567,27.87496],[-114.13429,27.87349],[-114.13042,27.87311],[-114.12826,27.87761],[-114.13433,27.87389],[-114.13437,27.87935],[-114.12869,27.88087],[-114.12933,27.88768],[-114.13033,27.88771],[-114.13093,27.88673],[-114.13133,27.88646],[-114.1321,27.88618],[-114.12967,27.88898],[-114.12725,27.89002],[-114.15178,27.89893],[-114.13531,27.89462],[-114.13135,27.89542],[-114.13269,27.89707],[-114.15875,27.90161],[-114.16661,27.90688],[-114.16516,27.90929],[-114.16784,27.91058],[-114.16839,27.91199],[-114.17035,27.90808],[-114.17805,27.91443],[-114.20315,27.91592],[-114.17242,27.92227],[-114.16678,27.91669],[-114.16643,27.91181],[-114.16807,27.91255],[-114.1695,27.91263],[-114.16742,27.91219],[-114.16758,27.91064],[-114.16404,27.90947],[-114.15211,27.91943],[-114.14679,27.91286],[-114.14942,27.91008],[-114.14729,27.90551],[-114.14556,27.90677],[-114.14787,27.90416],[-114.15157,27.90331],[-114.14427,27.90176],[-114.1471,27.90418],[-114.144,27.90743],[-114.14216,27.90619],[-114.14313,27.90413],[-114.14289,27.90392],[-114.14205,27.90381],[-114.14301,27.9041],[-114.14154,27.90532],[-114.14252,27.90801],[-114.14516,27.90834],[-114.14226,27.91059],[-114.14432,27.91063],[-114.15097,27.92019],[-114.14634,27.91783],[-114.14776,27.91639],[-114.14745,27.91588],[-114.14656,27.91573],[-114.14228,27.92026],[-114.13727,27.91962],[-114.13584,27.91665],[-114.13487,27.91623],[-114.13429,27.91639],[-114.13592,27.91892],[-114.13815,27.92034],[-114.13982,27.92088],[-114.14349,27.92058],[-114.1466,27.91847],[-114.1486,27.92049],[-114.1535,27.92082],[-114.16394,27.91507],[-114.16557,27.91751],[-114.15878,27.92214],[-114.15769,27.92689],[-114.16601,27.92838],[-114.1636,27.93763],[-114.15865,27.93448],[-114.15423,27.93601],[-114.15388,27.93788],[-114.15664,27.94228],[-114.14898,27.94278],[-114.14416,27.93969],[-114.14955,27.94358],[-114.1551,27.94338],[-114.1574,27.94186],[-114.15486,27.93584],[-114.16381,27.93817],[-114.16826,27.92845],[-114.16373,27.92325],[-114.16584,27.91925],[-114.17259,27.92414],[-114.16988,27.9378],[-114.17142,27.94907],[-114.16634,27.95167],[-114.16256,27.94803],[-114.15907,27.94786],[-114.16408,27.95237],[-114.16898,27.9523],[-114.17384,27.94801],[-114.17343,27.94415],[-114.17764,27.94306],[-114.18152,27.94857],[-114.17928,27.94846],[-114.18671,27.9531],[-114.1807,27.94296],[-114.17462,27.93949],[-114.17551,27.92569],[-114.17942,27.92232],[-114.19732,27.92379],[-114.19237,27.92896],[-114.17923,27.93012],[-114.18223,27.93115],[-114.19603,27.92835],[-114.2034,27.92025],[-114.21335,27.9325],[-114.20981,27.9229],[-114.22487,27.92981],[-114.21693,27.92265],[-114.21879,27.91975],[-114.21564,27.91969],[-114.23295,27.91687],[-114.23653,27.9205],[-114.23346,27.91682],[-114.24275,27.91212],[-114.26381,27.88745],[-114.26765,27.88823],[-114.27442,27.90208],[-114.27394,27.92972],[-114.20544,28.0]]]]}},{"type":"Feature","properties":{"code":"03009","stateCode":"03","municipalityCode":"009","name":"Loreto"},"geometry":{"type":"MultiPolygon","coordinates":[[[[-110.92254,25.24762],[-110.92083,25.24663],[-110.9229,25.24675],[-110.92254,25.24762]]],[[[-110.9546,25.32853],[-110.95345,25.32941],[-110.95289,25.32859],[-110.9546,25.32853]]],[[[-111.13255,25.58784],[-111.12934,25.58663],[-111.13009,25.58431],[-111.13255,25.58784]]],[[[-111.14432,25.58548],[-111.14855,25.58318],[-111.15302,25.58287],[-111.1519,25.58844],[-111.14432,25.58548]]],[[[-110.77291,25.71234],[-110.76965,25.69531],[-110.76306,25.69056],[-110.76946,25.67765],[-110.7611,25.65308],[-110.75738,25.62972],[-110.75514,25.60119],[-110.76022,25.5975],[-110.75873,25.59366],[-110.77499,25.60463],[-110.77997,25.60399],[-110.78007,25.60131],[-110.78628,25.60606],[-110.79238,25.62672],[-110.80495,25.64725],[-110.80242,25.6512],[-110.80547,25.65924],[-110.79993,25.66714],[-110.8002,25.68035],[-110.79652,25.68195],[-110.79891,25.68474],[-110.79227,25.69293],[-110.79326,25.69566],[-110.7888,25.69585],[-110.7849,25.70124],[-110.78064,25.71223],[-110.77291,25.71234]]],[[[-111.03497,25.71429],[-111.03183,25.70251],[-111.02644,25.70116],[-111.0255,25.69611],[-111.01728,25.69362],[-111.01331,25.67875],[-111.01355,25.66946],[-111.0298,25.64978],[-111.04691,25.66437],[-111.04547,25.67559],[-111.05708,25.69606],[-111.05964,25.70727],[-111.04406,25.70711],[-111.04187,25.71284],[-111.03497,25.71429]]],[[[-111.22396,25.7315],[-111.22568,25.73034],[-111.22495,25.73226],[-111.22396,25.7315]]],[[[-111.04264,25.74028],[-111.04447,25.73942],[-111.04385,25.74318],[-111.04264,25.74028]]],[[[-111.04861,25.74248],[-111.04987,25.74178],[-111.04995,25.74298],[-111.04861,25.74248]]],[[[-111.22818,25.7444],[-111.22613,25.74345],[-111.2271,25.74322],[-111.22818,25.7444]]],[[[-111.27538,25.75789],[-111.27396,25.75711],[-111.27585,25.75534],[-111.27538,25.75789]]],[[[-111.28122,25.76842],[-111.28142,25.76719],[-111.28165,25.76813],[-111.28122,25.76842]]],[[[-111.2601,25.81169],[-111.2551,25.81198],[-111.25046,25.79793],[-111.24727,25.7988],[-111.2501,25.79371],[-111.24837,25.78859],[-111.24749,25.79089],[-111.24333,25.78912],[-111.24872,25.77739],[-111.24248,25.77095],[-111.24525,25.76469],[-111.25926,25.78309],[-111.25555,25.80231],[-111.25692,25.80932],[-111.26088,25.80858],[-111.2601,25.81169]]],[[[-111.31637,25.84236],[-111.31672,25.84023],[-111.31746,25.83997],[-111.31637,25.84236]]],[[[-111.18072,26.04484],[-111.17857,26.04575],[-111.17785,26.0439],[-111.18072,26.04484]]],[[[-111.05963,26.07302],[-111.0689,26.06021],[-111.07704,26.0431],[-111.08417,26.01624],[-111.08006,25.998],[-111.07327,25.99474],[-111.07067,25.99792],[-111.06908,25.9971],[-111.07231,25.98404],[-111.0696,25.98069],[-111.06486,25.98127],[-111.06744,25.97737],[-111.06447,25.97079],[-111.06679,25.96594],[-111.0729,25.9728],[-111.07914,25.97198],[-111.08723,25.98327],[-111.09404,25.98527],[-111.10115,25.99766],[-111.10865,25.99854],[-111.11996,25.99389],[-111.12207,25.97881],[-111.13234,25.96141],[-111.14394,25.95123],[-111.15787,25.92716],[-111.17164,25.91667],[-111.17967,25.90523],[-111.1812,25.89973],[-111.17828,25.89598],[-111.18336,25.8913],[-111.18148,25.88876],[-111.18494,25.88241],[-111.1816,25.8665],[-111.18849,25.85758],[-111.19518,25.858],[-111.20379,25.84791],[-111.2011,25.81015],[-111.20453,25.8062],[-111.21111,25.81564],[-111.22893,25.8225],[-111.23329,25.84815],[-111.22435,25.86496],[-111.21787,25.86535],[-111.21455,25.8698],[-111.21979,25.88431],[-111.21257,25.89625],[-111.2126,25.90965],[-111.20708,25.91425],[-111.2093,25.92973],[-111.19993,25.94119],[-111.19777,25.95576],[-111.18808,25.96334],[-111.18743,25.96876],[-111.18043,25.97609],[-111.17062,25.98142],[-111.1679,25.98935],[-111.1726,26.00415],[-111.16889,26.01637],[-111.16432,26.01567],[-111.16261,26.01927],[-111.16425,26.02227],[-111.1687,26.02069],[-111.17544,26.04173],[-111.15979,26.04349],[-111.135,26.0519],[-111.13212,26.05399],[-111.1332,26.06327],[-111.12848,26.06751],[-111.1216,26.05963],[-111.10597,26.05665],[-111.10382,26.05155],[-111.09268,26.05841],[-111.0864,26.05976],[-111.08604,26.05594],[-111.07744,26.05978],[-111.07246,26.0676],[-111.06817,26.06526],[-111.05963,26.07302]]],[[[-111.30562,26.1063],[-111.30367,26.1048],[-111.30638,26.10484],[-111.30562,26.1063]]],[[[-111.26555,26.1373],[-111.25999,26.12611],[-111.26094,26.11809],[-111.265,26.1163],[-111.26326,26.10614],[-111.27955,26.10649],[-111.29041,26.10089],[-111.29712,26.09858],[-111.29537,26.1034],[-111.29369,26.10054],[-111.2899,26.10163],[-111.27972,26.11127],[-111.28837,26.12034],[-111.27913,26.13535],[-111.26555,26.1373]]],[[[-111.44245,26.51716],[-111.45265,26.51502],[-111.45323,26.50898],[-111.45689,26.50588],[-111.45509,26.48805],[-111.46021,26.47942],[-111.46645,26.47852],[-111.46464,26.47493],[-111.46811,26.47267],[-111.46736,26.4674],[-111.47196,26.4595],[-111.46793,26.44087],[-111.46898,26.41247],[-111.46248,26.40185],[-111.45109,26.39303],[-111.44042,26.38999],[-111.43214,26.3797],[-111.42918,26.38387],[-111.42479,26.38099],[-111.42747,26.37688],[-111.42139,26.3728],[-111.4241,26.36987],[-111.43445,26.36972],[-111.43402,26.36246],[-111.43061,26.36218],[-111.42293,26.3494],[-111.41236,26.34636],[-111.40548,26.34831],[-111.40392,26.34224],[-111.39613,26.34089],[-111.38707,26.32353],[-111.38881,26.31524],[-111.38233,26.2994],[-111.38304,26.28064],[-111.38981,26.28106],[-111.39499,26.27667],[-111.39415,26.26606],[-111.39747,26.25482],[-111.38843,26.24346],[-111.38361,26.22364],[-111.37751,26.21586],[-111.37905,26.18835],[-111.37357,26.17876],[-111.36514,26.17493],[-111.36136,26.16756],[-111.35454,26.12828],[-111.35032,26.12589],[-111.34448,26.11133],[-111.32384,26.10031],[-111.32486,26.08433],[-111.31866,26.07587],[-111.32007,26.06685],[-111.32857,26.05863],[-111.32852,26.04857],[-111.34545,26.0292],[-111.34449,26.02144],[-111.33844,26.01485],[-111.33908,26.00758],[-111.33636,26.00516],[-111.33946,26.00441],[-111.33528,26.00308],[-111.33808,25.9993],[-111.33834,25.98758],[-111.35512,25.97],[-111.35863,25.96065],[-111.35271,25.94553],[-111.35523,25.92878],[-111.34794,25.92194],[-111.34374,25.92236],[-111.34563,25.92058],[-111.33676,25.90752],[-111.33865,25.89776],[-111.33599,25.8865],[-111.34205,25.87769],[-111.33385,25.86298],[-111.3312,25.84529],[-111.33312,25.83621],[-111.3251,25.83093],[-111.31782,25.83165],[-111.316,25.83714],[-111.30262,25.82488],[-111.29973,25.81782],[-111.29201,25.81278],[-111.29755,25.80782],[-111.30204,25.80804],[-111.29994,25.81322],[-111.30899,25.8148],[-111.30881,25.81849],[-111.30521,25.81953],[-111.30571,25.82596],[-111.31104,25.83174],[-111.31734,25.82999],[-111.31393,25.82501],[-111.31659,25.82451],[-111.31595,25.81661],[-111.31968,25.81581],[-111.31376,25.81242],[-111.31512,25.81599],[-111.31371,25.81408],[-111.31275,25.81586],[-111.31057,25.81555],[-111.31104,25.81262],[-111.30705,25.81166],[-111.31127,25.79156],[-111.30359,25.77064],[-111.28976,25.76391],[-111.27824,25.75018],[-111.26024,25.74489],[-111.25429,25.74018],[-111.24597,25.73064],[-111.24628,25.72439],[-111.24309,25.72142],[-111.23396,25.7205],[-111.23375,25.72634],[-111.2239,25.72533],[-111.217,25.70621],[-111.21183,25.70248],[-111.21601,25.69114],[-111.21021,25.67505],[-111.20418,25.67119],[-111.20655,25.66654],[-111.19991,25.65488],[-111.20123,25.63828],[-111.19811,25.63104],[-111.19533,25.631],[-111.1934,25.61347],[-111.18086,25.59736],[-111.17187,25.59501],[-111.17387,25.58928],[-111.1691,25.58557],[-111.17057,25.58342],[-111.16469,25.57326],[-111.1451,25.56557],[-111.1446,25.55516],[-111.13598,25.54238],[-111.1262,25.53688],[-111.12134,25.52819],[-111.11359,25.52468],[-111.10273,25.52411],[-111.09985,25.52876],[-111.09428,25.5253],[-111.07427,25.52511],[-111.06958,25.53109],[-111.06953,25.52664],[-111.075,25.52305],[-111.07297,25.51677],[-111.06779,25.51392],[-111.06048,25.51318],[-111.05986,25.51948],[-111.05318,25.52117],[-111.04941,25.51574],[-111.04049,25.51556],[-111.03851,25.52153],[-111.03351,25.51637],[-111.01654,25.5146],[-111.01432,25.50479],[-111.01862,25.50515],[-111.02263,25.49711],[-111.01345,25.47719],[-111.02003,25.47537],[-111.01921,25.46209],[-111.02597,25.45852],[-111.02679,25.45106],[-111.0133,25.42151],[-111.00374,25.41624],[-111.00065,25.38793],[-110.99381,25.37896],[-110.99421,25.37422],[-110.98733,25.37085],[-110.98837,25.36804],[-110.98124,25.35639],[-110.97967,25.34147],[-110.96613,25.33031],[-110.95545,25.32941],[-110.95759,25.32292],[-110.94668,25.31325],[-110.94389,25.30541],[-110.94749,25.30411],[-110.94744,25.29717],[-110.93312,25.29158],[-110.93904,25.28621],[-110.93378,25.27782],[-110.93512,25.27492],[-110.93821,25.27195],[-110.94318,25.27304],[-110.94587,25.26708],[-110.9452,25.25337],[-110.93841,25.2429],[-110.94089,25.23632],[-110.96005,25.24234],[-111.05086,25.44411],[-111.09804,25.47393],[-111.25466,25.41033],[-111.63419,25.65365],[-111.7304,26.25024],[-111.77325,26.55418],[-111.65166,26.55068],[-111.44245,26.51716]]]]}}]}