{
"type": "FeatureCollection",
"name": "04",
"crs": { "type": "name", "properties": { "name": "urn:ogc:def:crs:OGC:1.3:CRS84" } },
"features": [
{ "type": "Feature", "properties": { "code": "04008", "stateCode": "04", "municipalityCode": "008", "name": "Tenabo" }, "geometry": { "type": "Polygon", "coordinates": [ [ [ -90.37672094001033, 20.127651890058196 ], [ -90.366723420011709, 20.127552149938872 ], [ -90.360310350166799, 20.117338910445284 ], [ -90.364813140334746, 20.111524950008629 ], [ -90.306444519873409, 20.11070783029572 ], [ -90.300364880390489, 20.100500630117601 ], [ -90.300714260413827, 20.095369659981994 ], [ -90.26300952034795, 20.081233510122022 ], [ -90.266459830065955, 20.072991140283364 ], [ -90.258270340431949, 20.072080279745084 ], [ -90.235736480228951, 20.077282449770781 ], [ -90.202485199509042, 20.073183110388907 ], [ -90.201624619839691, 20.077400429923735 ], [ -90.17653403003321, 20.074589920223755 ], [ -90.179141050447711, 20.044673509998169 ], [ -90.177122400273049, 20.01128488022762 ], [ -90.160170519506224, 20.008579260247789 ], [ -90.155515779793376, 20.023245570069594 ], [ -90.131393420297059, 20.028043859786962 ], [ -90.112578229811518, 20.036433580256798 ], [ -90.087222780368691, 20.013764230346435 ], [ -90.071336799743889, 19.991321570199165 ], [ -90.042352650279255, 19.993262919858157 ], [ -90.042291980054557, 19.998849339894999 ], [ -89.999889089915555, 19.995506030163394 ], [ -90.001433770093129, 19.983019819653311 ], [ -90.020306110104698, 19.981493290021785 ], [ -90.02108637045734, 19.968251720019175 ], [ -90.00068186009517, 19.96841696958073 ], [ -90.001496820416008, 19.944385030174516 ], [ -89.991812420445456, 19.943950849855245 ], [ -89.99120142966045, 19.929472319745113 ], [ -89.996582260479329, 19.929243109705165 ], [ -89.996635829777972, 19.925732280179425 ], [ -90.008412550007165, 19.925878019895958 ], [ -90.008564739683933, 19.916392199850794 ], [ -89.999993979943824, 19.916877770173222 ], [ -89.99981954957255, 19.903581579542493 ], [ -89.993526110001071, 19.903556109840952 ], [ -89.993552819812962, 19.890109740329585 ], [ -90.007715620451819, 19.892252830099547 ], [ -90.036088719642052, 19.902903309997107 ], [ -90.035997859948722, 19.844887890441523 ], [ -90.004445430254265, 19.839774310083094 ], [ -89.996712290268476, 19.849109999660463 ], [ -89.999999949765694, 19.785144230248061 ], [ -90.019874979752871, 19.787149979788776 ], [ -90.024095340343891, 19.811385779951905 ], [ -90.055284230460714, 19.822184429614591 ], [ -90.065871429653555, 19.79104124954657 ], [ -90.109050919706164, 19.806006290289549 ], [ -90.147672779987658, 19.806860719746947 ], [ -90.146964120460154, 19.81118611010238 ], [ -90.184146680286304, 19.795956550392845 ], [ -90.205523939880493, 19.797107829614156 ], [ -90.209064349853534, 19.798972679555597 ], [ -90.182357879953372, 19.823188140226616 ], [ -90.210359830098156, 19.847479369753131 ], [ -90.235031820201883, 19.842454889947994 ], [ -90.253964150078502, 19.85403929026787 ], [ -90.235871080102058, 19.881004310075831 ], [ -90.238203919748756, 19.910072490112405 ], [ -90.258930860174814, 19.894411060170317 ], [ -90.273592029762767, 19.890531600388744 ], [ -90.297488600069798, 19.894513509827849 ], [ -90.309655880373811, 19.938608520048977 ], [ -90.345850679645508, 19.947927889735805 ], [ -90.350442279749231, 19.959915370180944 ], [ -90.379683570120093, 19.964956149621152 ], [ -90.37998945043779, 19.962034140188191 ], [ -90.388063599680976, 19.962781400343655 ], [ -90.389091909860227, 19.952690430339096 ], [ -90.430756050063877, 19.955857510357973 ], [ -90.448823679849056, 19.961562060058977 ], [ -90.451778024451272, 19.959652331102397 ], [ -90.454576142750497, 19.965001959821159 ], [ -90.452092216711819, 19.974148632206248 ], [ -90.462043122889966, 19.973691768928493 ], [ -90.470066665234413, 19.984392214008665 ], [ -90.470016693895829, 19.991644806316117 ], [ -90.47313711298591, 19.994802018273326 ], [ -90.46128320317591, 20.002647002859987 ], [ -90.462564214879592, 20.014030773814039 ], [ -90.478571511013996, 20.030972441715864 ], [ -90.47970293604115, 20.041554308951255 ], [ -90.491200175090498, 20.060992602126632 ], [ -90.485936364872103, 20.070051052400487 ], [ -90.486351079100118, 20.088500165995111 ], [ -90.48014742763813, 20.096336356348985 ], [ -90.478659185289999, 20.104661328433281 ], [ -90.481733511471504, 20.126048943428621 ], [ -90.48882508061439, 20.142429048946468 ], [ -90.438712400165571, 20.140695000318331 ], [ -90.440104950319366, 20.124739629657956 ], [ -90.4078603104563, 20.123027850171677 ], [ -90.394658110339861, 20.139409889717424 ], [ -90.37672094001033, 20.127651890058196 ] ] ] } },
{ "type": "Feature", "properties": { "code": "04005", "stateCode": "04", "municipalityCode": "005", "name": "Hecelchakán" }, "geometry": { "type": "Polygon", "coordinates": [ [ [ -90.126161150830185, 20.26772450318218 ], [ -90.092360476630247, 20.264918628074586 ], [ -90.093509986275507, 20.260965145402992 ], [ -90.088029678694269, 20.25868613680311 ], [ -90.089307418457764, 20.256086054283244 ], [ -90.068864083881053, 20.252880220023361 ], [ -90.068031457713317, 20.231777238908784 ], [ -90.061994342937055, 20.211162068558977 ], [ -90.052741474522421, 20.206166953382194 ], [ -90.041059482000165, 20.208564434901842 ], [ -90.029882480763888, 20.205579688310134 ], [ -90.030229053717619, 20.176630667577943 ], [ -90.025301323769924, 20.171352205932116 ], [ -89.997368472855413, 20.168450723610324 ], [ -89.99614222013264, 20.213072671397232 ], [ -89.980128439549517, 20.212761839708083 ], [ -89.980958478159152, 20.225106894687631 ], [ -89.96205466714521, 20.216316342984456 ], [ -89.961277962292669, 20.230863184242622 ], [ -89.935325620683486, 20.225991280732238 ], [ -89.940796550134507, 20.195792143669429 ], [ -89.965005860601408, 20.157430138019201 ], [ -89.889763558702072, 20.138829349026828 ], [ -89.902053100154276, 20.115808646685753 ], [ -89.855532070967683, 20.112753032654499 ], [ -89.858912549929613, 20.067419539898584 ], [ -89.86607851042443, 20.06247476961855 ], [ -89.868032580458518, 20.021076880049488 ], [ -89.905073030318789, 20.024075260323038 ], [ -89.909975819746464, 19.971035219897921 ], [ -89.917068950258624, 19.970630510174217 ], [ -89.917957860174624, 19.958896620126321 ], [ -89.922509769904806, 19.958536740362209 ], [ -89.922310979841384, 19.945374800276365 ], [ -89.90267824975939, 19.94523911977085 ], [ -89.904613540319204, 19.920158750250817 ], [ -90.008564739683933, 19.916392199850794 ], [ -90.008412550007165, 19.925878019895958 ], [ -89.996635829777972, 19.925732280179425 ], [ -89.996582260479329, 19.929243109705165 ], [ -89.99120142966045, 19.929472319745113 ], [ -89.991812420445456, 19.943950849855245 ], [ -90.001496820416008, 19.944385030174516 ], [ -90.00068186009517, 19.96841696958073 ], [ -90.02108637045734, 19.968251720019175 ], [ -90.020306110104698, 19.981493290021785 ], [ -90.001433770093129, 19.983019819653311 ], [ -89.999889089915555, 19.995506030163394 ], [ -90.042291980054557, 19.998849339894999 ], [ -90.042352650279255, 19.993262919858157 ], [ -90.071336799743889, 19.991321570199165 ], [ -90.087222780368691, 20.013764230346435 ], [ -90.112578229811518, 20.036433580256798 ], [ -90.131393420297059, 20.028043859786962 ], [ -90.155515779793376, 20.023245570069594 ], [ -90.160170519506224, 20.008579260247789 ], [ -90.177122400273049, 20.01128488022762 ], [ -90.179141050447711, 20.044673509998169 ], [ -90.17653403003321, 20.074589920223755 ], [ -90.201624619839691, 20.077400429923735 ], [ -90.202485199509042, 20.073183110388907 ], [ -90.235736480228951, 20.077282449770781 ], [ -90.258270340431949, 20.072080279745084 ], [ -90.266459830065955, 20.072991140283364 ], [ -90.26300952034795, 20.081233510122022 ], [ -90.300714260413827, 20.095369659981994 ], [ -90.300364880390489, 20.100500630117601 ], [ -90.306444519873409, 20.11070783029572 ], [ -90.364813140334746, 20.111524950008629 ], [ -90.360310350166799, 20.117338910445284 ], [ -90.366723420011709, 20.127552149938872 ], [ -90.37672094001033, 20.127651890058196 ], [ -90.394658110339861, 20.139409889717424 ], [ -90.4078603104563, 20.123027850171677 ], [ -90.440104950319366, 20.124739629657956 ], [ -90.438712400165571, 20.140695000318331 ], [ -90.48882508061439, 20.142429048946468 ], [ -90.493683658480734, 20.152874335324345 ], [ -90.494781875733963, 20.161725979362462 ], [ -90.488461435460124, 20.169988661573257 ], [ -90.479834735700607, 20.173428835526714 ], [ -90.477443249188028, 20.184257270858488 ], [ -90.479362035603714, 20.208030965896459 ], [ -90.479690665162622, 20.204838228182552 ], [ -90.484765191461506, 20.20380909414812 ], [ -90.486754697071135, 20.211804102273732 ], [ -90.480636274244347, 20.208560240386806 ], [ -90.482143464123112, 20.210640703767215 ], [ -90.353752200315569, 20.252808340038293 ], [ -90.35304200012277, 20.25750087980057 ], [ -90.280302980172706, 20.249334570295066 ], [ -90.277926879919534, 20.255679379678945 ], [ -90.254221249829342, 20.251317150176636 ], [ -90.254830659859635, 20.247114859982275 ], [ -90.242646889147238, 20.245643111093944 ], [ -90.241273819968356, 20.263824049633644 ], [ -90.219066479742352, 20.261083749694535 ], [ -90.217692549547294, 20.271450919862204 ], [ -90.205345450104176, 20.270751220166851 ], [ -90.210874260183786, 20.227341750282644 ], [ -90.157831919515587, 20.221888650161382 ], [ -90.155166519932891, 20.236866049765947 ], [ -90.160310939959601, 20.246995489816499 ], [ -90.157819019852028, 20.253608349946575 ], [ -90.150347480107342, 20.248774550325123 ], [ -90.134560879588506, 20.254050599956333 ], [ -90.135005830286559, 20.265161429606092 ], [ -90.126669449599476, 20.264144739998308 ], [ -90.126161150830185, 20.26772450318218 ] ] ] } },
{ "type": "Feature", "properties": { "code": "04003", "stateCode": "04", "municipalityCode": "003", "name": "Carmen" }, "geometry": { "type": "Polygon", "coordinates": [ [ [ -91.099741531595825, 19.032318490202535 ], [ -91.099596250184305, 19.028844550048834 ], [ -91.095270979999768, 19.031277879999347 ], [ -91.089190850435585, 19.019926110373383 ], [ -91.04752087984167, 18.985807690115088 ], [ -91.028957379850709, 19.017192140026566 ], [ -91.003276889732973, 18.984684490192418 ], [ -91.026128319986341, 18.968115489674513 ], [ -90.966478180236592, 18.916933770223558 ], [ -90.94427062021056, 18.94198879994488 ], [ -90.912522519931727, 18.91444640018176 ], [ -90.912086489677108, 18.917684569931346 ], [ -90.901167490106985, 18.910226279582069 ], [ -90.901855539687858, 18.905313859663487 ], [ -90.916232169625772, 18.890358170114229 ], [ -90.910549599698555, 18.878465230230123 ], [ -90.915763630136865, 18.87229754959889 ], [ -90.871227000091935, 18.832825000452758 ], [ -90.868013289641823, 18.836197749531987 ], [ -90.823744230486014, 18.83097428958785 ], [ -90.832147720333751, 18.798893080405914 ], [ -90.840021029815205, 18.799416820100305 ], [ -90.844085510122042, 18.761328980026889 ], [ -90.81083141964254, 18.758287490267922 ], [ -90.812148570250216, 18.744702910238988 ], [ -90.795428149720152, 18.742165569970958 ], [ -90.804043599751566, 18.712328479697113 ], [ -90.823007999951884, 18.714636949554155 ], [ -90.827516939745578, 18.685991339744145 ], [ -90.84701152013497, 18.688213260394129 ], [ -90.848083739979771, 18.680000219596941 ], [ -90.869347080354103, 18.681244510306467 ], [ -90.870903230195623, 18.670817580463694 ], [ -90.890595860321099, 18.676444380338619 ], [ -90.890236199882906, 18.670479660324055 ], [ -90.892550230224785, 18.670985029935327 ], [ -90.899979350022562, 18.651185429726493 ], [ -90.904023029568478, 18.621925780349805 ], [ -90.919933520342809, 18.623428780221911 ], [ -90.915873970010509, 18.653952919667368 ], [ -90.940853140317927, 18.658300460245982 ], [ -90.941794740044628, 18.654206289870363 ], [ -90.97880690960146, 18.657007509586304 ], [ -90.98193354003908, 18.637754109994955 ], [ -90.968265919839254, 18.635682999558291 ], [ -90.975297120010495, 18.586938290034578 ], [ -90.996997379842, 18.587085750187232 ], [ -90.971334659879474, 18.556891250241019 ], [ -90.986596419960279, 18.544960950346656 ], [ -90.995241799891758, 18.555189259925918 ], [ -90.985237219834659, 18.563114520046657 ], [ -90.994017750019822, 18.572992249755554 ], [ -91.013090089732259, 18.558685139573882 ], [ -90.995000720471182, 18.538870679814579 ], [ -91.001233879600917, 18.53355717029352 ], [ -91.006743950267747, 18.484080510052891 ], [ -91.029955399650632, 18.414775449562004 ], [ -91.004067140396714, 18.391429490224187 ], [ -90.9938655800281, 18.390968509623193 ], [ -90.997314890195142, 18.35823768042339 ], [ -91.015992490135176, 18.361602819655015 ], [ -91.018611169916866, 18.335106940764287 ], [ -91.068721164036461, 18.340591179359858 ], [ -91.06603614850215, 18.370031180179449 ], [ -91.096387260427093, 18.364064150009305 ], [ -91.097865570282011, 18.345162139720021 ], [ -91.083537949872294, 18.342982200060785 ], [ -91.084395459860886, 18.338016979814828 ], [ -91.10287135036846, 18.339890859646385 ], [ -91.105090520394739, 18.327545510363294 ], [ -91.111058349825143, 18.330931920186956 ], [ -91.127158020111139, 18.328268309911714 ], [ -91.124211549668544, 18.320344150006154 ], [ -91.115302890122564, 18.319312819972762 ], [ -91.116486580154188, 18.308531139689627 ], [ -91.105146320304939, 18.306757429901928 ], [ -91.108545057513567, 18.302600350847229 ], [ -91.119795374628836, 18.304130289040302 ], [ -91.133748996812329, 18.28746660192175 ], [ -91.151695134564207, 18.288349798286809 ], [ -91.156481846564887, 18.282629740646577 ], [ -91.16230593963158, 18.287022540391021 ], [ -91.174979139815292, 18.275723949927361 ], [ -91.185806850232723, 18.276914920269707 ], [ -91.190469820152742, 18.235495679992248 ], [ -91.18738809049492, 18.227670919636058 ], [ -91.263983739733874, 18.209262029697157 ], [ -91.267724509514338, 18.199911780153236 ], [ -91.246310139920951, 18.203112250157947 ], [ -91.244848749803097, 18.19421891976101 ], [ -91.252199199624584, 18.182773290386592 ], [ -91.249079060063664, 18.175156540077733 ], [ -91.250693379561966, 18.166548019619203 ], [ -91.254439350369125, 18.163581800337148 ], [ -91.251544619738652, 18.159179940335004 ], [ -91.254074619931856, 18.156121799705708 ], [ -91.238597614249116, 18.105945549888848 ], [ -91.239429049575719, 18.098838489780714 ], [ -91.282568460423704, 18.103299829859939 ], [ -91.28301523014035, 18.099166060276534 ], [ -91.287615679646777, 18.099745459707449 ], [ -91.287842690124165, 18.102431049692946 ], [ -91.299154540465722, 18.102903739652511 ], [ -91.304067350329589, 18.077978080179729 ], [ -91.312690620776806, 18.085325705746239 ], [ -91.328291057257616, 18.062804181301374 ], [ -91.347164799593543, 18.063950289741918 ], [ -91.359426419558346, 18.070372170160418 ], [ -91.367594770065239, 18.066185060179428 ], [ -91.384425350151588, 18.064065050047013 ], [ -91.389677860256526, 18.0664709096244 ], [ -91.392947000279619, 18.075096919791015 ], [ -91.398591509704659, 18.080005020040584 ], [ -91.433366230358814, 18.082097819721241 ], [ -91.438280320058766, 18.084481049887764 ], [ -91.444179770138376, 18.095075739703411 ], [ -91.449278970421659, 18.094737430355746 ], [ -91.465321920175981, 18.104159289664651 ], [ -91.47016182034541, 18.103621800302037 ], [ -91.477323030201418, 18.112795459867311 ], [ -91.484353020073812, 18.112757800097302 ], [ -91.488867910019906, 18.118075029574189 ], [ -91.495047379762099, 18.115352949817087 ], [ -91.50403590981324, 18.116459140127475 ], [ -91.501942919952413, 18.122349059670775 ], [ -91.504828719691304, 18.123399889562847 ], [ -91.502660859559668, 18.126257549919828 ], [ -91.505732119659484, 18.130002710057997 ], [ -91.516532180243814, 18.130485250463337 ], [ -91.515212850316843, 18.154952480030474 ], [ -91.501863539999277, 18.155568720151894 ], [ -91.507276689821694, 18.170476289755165 ], [ -91.515832570396725, 18.169876020299874 ], [ -91.520120550278278, 18.160513949812319 ], [ -91.524522769786188, 18.159897110206369 ], [ -91.534505140278327, 18.146174370086946 ], [ -91.552761060371523, 18.158176230247403 ], [ -91.580123310038104, 18.158052949640034 ], [ -91.582729260435755, 18.152461400062773 ], [ -91.572199120077485, 18.142015140424586 ], [ -91.587398090045056, 18.129182629866431 ], [ -91.591999679826742, 18.130501710288538 ], [ -91.595346939561551, 18.125175079577083 ], [ -91.589459539995545, 18.108423279973575 ], [ -91.603224180262274, 18.107744150406056 ], [ -91.60950468032074, 18.098438399877203 ], [ -91.610303370064187, 18.0918023696067 ], [ -91.606169289612154, 18.083975660012499 ], [ -91.607578540272698, 18.074505280211483 ], [ -91.619294910362399, 18.060803690440874 ], [ -91.612269020422104, 18.045020980022493 ], [ -91.619265859788868, 18.017511059616933 ], [ -91.615821140108451, 17.989084060425224 ], [ -91.619989650093686, 17.976440290108403 ], [ -91.619773379553038, 17.957574109914422 ], [ -91.624740379606962, 17.94907184975699 ], [ -91.619624880087173, 17.919189620252965 ], [ -91.612713599743259, 17.912919029933139 ], [ -91.633089220256778, 17.905016030296927 ], [ -91.629101419554189, 17.897127889637279 ], [ -91.638805939547723, 17.873953779763266 ], [ -91.71282722971435, 17.918927219979661 ], [ -91.712404060013938, 17.921642859871469 ], [ -91.725101059571998, 17.924494619795951 ], [ -91.738693850165163, 17.936182520075246 ], [ -91.717743249754463, 17.96079778022423 ], [ -91.750775539538935, 17.99454974036594 ], [ -91.753466309813589, 18.009953520429239 ], [ -91.658062880396542, 18.017340340391893 ], [ -91.657283830165127, 18.023332049663406 ], [ -91.69992872007505, 18.017474979741877 ], [ -91.726894569808778, 18.018448719756226 ], [ -91.751581540044, 18.033226719964368 ], [ -91.760695969853785, 18.056074259686898 ], [ -91.732423619571861, 18.063365289926097 ], [ -91.732386880294911, 18.096189750348341 ], [ -91.75403242033974, 18.150290889732073 ], [ -91.733917819761899, 18.154862049726606 ], [ -91.734283079810737, 18.164763089973469 ], [ -91.736434519775884, 18.168095379614044 ], [ -91.740277509663258, 18.165438179593174 ], [ -91.752283429949614, 18.185052769895876 ], [ -91.771395629992995, 18.170157969865297 ], [ -91.763525230441047, 18.112032550143713 ], [ -91.772976170427341, 18.111162259974513 ], [ -91.777918979584527, 18.174557919907915 ], [ -91.804234450392542, 18.193635340322462 ], [ -91.805254370339696, 18.203921119749371 ], [ -91.801640400452044, 18.214725539646221 ], [ -91.818483540236755, 18.23139351024378 ], [ -91.814262279593734, 18.237399600316053 ], [ -91.820070379922541, 18.241879709751956 ], [ -91.822352509886315, 18.254719940184877 ], [ -91.830117290417178, 18.263056619825701 ], [ -91.830860290331643, 18.28539988970903 ], [ -91.834658709786794, 18.295217249696226 ], [ -91.833806599769403, 18.300185089714098 ], [ -91.828534719531618, 18.303519290381679 ], [ -91.833495179789125, 18.313663200075695 ], [ -91.8264290298752, 18.316661289766053 ], [ -91.826770849599953, 18.323075080137237 ], [ -91.828917049569498, 18.325000999953463 ], [ -91.829411059677895, 18.321179969767002 ], [ -91.835752399888193, 18.321752579847914 ], [ -91.846320399739156, 18.328151150136367 ], [ -91.896659429634909, 18.303017630111501 ], [ -91.906311199649906, 18.289496549869362 ], [ -91.927736940396741, 18.31489371030316 ], [ -91.928439649708437, 18.318469970380821 ], [ -91.906441420312262, 18.333572570273297 ], [ -91.885111419886883, 18.332499150367855 ], [ -91.861321350402449, 18.350052710255159 ], [ -91.864190349947165, 18.358039259813424 ], [ -91.855477739675919, 18.367437119688041 ], [ -91.857304650002575, 18.379925520249198 ], [ -91.852236539678856, 18.379048540192297 ], [ -91.85082995006519, 18.382194080228505 ], [ -91.854917340273445, 18.38432065991379 ], [ -91.858253400168906, 18.394382979814143 ], [ -91.837672820199444, 18.401194419701589 ], [ -91.847194140292274, 18.40038148029695 ], [ -91.850005420060569, 18.405010690253373 ], [ -91.834894629996114, 18.419704480229637 ], [ -91.828385179669567, 18.43651642976792 ], [ -91.8253890600229, 18.435852169747893 ], [ -91.828922090410444, 18.443440060305544 ], [ -91.824277770187848, 18.447304830026429 ], [ -91.813451149721459, 18.44307830972723 ], [ -91.797117080402259, 18.475632030002025 ], [ -91.792832799959839, 18.475737060339849 ], [ -91.788278549939946, 18.468803660240585 ], [ -91.784463340029205, 18.472568370303637 ], [ -91.785910580253343, 18.476995310228471 ], [ -91.773365290295203, 18.488562200089522 ], [ -91.799136419531266, 18.493774650049701 ], [ -91.808352079694728, 18.501493149971754 ], [ -91.82142996956766, 18.497759709604466 ], [ -91.838101229983849, 18.505110979908657 ], [ -91.841685579690477, 18.503026690147404 ], [ -91.851406909643444, 18.50551953986027 ], [ -91.85308616994719, 18.504712879745881 ], [ -91.859836249738223, 18.504067400221924 ], [ -91.863211740340532, 18.498650170212809 ], [ -91.878423429675976, 18.504067680203029 ], [ -91.879447109535008, 18.512494230138067 ], [ -91.871678289818476, 18.517820419718579 ], [ -91.8626198900715, 18.511903630056782 ], [ -91.859269579568718, 18.505548029605119 ], [ -91.861797249615606, 18.50508110985368 ], [ -91.861028340187389, 18.50350985964501 ], [ -91.85951499995862, 18.504898800240177 ], [ -91.851997689924943, 18.505376660175546 ], [ -91.851612689905167, 18.521232879683726 ], [ -91.856513859892786, 18.522248320338964 ], [ -91.859016060254064, 18.527638149754697 ], [ -91.863751230139954, 18.527401890292388 ], [ -91.897950970209081, 18.544999549562469 ], [ -91.918506770064326, 18.536913049810803 ], [ -91.927023909733137, 18.539059509671784 ], [ -91.936073780431286, 18.531061650428583 ], [ -91.93802563023452, 18.533299820405141 ], [ -91.94397256981452, 18.53150668964933 ], [ -91.950839849725753, 18.523172550291118 ], [ -91.959645380255353, 18.521545350428902 ], [ -91.96188922973667, 18.514092850212482 ], [ -91.972928369537939, 18.515228690004111 ], [ -91.97558622998416, 18.509631379980039 ], [ -91.980353000413416, 18.514454230046802 ], [ -91.994228680265905, 18.515199600398677 ], [ -92.0088843103252, 18.523222050093402 ], [ -92.010552689574283, 18.53670677031532 ], [ -92.013212829761613, 18.537867919875147 ], [ -92.014537079757972, 18.53084270961935 ], [ -92.022599419766109, 18.530862370195603 ], [ -92.027876260389547, 18.525508289677756 ], [ -92.03549357042067, 18.531841119940278 ], [ -92.082585459704703, 18.540790340272427 ], [ -92.077292219928339, 18.550613399966849 ], [ -92.080403689723099, 18.561981829774751 ], [ -92.076463849593409, 18.56655517035286 ], [ -92.079481910462249, 18.572699419968913 ], [ -92.073992169923898, 18.572813550194073 ], [ -92.070085880053952, 18.578606179611626 ], [ -92.076902549545736, 18.589161889800444 ], [ -92.101800280128032, 18.574802659784616 ], [ -92.135429169929949, 18.579142089694393 ], [ -92.142903679829388, 18.574876449719078 ], [ -92.141924180006285, 18.563707180201288 ], [ -92.144813050000238, 18.560021030415665 ], [ -92.164034219707588, 18.546773970425072 ], [ -92.181321150411634, 18.544602919939909 ], [ -92.207637519534956, 18.547895459868165 ], [ -92.220384280305296, 18.511930179713005 ], [ -92.204852219859205, 18.50000014005095 ], [ -92.176147740178806, 18.458233219952245 ], [ -92.31028748032135, 18.455579370194908 ], [ -92.310555689739687, 18.460528629873497 ], [ -92.321552280290192, 18.467527680012594 ], [ -92.322528939785386, 18.473080889860135 ], [ -92.348006449523737, 18.443783370147617 ], [ -92.353801949765767, 18.442294399652642 ], [ -92.3607088802909, 18.446821120004614 ], [ -92.359657829620019, 18.456946320284416 ], [ -92.365493570462021, 18.464622679760385 ], [ -92.38481722970586, 18.478144110066484 ], [ -92.401970910125442, 18.47953419975893 ], [ -92.414051720377699, 18.487291749935878 ], [ -92.426431029638024, 18.514973569703848 ], [ -92.423469750053215, 18.532235820431115 ], [ -92.426229649986482, 18.557041450367649 ], [ -92.449221150198383, 18.594224829635941 ], [ -92.451944250222127, 18.60351522036763 ], [ -92.465745049628708, 18.61656341985789 ], [ -92.465072750230718, 18.634587850359249 ], [ -92.468790020074124, 18.65096495034167 ], [ -92.392730617357913, 18.665606061405427 ], [ -92.146945054813614, 18.688964793391573 ], [ -92.064360546219604, 18.693123956678768 ], [ -92.034107231554799, 18.698119564368383 ], [ -91.97838404050357, 18.699460083597309 ], [ -91.951223264806984, 18.693157296482852 ], [ -91.926994320750225, 18.666800646531371 ], [ -91.914917467220249, 18.641991713573645 ], [ -91.900876268018891, 18.630159843749666 ], [ -91.878534867716596, 18.617742177275137 ], [ -91.856686166147043, 18.612631581952144 ], [ -91.825873913516091, 18.630197690359378 ], [ -91.831180018472509, 18.631034716164177 ], [ -91.843665672606193, 18.641768162359792 ], [ -91.844002468310222, 18.64706974023666 ], [ -91.846284195352595, 18.644330123496502 ], [ -91.848011579626984, 18.647246163631415 ], [ -91.850198233211856, 18.646053485732413 ], [ -91.854044841361869, 18.647280395652572 ], [ -91.848283484887105, 18.647181306672334 ], [ -91.852868011017222, 18.653510587802398 ], [ -91.855102200103545, 18.651162919453306 ], [ -91.852284763924857, 18.654692594492722 ], [ -91.841340542924357, 18.664257653045564 ], [ -91.793697642171125, 18.667106157894285 ], [ -91.743560920124523, 18.67906771809286 ], [ -91.700859848447237, 18.698576870941984 ], [ -91.696927915505739, 18.706785536600357 ], [ -91.662471574845199, 18.716994597945522 ], [ -91.639306893185349, 18.732935814320086 ], [ -91.557809166502267, 18.765545148534404 ], [ -91.534359825276425, 18.779765005502245 ], [ -91.530657962806231, 18.780096918529392 ], [ -91.52847130981857, 18.768985897665591 ], [ -91.522398592545755, 18.765615877734543 ], [ -91.498261676027198, 18.78163798941754 ], [ -91.500710618058307, 18.785857450102956 ], [ -91.497471395096255, 18.791964961055651 ], [ -91.449954129075152, 18.830490399005871 ], [ -91.402772001935261, 18.884598075013187 ], [ -91.386407259039245, 18.896691686297348 ], [ -91.329448911079353, 18.928760871624473 ], [ -91.227283778915805, 18.972194957818889 ], [ -91.186958458030134, 18.992648210152495 ], [ -91.185592352121304, 18.995757966424318 ], [ -91.183073720249226, 18.991926249641349 ], [ -91.176574399968487, 18.996796509867529 ], [ -91.163742849862828, 18.999014889893601 ], [ -91.162666460054993, 18.993047749918503 ], [ -91.154553569591442, 18.992646320325594 ], [ -91.139741170295139, 19.002198660072569 ], [ -91.141088920127913, 19.010335260203465 ], [ -91.12359633979645, 19.014716820305587 ], [ -91.11321338035512, 19.028835079702677 ], [ -91.099741531595825, 19.032318490202535 ] ] ] } },
{ "type": "Feature", "properties": { "code": "04012", "stateCode": "04", "municipalityCode": "012", "name": "Seybaplaya" }, "geometry": { "type": "Polygon", "coordinates": [ [ [ -90.614660429712075, 19.716717575255853 ], [ -90.621548585506261, 19.680379501445159 ], [ -90.578567980484792, 19.674959589993414 ], [ -90.578546719602301, 19.657371601197468 ], [ -90.561232248991388, 19.659454150003448 ], [ -90.566035509706623, 19.65073308110221 ], [ -90.557138841801617, 19.648855877518923 ], [ -90.561974972053747, 19.636019607968411 ], [ -90.555702317164318, 19.629146742401478 ], [ -90.55095155457667, 19.608946011555112 ], [ -90.567113872974062, 19.599129113477083 ], [ -90.565939963884119, 19.5696421478034 ], [ -90.589627265589769, 19.569959943376343 ], [ -90.590564091727842, 19.548250348916383 ], [ -90.594536800445951, 19.539590264593897 ], [ -90.614460338407326, 19.539640334104167 ], [ -90.609348459531972, 19.531970568140668 ], [ -90.603488974899463, 19.498046911062097 ], [ -90.638025677620973, 19.49103569322175 ], [ -90.638469189615293, 19.486892017907568 ], [ -90.698693897129999, 19.494823951403124 ], [ -90.698492888102848, 19.49864835368896 ], [ -90.703942416835957, 19.49962059430694 ], [ -90.708156241101335, 19.50556667323686 ], [ -90.710724957892822, 19.514065430690895 ], [ -90.708531269588008, 19.522913918362296 ], [ -90.711101479574509, 19.527526211369747 ], [ -90.704030862203993, 19.552616747019847 ], [ -90.70634912075802, 19.560843261270776 ], [ -90.711916222955153, 19.562286184089849 ], [ -90.69035827339718, 19.604266697645564 ], [ -90.686226364542023, 19.631905137648168 ], [ -90.689664714039225, 19.639612191037394 ], [ -90.695330488971294, 19.635920638924485 ], [ -90.690420025141947, 19.640713365916291 ], [ -90.693870855596771, 19.645560700939765 ], [ -90.707435655042175, 19.649155596314536 ], [ -90.706272529670755, 19.654393205632182 ], [ -90.709676159913641, 19.649670791990946 ], [ -90.710555518150073, 19.654402158981949 ], [ -90.737674775369399, 19.654755813192843 ], [ -90.737974251948188, 19.652213064984572 ], [ -90.74368082812525, 19.655088861262758 ], [ -90.706360379385714, 19.65466733957545 ], [ -90.704092270284463, 19.666743068175286 ], [ -90.707190215881823, 19.671333680942233 ], [ -90.7123014638521, 19.671827445395781 ], [ -90.707114475782021, 19.672018561333161 ], [ -90.706977656306023, 19.675694835833134 ], [ -90.689719974545127, 19.692274515500895 ], [ -90.669677526817537, 19.719972202848933 ], [ -90.631596321203446, 19.704245972891989 ], [ -90.614660429712075, 19.716717575255853 ] ] ] } },
{ "type": "Feature", "properties": { "code": "04001", "stateCode": "04", "municipalityCode": "001", "name": "Calkiní" }, "geometry": { "type": "MultiPolygon", "coordinates": [ [ [ [ -90.496309710375797, 20.343711230331351 ], [ -90.498831879976336, 20.3430671701168 ], [ -90.498786259915562, 20.344107229649417 ], [ -90.496309710375797, 20.343711230331351 ] ] ], [ [ [ -90.464760689816856, 20.644212429893685 ], [ -90.474743970208863, 20.610746340392705 ], [ -90.470908169893448, 20.598392419710056 ], [ -90.474350449700935, 20.599712580399739 ], [ -90.478251169739266, 20.618260539799085 ], [ -90.469653709574771, 20.653066030410393 ], [ -90.464760689816856, 20.644212429893685 ] ] ], [ [ [ -90.461584979790217, 20.655516259706438 ], [ -90.462390859951569, 20.639380800019126 ], [ -90.462981679558794, 20.647546199979079 ], [ -90.470408540153585, 20.656105740067712 ], [ -90.46944539970643, 20.658428660280791 ], [ -90.461584979790217, 20.655516259706438 ] ] ], [ [ [ -90.458603119516368, 20.693744320321294 ], [ -90.451239279564959, 20.673915970181376 ], [ -90.454868580365968, 20.676588979583613 ], [ -90.456862480320638, 20.674530850081229 ], [ -90.45180032019546, 20.670077149984248 ], [ -90.454098940179406, 20.655891629807066 ], [ -90.465707079775555, 20.667367889597259 ], [ -90.46680014038202, 20.675650969642966 ], [ -90.458603119516368, 20.693744320321294 ] ] ], [ [ [ -90.379356999588566, 20.848327289654645 ], [ -90.386648780203132, 20.555585800186332 ], [ -90.341138110092572, 20.553701119633885 ], [ -90.335236110451746, 20.576347709758746 ], [ -90.33523610988351, 20.541312309971708 ], [ -90.22924097030365, 20.543562889921418 ], [ -90.23250803027463, 20.519894049891594 ], [ -90.223766654488443, 20.519164969160784 ], [ -90.234207990094006, 20.47046661936945 ], [ -90.18478790015412, 20.46104613910806 ], [ -90.186297570053696, 20.436932319025779 ], [ -90.160514820805162, 20.441862769368239 ], [ -90.132460530394638, 20.439655168967473 ], [ -90.13157125026342, 20.443077579306834 ], [ -90.100973511808832, 20.425251769773705 ], [ -90.067210651853642, 20.425225889258879 ], [ -90.066018560023565, 20.433975478762626 ], [ -90.057098760051574, 20.432965879606709 ], [ -90.050047679970973, 20.456028568827005 ], [ -90.04168845008877, 20.46645149002326 ], [ -90.020341489741639, 20.47708305981369 ], [ -90.005624720381988, 20.477367200479083 ], [ -90.004173680051437, 20.487021880063196 ], [ -89.837963880093781, 20.287175880222652 ], [ -89.872382309929421, 20.287628090379481 ], [ -89.87479185457488, 20.262253710557101 ], [ -89.929584012984435, 20.28232355437239 ], [ -89.976730354956629, 20.314470433586475 ], [ -89.976734425631747, 20.307476028463842 ], [ -89.989691370127389, 20.307700060297901 ], [ -89.989067399899938, 20.335783248596034 ], [ -89.993025775833516, 20.337975623457805 ], [ -90.080317746218086, 20.346930287605876 ], [ -90.087062351830042, 20.315957634241702 ], [ -90.091028823828466, 20.316260486578212 ], [ -90.099649103117784, 20.309061300946222 ], [ -90.109565417895325, 20.276871873611952 ], [ -90.121412923660316, 20.27858662691342 ], [ -90.122455086165004, 20.267422874254816 ], [ -90.12618814017388, 20.267726630214458 ], [ -90.12666944959949, 20.264144739998343 ], [ -90.135005830286588, 20.265161429606128 ], [ -90.134560879588534, 20.25405059995639 ], [ -90.150347480107371, 20.248774550325169 ], [ -90.157819019852042, 20.253608349946607 ], [ -90.160310939959629, 20.246995489816516 ], [ -90.155166519932919, 20.236866049766 ], [ -90.15783191951563, 20.221888650161432 ], [ -90.210874260183814, 20.227341750282644 ], [ -90.205345450104204, 20.2707512201669 ], [ -90.217692549547309, 20.271450919862261 ], [ -90.219066479742381, 20.261083749694535 ], [ -90.24127381996837, 20.26382404963368 ], [ -90.242646889147267, 20.24564311109398 ], [ -90.254830659859678, 20.247114859982297 ], [ -90.254221249829371, 20.251317150176686 ], [ -90.277926879919562, 20.25567937967898 ], [ -90.280302980172749, 20.249334570295115 ], [ -90.353042000122798, 20.257500879800602 ], [ -90.353752200315583, 20.252808340038325 ], [ -90.481993199679053, 20.2105671101483 ], [ -90.489070922832056, 20.215574147537964 ], [ -90.486503295090245, 20.221632694486573 ], [ -90.492121190341209, 20.272258099410429 ], [ -90.488615060978574, 20.300167988277646 ], [ -90.492259595598313, 20.311321790336596 ], [ -90.488793677775149, 20.330857906727854 ], [ -90.496683959316513, 20.340921772913585 ], [ -90.488002507650876, 20.346764604382237 ], [ -90.493389016332515, 20.34901617043619 ], [ -90.482864064151471, 20.374512099714337 ], [ -90.490570630128261, 20.401583064210669 ], [ -90.48990628136788, 20.405260757610538 ], [ -90.486153779027632, 20.40629691925874 ], [ -90.492656580705273, 20.405810459624444 ], [ -90.492379317820678, 20.421883453224932 ], [ -90.496494668721155, 20.429170891963864 ], [ -90.496305747182262, 20.434820050785852 ], [ -90.491620586975145, 20.438990651233809 ], [ -90.492657019470272, 20.447544229116026 ], [ -90.495868459052318, 20.455387010495937 ], [ -90.499026460917008, 20.453609624128305 ], [ -90.50071529000229, 20.455799322337484 ], [ -90.502616478697121, 20.464120298050219 ], [ -90.49822124934451, 20.469211121760964 ], [ -90.485497043510406, 20.462865060409527 ], [ -90.474983981426078, 20.47058223907192 ], [ -90.475882228791335, 20.473580360008828 ], [ -90.482372212848119, 20.470177732367326 ], [ -90.493799570340641, 20.479320819329374 ], [ -90.502377525533205, 20.472045611680123 ], [ -90.502537463460158, 20.488761255169905 ], [ -90.499439285284808, 20.493744411779073 ], [ -90.502004465284983, 20.493308398537057 ], [ -90.502198722725069, 20.498413371785173 ], [ -90.482385891921169, 20.557195270362342 ], [ -90.464486959374895, 20.584760617315919 ], [ -90.462479802570414, 20.598913409355028 ], [ -90.457638544215527, 20.603860299155823 ], [ -90.457096523854389, 20.611025770831343 ], [ -90.453084760005027, 20.61328864519119 ], [ -90.456663467387926, 20.617345624093485 ], [ -90.448173543630332, 20.633775795954747 ], [ -90.44555137551518, 20.673964892656013 ], [ -90.441488206364639, 20.684792630740386 ], [ -90.443320617312011, 20.719188310755975 ], [ -90.448041467319243, 20.715359753149112 ], [ -90.453200263714322, 20.696050538918708 ], [ -90.452546720075972, 20.685732633369415 ], [ -90.454878838911426, 20.689581033165879 ], [ -90.454013127989768, 20.703311605270329 ], [ -90.448505925312816, 20.716276611607306 ], [ -90.433886673208647, 20.728178248403658 ], [ -90.430455490590447, 20.737434036883862 ], [ -90.431171702856673, 20.746580684684901 ], [ -90.423798184289339, 20.74637450685184 ], [ -90.414416734055393, 20.75420388136439 ], [ -90.407478339272615, 20.768274353154759 ], [ -90.406830245563526, 20.776360479738383 ], [ -90.414924383944765, 20.775936562341808 ], [ -90.415398475618844, 20.816896877679543 ], [ -90.40422053031034, 20.839767632816063 ], [ -90.404524348856853, 20.846763581088414 ], [ -90.379356999588566, 20.848327289654645 ] ] ] ] } },
{ "type": "Feature", "properties": { "code": "04010", "stateCode": "04", "municipalityCode": "010", "name": "Calakmul" }, "geometry": { "type": "Polygon", "coordinates": [ [ [ -89.480549480387111, 19.152645580042964 ], [ -89.477120770095112, 18.952231460403809 ], [ -89.369032550046299, 18.957082540150143 ], [ -89.301083709756497, 18.953269979850543 ], [ -89.233496770180764, 18.956480000461966 ], [ -89.235959120077922, 18.927028820320992 ], [ -89.228911879743634, 18.872962349525476 ], [ -89.148601549794236, 18.8773070597409 ], [ -89.144381850486724, 18.755918739857872 ], [ -89.155742249561385, 18.753114749966798 ], [ -89.151313629761844, 18.724021259623385 ], [ -89.150237819659694, 18.451059400339815 ], [ -89.125490180335376, 18.450625419604542 ], [ -89.121229199889939, 18.385849629781326 ], [ -89.138214059980669, 18.385543890042076 ], [ -89.132359539731539, 18.293402649845746 ], [ -89.151673660454875, 18.293562630021224 ], [ -89.158058679998419, 18.221326979728097 ], [ -89.142872629877886, 18.224163829698849 ], [ -89.143065970414355, 18.145819600276845 ], [ -89.200236650208652, 18.144629340466501 ], [ -89.202457779954585, 18.083276219814589 ], [ -89.14438285996755, 18.082442939944542 ], [ -89.144753540115246, 18.057699079972846 ], [ -89.163360690481028, 18.057885119714808 ], [ -89.16300383009883, 18.018517310312504 ], [ -89.20673894034968, 18.021079949709588 ], [ -89.207414280364446, 17.992648600310542 ], [ -89.205872050232784, 17.954099719691662 ], [ -89.152170090332973, 17.953609979967919 ], [ -89.151713849571138, 17.815614250243161 ], [ -90.245499858291865, 17.815786320621051 ], [ -90.235544535820821, 18.105040259489691 ], [ -90.236703227833402, 18.167055509684079 ], [ -90.248812142879331, 18.16692636907019 ], [ -90.248523139968682, 18.193445830226146 ], [ -90.082090450226374, 18.198803229751107 ], [ -90.080088650280601, 18.230148889626381 ], [ -90.077614519995635, 18.230113599920735 ], [ -90.074035229597627, 18.391733769970312 ], [ -90.095633919931785, 18.392345630167075 ], [ -90.0879412503227, 18.469189149955579 ], [ -90.148294600125752, 18.465769179954645 ], [ -90.146016079591817, 18.477971570120459 ], [ -90.166854910314669, 18.476708120031002 ], [ -90.162275110082817, 18.512008879871662 ], [ -90.1729436604478, 18.510943509615476 ], [ -90.172258340290583, 18.558905400265807 ], [ -90.201410879758996, 18.559602349748346 ], [ -90.196671140014644, 18.588639199602227 ], [ -90.207754050310001, 18.590683080091242 ], [ -90.198019619670688, 18.640758320422457 ], [ -90.177973149764242, 18.637949339572604 ], [ -90.17468054034542, 18.669778949674434 ], [ -90.141635739599067, 18.66667149038593 ], [ -90.138924170189696, 18.690454089994116 ], [ -90.163829580311599, 18.692586650256036 ], [ -90.160640370130992, 18.729964480240891 ], [ -90.120929169566466, 18.726296860122705 ], [ -90.12208591973581, 18.71610257032328 ], [ -90.067762780458395, 18.710441289609701 ], [ -90.037627200444945, 18.960895059689264 ], [ -90.06300270961377, 18.963955620078835 ], [ -90.063151850261036, 18.996040579727119 ], [ -90.163223489979018, 18.998031479912971 ], [ -90.160719880298871, 19.001591320137095 ], [ -90.161428780287878, 19.016899200284701 ], [ -90.156726460109155, 19.016773570430281 ], [ -90.156526740108362, 19.049236170145825 ], [ -89.996114019899437, 19.023530579874333 ], [ -90.006950059704664, 19.053413679791394 ], [ -89.929661370052159, 19.028661220289592 ], [ -89.929821720492711, 19.024767259758264 ], [ -89.777548979767545, 19.031832920047229 ], [ -89.772274479774936, 19.064831249838971 ], [ -89.588109909544272, 19.059997200236801 ], [ -89.575712260390304, 19.162022539642901 ], [ -89.480549480387111, 19.152645580042964 ] ] ] } },
{ "type": "Feature", "properties": { "code": "04006", "stateCode": "04", "municipalityCode": "006", "name": "Hopelchén" }, "geometry": { "type": "Polygon", "coordinates": [ [ [ -89.802505279482034, 20.201605080952099 ], [ -89.802870859953075, 20.164906602145983 ], [ -89.793974780132558, 20.136171941562786 ], [ -89.748474169710349, 20.179269720789573 ], [ -89.598703889618818, 19.998197379589328 ], [ -89.604670078716339, 19.938284969463965 ], [ -89.595841749412145, 19.9374220496662 ], [ -89.597445880236265, 19.921122340897053 ], [ -89.586810339795463, 19.92046002978126 ], [ -89.587499749731109, 19.874420050004268 ], [ -89.571757510390796, 19.852955289853341 ], [ -89.577429859991796, 19.853508860073198 ], [ -89.536130089638675, 19.797458030419232 ], [ -89.525672369875537, 19.77555464988 ], [ -89.475909460316572, 19.771220201300292 ], [ -89.47914943037388, 19.740645550245254 ], [ -89.491661820350174, 19.742228450176231 ], [ -89.477220080169204, 19.711054950231645 ], [ -89.468295480260963, 19.700161290127937 ], [ -89.448112989982405, 19.698353510791684 ], [ -89.412478519616371, 19.64937628962549 ], [ -89.146666850265689, 19.423861650160493 ], [ -89.14695143021207, 19.133156660062397 ], [ -89.135819780114588, 19.132372659872836 ], [ -89.147121750324644, 18.995045579877399 ], [ -89.148601549794236, 18.8773070597409 ], [ -89.228911879743634, 18.872962349525476 ], [ -89.235959120077922, 18.927028820320992 ], [ -89.233496770180764, 18.956480000461966 ], [ -89.301083709756497, 18.953269979850543 ], [ -89.369032550046299, 18.957082540150143 ], [ -89.477120770095112, 18.952231460403809 ], [ -89.480549480387111, 19.152645580042964 ], [ -89.575712260390304, 19.162022539642901 ], [ -89.588109909544272, 19.059997200236801 ], [ -89.772274479774936, 19.064831249838971 ], [ -89.777548979767545, 19.031832920047229 ], [ -89.929821720492711, 19.024767259758264 ], [ -89.922057369818603, 19.216294430028238 ], [ -89.912776339838288, 19.295848420264729 ], [ -89.865258770211256, 19.293935250313311 ], [ -89.861138660177858, 19.372910579742587 ], [ -89.864408750110826, 19.411208490134321 ], [ -89.923783550061657, 19.40511148991239 ], [ -89.965870050017728, 19.425907879829211 ], [ -89.963966980134032, 19.429500569980533 ], [ -89.970718030221875, 19.434698919881505 ], [ -89.968794309915637, 19.439814880033087 ], [ -89.979478800160777, 19.446769739754693 ], [ -89.981976850285989, 19.46186866026817 ], [ -89.990424780350182, 19.463407489874815 ], [ -89.988846750444367, 19.474358119835333 ], [ -89.980524200361884, 19.471148320371356 ], [ -89.985256780350085, 19.503390489961792 ], [ -89.957095310288423, 19.507225549597745 ], [ -89.949961629543182, 19.536175980042749 ], [ -89.985703849890427, 19.548537080000173 ], [ -89.992534970284979, 19.547675219806607 ], [ -89.998423290390534, 19.601532680108253 ], [ -90.001924860165829, 19.602044280290926 ], [ -90.010122430171663, 19.632159830255908 ], [ -89.98700330960223, 19.640150030305758 ], [ -89.983446309710303, 19.66941425966726 ], [ -89.992643890241141, 19.670388450179651 ], [ -89.990517080310568, 19.675219519747746 ], [ -90.003639320314903, 19.676795170113103 ], [ -90.004027180211068, 19.684120779955315 ], [ -90.012087720155407, 19.6868079696998 ], [ -90.005886369882603, 19.693860879928483 ], [ -90.008970379686801, 19.693945909794468 ], [ -90.034798949876105, 19.665847540374525 ], [ -90.070605940330594, 19.67668323011117 ], [ -90.085669570466564, 19.677723659914882 ], [ -90.061184320174405, 19.726781689712261 ], [ -90.057656660213468, 19.724399170409608 ], [ -90.031293850318434, 19.774357259779265 ], [ -90.051806059710586, 19.78912591989809 ], [ -90.065871429653555, 19.79104124954657 ], [ -90.055284230460714, 19.822184429614591 ], [ -90.024095340343891, 19.811385779951905 ], [ -90.019874979752871, 19.787149979788776 ], [ -89.999999949765694, 19.785144230248061 ], [ -89.996712290268476, 19.849109999660463 ], [ -90.004445430254265, 19.839774310083094 ], [ -90.035997859948722, 19.844887890441523 ], [ -90.036088719642052, 19.902903309997107 ], [ -90.007715620451819, 19.892252830099547 ], [ -89.993552819812962, 19.890109740329585 ], [ -89.993526110001071, 19.903556109840952 ], [ -89.99981954957255, 19.903581579542493 ], [ -89.999993979943824, 19.916877770173222 ], [ -89.904613540319204, 19.920158750250817 ], [ -89.90267824975939, 19.94523911977085 ], [ -89.922310979841384, 19.945374800276365 ], [ -89.922509769904806, 19.958536740362209 ], [ -89.917957860174624, 19.958896620126321 ], [ -89.917068950258624, 19.970630510174217 ], [ -89.909975819746464, 19.971035219897921 ], [ -89.905073030318789, 20.024075260323038 ], [ -89.868032580458518, 20.021076880049488 ], [ -89.86607851042443, 20.06247476961855 ], [ -89.858912549929613, 20.067419539898584 ], [ -89.843453154551369, 20.209275059169162 ], [ -89.802505279482034, 20.201605080952099 ] ] ] } },
{ "type": "Feature", "properties": { "code": "04011", "stateCode": "04", "municipalityCode": "011", "name": "Candelaria" }, "geometry": { "type": "Polygon", "coordinates": [ [ [ -90.437710776268645, 18.469125220106175 ], [ -90.427260733172687, 18.197243569453914 ], [ -90.283636048080865, 18.198721850290458 ], [ -90.283034623844785, 18.166453740308171 ], [ -90.236703227833402, 18.167055509684079 ], [ -90.235544535820821, 18.105040259489691 ], [ -90.245499858291865, 17.815786320621051 ], [ -90.360595780075727, 17.81287116964138 ], [ -90.586322798761373, 17.816130139826235 ], [ -90.987639503886498, 17.815473450333002 ], [ -90.987662546715811, 17.87535655019763 ], [ -90.995637364186152, 17.875489459738883 ], [ -90.995506414756065, 17.90215664960883 ], [ -90.987665997539665, 17.901350679500535 ], [ -90.987951717174866, 17.962545050108119 ], [ -91.120200304198889, 17.963375259495837 ], [ -91.113580647264399, 17.975850481027972 ], [ -91.13066914479603, 17.982250198711498 ], [ -91.133182256861204, 17.95800972059434 ], [ -91.151122964642497, 17.962673449961702 ], [ -91.144726736635775, 17.975159860960794 ], [ -91.172604856069057, 17.978049199188902 ], [ -91.185607844835062, 17.972950169913467 ], [ -91.192713576242298, 17.978210448871362 ], [ -91.200128346383707, 17.97450932041172 ], [ -91.217459546078871, 17.974986851692165 ], [ -91.223754846624786, 17.981325799225644 ], [ -91.23333125610948, 17.983048520877301 ], [ -91.242064454561827, 17.988890850470177 ], [ -91.253116905723786, 18.009205320414043 ], [ -91.281419255464868, 18.024006260440984 ], [ -91.29674319590103, 18.041940319321007 ], [ -91.318400344898109, 18.049380460258572 ], [ -91.328291057257616, 18.062804181301374 ], [ -91.312690620776806, 18.085325705746239 ], [ -91.304067350329589, 18.077978080179729 ], [ -91.299154540465722, 18.102903739652511 ], [ -91.287842690124165, 18.102431049692946 ], [ -91.287615679646777, 18.099745459707449 ], [ -91.28301523014035, 18.099166060276534 ], [ -91.282568460423704, 18.103299829859939 ], [ -91.239429049575719, 18.098838489780714 ], [ -91.238597614249116, 18.105945549888848 ], [ -91.254074619931856, 18.156121799705708 ], [ -91.251544619738652, 18.159179940335004 ], [ -91.254439350369125, 18.163581800337148 ], [ -91.250693379561966, 18.166548019619203 ], [ -91.249079060063664, 18.175156540077733 ], [ -91.252199199624584, 18.182773290386592 ], [ -91.244848749803097, 18.19421891976101 ], [ -91.246310139920951, 18.203112250157947 ], [ -91.267724509514338, 18.199911780153236 ], [ -91.263983739733874, 18.209262029697157 ], [ -91.18738809049492, 18.227670919636058 ], [ -91.190469820152742, 18.235495679992248 ], [ -91.185806850232723, 18.276914920269707 ], [ -91.174979139815292, 18.275723949927361 ], [ -91.16230593963158, 18.287022540391021 ], [ -91.156481846564887, 18.282629740646577 ], [ -91.151695134564207, 18.288349798286809 ], [ -91.133748996812329, 18.28746660192175 ], [ -91.119795374628836, 18.304130289040302 ], [ -91.108545057513567, 18.302600350847229 ], [ -91.105146320304939, 18.306757429901928 ], [ -91.116486580154188, 18.308531139689627 ], [ -91.115302890122564, 18.319312819972762 ], [ -91.124211549668544, 18.320344150006154 ], [ -91.127158020111139, 18.328268309911714 ], [ -91.111058349825143, 18.330931920186956 ], [ -91.105090520394739, 18.327545510363294 ], [ -91.10287135036846, 18.339890859646385 ], [ -91.084395459860886, 18.338016979814828 ], [ -91.083537949872294, 18.342982200060785 ], [ -91.097865570282011, 18.345162139720021 ], [ -91.096387260427093, 18.364064150009305 ], [ -91.06603614850215, 18.370031180179449 ], [ -91.068721164036461, 18.340591179359858 ], [ -91.018611169916866, 18.335106940764287 ], [ -91.015992490135176, 18.361602819655015 ], [ -91.007297680266944, 18.360023459750117 ], [ -91.0060997697951, 18.347525889754422 ], [ -90.979751279980007, 18.345286380176042 ], [ -90.981932859846523, 18.322390510209249 ], [ -90.952400600207156, 18.319983800247282 ], [ -90.941490910399423, 18.337240140251314 ], [ -90.918624430344906, 18.327158060319011 ], [ -90.929043769841428, 18.301288549594965 ], [ -90.937634079548602, 18.30505320026527 ], [ -90.945407547960258, 18.278025879522026 ], [ -90.896726550075343, 18.277708139682812 ], [ -90.893019060109637, 18.30302351022619 ], [ -90.819355049952634, 18.302063260368985 ], [ -90.822724199591647, 18.262579920101281 ], [ -90.787386569967552, 18.258531600185105 ], [ -90.778620940393822, 18.338769060080239 ], [ -90.702235460147577, 18.338300969902988 ], [ -90.702234180219733, 18.473919720225176 ], [ -90.591184459686403, 18.475263890247838 ], [ -90.590266030376654, 18.498584680196775 ], [ -90.567331420261084, 18.497665999837832 ], [ -90.571384719723326, 18.464266310080308 ], [ -90.489137429930167, 18.465691860415767 ], [ -90.490410179581104, 18.477262539979208 ], [ -90.485660319614638, 18.47723189025502 ], [ -90.486281319711509, 18.507275940428976 ], [ -90.433848550167994, 18.507690279863585 ], [ -90.437710776268645, 18.469125220106175 ] ] ] } },
{ "type": "Feature", "properties": { "code": "04004", "stateCode": "04", "municipalityCode": "004", "name": "Champotón" }, "geometry": { "type": "Polygon", "coordinates": [ [ [ -90.510904659744739, 19.617294230188588 ], [ -90.510723539967714, 19.583563740382939 ], [ -90.501033110262298, 19.577578249899425 ], [ -90.477297379565144, 19.575370890174419 ], [ -90.477025169646424, 19.572837029579382 ], [ -90.450797310137546, 19.572790020432247 ], [ -90.450009289689987, 19.582959430360976 ], [ -90.440949570434256, 19.583019379774754 ], [ -90.441035629860338, 19.587793619894921 ], [ -90.438074119634038, 19.587827710379983 ], [ -90.439523350232776, 19.581394950411021 ], [ -90.429883050173927, 19.579235149573417 ], [ -90.449546770071876, 19.530584400260942 ], [ -90.424961569980454, 19.530889539681482 ], [ -90.388215819664154, 19.546188650198083 ], [ -90.391598720100745, 19.529448689591703 ], [ -90.404647119543881, 19.502125549769623 ], [ -90.37021782004291, 19.504695490384439 ], [ -90.362452350077106, 19.498464150135767 ], [ -90.407715090101917, 19.495714200028729 ], [ -90.405890550307646, 19.4842661100115 ], [ -90.409071950395017, 19.478582220238593 ], [ -90.402920849519731, 19.438174460342076 ], [ -90.378606859599486, 19.436478309736632 ], [ -90.378163780060007, 19.412712890012198 ], [ -90.369178490318987, 19.416991619756249 ], [ -90.359829779896046, 19.435094289540768 ], [ -90.340395489521683, 19.425306380267415 ], [ -90.327850950090223, 19.436777200289406 ], [ -90.328257510246161, 19.446392369987873 ], [ -90.333314820301055, 19.445996400037167 ], [ -90.333329250290063, 19.458763169651789 ], [ -90.356920429504413, 19.455265350284041 ], [ -90.358545059768261, 19.467811829542441 ], [ -90.343811750059501, 19.470372250262791 ], [ -90.347405349614519, 19.47736137008695 ], [ -90.337992320334337, 19.480150539957123 ], [ -90.310091720006568, 19.454575199585072 ], [ -90.309854679689934, 19.307755829779325 ], [ -90.291054720074072, 19.30756743026885 ], [ -90.290756199711325, 19.278167580356367 ], [ -90.302323120126914, 19.278078489886695 ], [ -90.302090380261376, 19.262937830080283 ], [ -90.291090749639906, 19.263005769582989 ], [ -90.291063379934528, 19.254795110083055 ], [ -90.24530841991232, 19.255114719828825 ], [ -90.237872949677055, 19.263373619600518 ], [ -90.205476139566883, 19.257956940134598 ], [ -90.200006119747457, 19.224578950116591 ], [ -90.17964985972705, 19.220935660371374 ], [ -90.187658429575322, 19.254012939556258 ], [ -90.146867600333408, 19.241342419631135 ], [ -90.121358520221165, 19.376173719792412 ], [ -90.03344169039984, 19.370244400475539 ], [ -89.908584829693979, 19.370093889963332 ], [ -89.912776339838288, 19.295848420264729 ], [ -89.922057369818603, 19.216294430028238 ], [ -89.929661370052159, 19.028661220289592 ], [ -90.006950059704664, 19.053413679791394 ], [ -89.996114019899437, 19.023530579874333 ], [ -90.156526740108362, 19.049236170145825 ], [ -90.156726460109155, 19.016773570430281 ], [ -90.161428780287878, 19.016899200284701 ], [ -90.160719880298871, 19.001591320137095 ], [ -90.163223489979018, 18.998031479912971 ], [ -90.161910259799456, 18.981530059700589 ], [ -90.206081770349854, 18.949256830308137 ], [ -90.216417950250289, 18.892793890225107 ], [ -90.294465369923131, 18.893669659718125 ], [ -90.305034600082493, 18.79399557016054 ], [ -90.458366049970508, 18.805830289756415 ], [ -90.47204415018507, 18.572564230121682 ], [ -90.532129939601532, 18.574632460145224 ], [ -90.509044059868828, 18.677727510429225 ], [ -90.592696660365391, 18.696312689956464 ], [ -90.652842716668758, 18.703882632117406 ], [ -90.73702437687507, 18.742596312915342 ], [ -90.734457819837147, 18.748084339927786 ], [ -90.738821660492277, 18.766651249583312 ], [ -90.733428200394769, 18.766491860388172 ], [ -90.729922140204081, 18.802148220197591 ], [ -90.742671720444093, 18.80352875034346 ], [ -90.74822753976612, 18.814247889624291 ], [ -90.728973819625566, 18.811151799661527 ], [ -90.721233290119528, 18.854127430114861 ], [ -90.732579980362203, 18.858076659709461 ], [ -90.76888552043583, 18.827924399931515 ], [ -90.79951304979663, 18.863147979939814 ], [ -90.798760340153535, 18.851780059781213 ], [ -90.824582249895229, 18.87414086040712 ], [ -90.848898860278624, 18.863224110372524 ], [ -90.851991450462378, 18.834381910164918 ], [ -90.868013289641823, 18.836197749531987 ], [ -90.871227000091935, 18.832825000452758 ], [ -90.915763630136865, 18.87229754959889 ], [ -90.910549599698555, 18.878465230230123 ], [ -90.916232169625772, 18.890358170114229 ], [ -90.901855539687858, 18.905313859663487 ], [ -90.901167490106985, 18.910226279582069 ], [ -90.912086489677108, 18.917684569931346 ], [ -90.912522519931727, 18.91444640018176 ], [ -90.94427062021056, 18.94198879994488 ], [ -90.966478180236592, 18.916933770223558 ], [ -91.026128319986341, 18.968115489674513 ], [ -91.003276889732973, 18.984684490192418 ], [ -91.028957379850709, 19.017192140026566 ], [ -91.04752087984167, 18.985807690115088 ], [ -91.089190850435585, 19.019926110373383 ], [ -91.095270979999768, 19.031277879999347 ], [ -91.099596250184305, 19.028844550048834 ], [ -91.099743020472388, 19.032318739707065 ], [ -91.11321338035512, 19.028835079702677 ], [ -91.12359633979645, 19.014716820305587 ], [ -91.141088920127913, 19.010335260203465 ], [ -91.139741170295139, 19.002198660072569 ], [ -91.154553569591442, 18.992646320325594 ], [ -91.162666460054993, 18.993047749918503 ], [ -91.163742849862828, 18.999014889893601 ], [ -91.176574399968487, 18.996796509867529 ], [ -91.183073720249226, 18.991926249641349 ], [ -91.185527413409019, 18.996445251866483 ], [ -91.118158508448175, 19.031969948392881 ], [ -91.110891284970791, 19.037535861687267 ], [ -91.111201523520947, 19.044215292356135 ], [ -91.080534439552395, 19.067927932023636 ], [ -90.993317576485225, 19.119290501963548 ], [ -90.908012928337016, 19.177188462720153 ], [ -90.853682106708732, 19.22472587052415 ], [ -90.855310710955322, 19.226072911109394 ], [ -90.777670487675394, 19.288106938028328 ], [ -90.740499646848818, 19.329583866060915 ], [ -90.728570957938715, 19.353391305899805 ], [ -90.722662766001875, 19.358913790497294 ], [ -90.725154280006166, 19.401178556590274 ], [ -90.710404261204459, 19.439505064138995 ], [ -90.7032330410009, 19.483812056098902 ], [ -90.703942416835957, 19.49962059430694 ], [ -90.698492888102848, 19.49864835368896 ], [ -90.698693897129999, 19.494823951403124 ], [ -90.683668498565396, 19.490887911568663 ], [ -90.638469189615293, 19.486892017907568 ], [ -90.638025677620973, 19.49103569322175 ], [ -90.603488974899463, 19.498046911062097 ], [ -90.609348459531972, 19.531970568140668 ], [ -90.614460338407326, 19.539640334104167 ], [ -90.594536800445951, 19.539590264593897 ], [ -90.590564091727842, 19.548250348916383 ], [ -90.589627265589769, 19.569959943376343 ], [ -90.565939963884119, 19.5696421478034 ], [ -90.567113872974062, 19.599129113477083 ], [ -90.55095155457667, 19.608946011555112 ], [ -90.510904659744739, 19.617294230188588 ] ] ] } },
{ "type": "Feature", "properties": { "code": "04013", "stateCode": "04", "municipalityCode": "013", "name": "Dzitbalché" }, "geometry": { "type": "Polygon", "coordinates": [ [ [ -90.080317746218057, 20.346930287605876 ], [ -89.993025775833488, 20.337975623457773 ], [ -89.989067399899909, 20.335783248595977 ], [ -89.98969137012736, 20.307700060297851 ], [ -89.976734425631719, 20.30747602846381 ], [ -89.976730354956587, 20.314470433586443 ], [ -89.929584012984407, 20.282323554372375 ], [ -89.874791888377416, 20.262253731460486 ], [ -89.875660689983633, 20.253101950798282 ], [ -89.840678168757833, 20.251027510123599 ], [ -89.855532070967683, 20.112753032654499 ], [ -89.902053100154276, 20.115808646685753 ], [ -89.889763558702072, 20.138829349026828 ], [ -89.965005860601408, 20.157430138019201 ], [ -89.940796550134507, 20.195792143669429 ], [ -89.935325620683486, 20.225991280732238 ], [ -89.961277962292669, 20.230863184242622 ], [ -89.96205466714521, 20.216316342984456 ], [ -89.980958478159152, 20.225106894687631 ], [ -89.980128439549517, 20.212761839708083 ], [ -89.99614222013264, 20.213072671397232 ], [ -89.997368472855413, 20.168450723610324 ], [ -90.025301323769924, 20.171352205932116 ], [ -90.030229053717619, 20.176630667577943 ], [ -90.029882480763888, 20.205579688310134 ], [ -90.041059482000165, 20.208564434901842 ], [ -90.052741474522421, 20.206166953382194 ], [ -90.061994342937055, 20.211162068558977 ], [ -90.068031457713317, 20.231777238908784 ], [ -90.068864083881053, 20.252880220023361 ], [ -90.089307418457764, 20.256086054283244 ], [ -90.088029678694269, 20.25868613680311 ], [ -90.093509986275507, 20.260965145402992 ], [ -90.092360476630247, 20.264918628074586 ], [ -90.12245508616499, 20.26742287425478 ], [ -90.121412923660301, 20.278586626913402 ], [ -90.109565417895297, 20.27687187361192 ], [ -90.099649103117756, 20.30906130094619 ], [ -90.091028823828438, 20.316260486578166 ], [ -90.087062351830014, 20.31595763424167 ], [ -90.080317746218057, 20.346930287605876 ] ] ] } },
{ "type": "Feature", "properties": { "code": "04002", "stateCode": "04", "municipalityCode": "002", "name": "Campeche" }, "geometry": { "type": "MultiPolygon", "coordinates": [ [ [ [ -90.350442279749274, 19.959915370180962 ], [ -90.345850679645537, 19.947927889735819 ], [ -90.309655880373839, 19.938608520048994 ], [ -90.297488600069826, 19.894513509827902 ], [ -90.27359202976281, 19.890531600388794 ], [ -90.258930860174843, 19.89441106017037 ], [ -90.238203919748784, 19.910072490112455 ], [ -90.235871080102086, 19.881004310075916 ], [ -90.253964150078545, 19.854039290267888 ], [ -90.235031820201911, 19.842454889948048 ], [ -90.21035983009817, 19.847479369753191 ], [ -90.182357879953415, 19.823188140226652 ], [ -90.209064349853563, 19.798972679555632 ], [ -90.184146680286332, 19.795956550392912 ], [ -90.146964120460183, 19.811186110102415 ], [ -90.147672779987687, 19.806860719747011 ], [ -90.109050919706206, 19.806006290289574 ], [ -90.080972250001196, 19.795450179732768 ], [ -90.051806059710628, 19.789125919898144 ], [ -90.031293850318448, 19.774357259779297 ], [ -90.057656660213482, 19.724399170409626 ], [ -90.061184320174419, 19.726781689712261 ], [ -90.085669570466592, 19.677723659914939 ], [ -90.070605940330623, 19.676683230111191 ], [ -90.034798949876148, 19.665847540374575 ], [ -90.008970379686829, 19.693945909794468 ], [ -90.005886369882617, 19.693860879928483 ], [ -90.012087720155435, 19.686807969699849 ], [ -90.004027180211111, 19.68412077995535 ], [ -90.003639320314932, 19.676795170113138 ], [ -89.990517080310596, 19.675219519747806 ], [ -89.992643890241183, 19.670388450179683 ], [ -89.983446309710331, 19.669414259667295 ], [ -89.987003309602258, 19.640150030305772 ], [ -90.010122430171691, 19.632159830255944 ], [ -90.001924860165857, 19.602044280290976 ], [ -89.998423290390562, 19.601532680108313 ], [ -89.992534970285007, 19.54767521980666 ], [ -89.985703849890456, 19.548537080000205 ], [ -89.949961629543211, 19.536175980042781 ], [ -89.957095310288437, 19.507225549597763 ], [ -89.985256780350099, 19.503390489961809 ], [ -89.980524200361899, 19.471148320371423 ], [ -89.988846750444395, 19.474358119835369 ], [ -89.99042478035021, 19.463407489874829 ], [ -89.981976850286017, 19.461868660268188 ], [ -89.979478800160805, 19.446769739754693 ], [ -89.968794309915651, 19.439814880033104 ], [ -89.970718030221903, 19.434698919881566 ], [ -89.963966980134046, 19.429500569980569 ], [ -89.965870050017756, 19.425907879829225 ], [ -89.923783550061685, 19.405111489912425 ], [ -89.864408750110869, 19.411208490134353 ], [ -89.861138660177886, 19.372910579742623 ], [ -89.865258770211284, 19.293935250313346 ], [ -89.912776339838317, 19.295848420264747 ], [ -89.908584829694007, 19.370093889963364 ], [ -90.033441690399869, 19.370244400475571 ], [ -90.121358520221193, 19.376173719792448 ], [ -90.146867600333437, 19.241342419631167 ], [ -90.18765842957535, 19.25401293955629 ], [ -90.179649859727078, 19.22093566037141 ], [ -90.200006119747485, 19.224578950116623 ], [ -90.205476139566912, 19.257956940134616 ], [ -90.237872949677097, 19.263373619600518 ], [ -90.245308419912362, 19.255114719828878 ], [ -90.291063379934556, 19.254795110083073 ], [ -90.291090749639935, 19.263005769583042 ], [ -90.302090380261419, 19.262937830080336 ], [ -90.302323120126943, 19.27807848988671 ], [ -90.290756199711353, 19.27816758035641 ], [ -90.291054720074115, 19.307567430268893 ], [ -90.309854679689963, 19.307755829779349 ], [ -90.310091720006596, 19.45457519958509 ], [ -90.337992320334365, 19.480150539957123 ], [ -90.347405349614547, 19.477361370086985 ], [ -90.34381175005953, 19.470372250262848 ], [ -90.358545059768289, 19.467811829542477 ], [ -90.356920429504427, 19.455265350284108 ], [ -90.333329250290106, 19.458763169651807 ], [ -90.333314820301084, 19.445996400037203 ], [ -90.328257510246175, 19.446392369987922 ], [ -90.327850950090252, 19.436777200289459 ], [ -90.340395489521697, 19.425306380267415 ], [ -90.35982977989606, 19.435094289540817 ], [ -90.36917849031903, 19.416991619756264 ], [ -90.378163780060035, 19.412712890012234 ], [ -90.378606859599515, 19.436478309736685 ], [ -90.402920849519745, 19.438174460342125 ], [ -90.40907195039506, 19.478582220238636 ], [ -90.405890550307689, 19.484266110011518 ], [ -90.407715090101959, 19.495714200028754 ], [ -90.362452350077135, 19.498464150135781 ], [ -90.370217820042953, 19.504695490384439 ], [ -90.404647119543924, 19.502125549769659 ], [ -90.391598720100774, 19.529448689591764 ], [ -90.388215819664183, 19.546188650198115 ], [ -90.424961569980482, 19.530889539681532 ], [ -90.449546770071905, 19.530584400260963 ], [ -90.429883050173956, 19.579235149573467 ], [ -90.439523350232818, 19.58139495041107 ], [ -90.438074119634067, 19.587827710380036 ], [ -90.44103562986038, 19.58779361989497 ], [ -90.440949570434285, 19.583019379774786 ], [ -90.45000928969003, 19.582959430361015 ], [ -90.450797310137574, 19.572790020432265 ], [ -90.477025169646467, 19.572837029579397 ], [ -90.477297379565172, 19.575370890174419 ], [ -90.501033110262327, 19.577578249899442 ], [ -90.510723539967742, 19.583563740382989 ], [ -90.510963441282584, 19.617454529393093 ], [ -90.550951554576685, 19.608946011555162 ], [ -90.555702317164346, 19.629146742401495 ], [ -90.561974972053775, 19.636019607968461 ], [ -90.557138841801645, 19.648855877518955 ], [ -90.566035509706651, 19.65073308110226 ], [ -90.561232248991416, 19.659454150003466 ], [ -90.578546719602329, 19.657371601197518 ], [ -90.578567980484834, 19.674959589993463 ], [ -90.621548585506304, 19.680379501445206 ], [ -90.614660215799631, 19.716719047420234 ], [ -90.63159632120346, 19.704245972892025 ], [ -90.669677526817566, 19.719972202848965 ], [ -90.666716259864444, 19.728762256126757 ], [ -90.670248892752952, 19.735385943627687 ], [ -90.665097098869907, 19.752752316621219 ], [ -90.629954360253492, 19.785872208914892 ], [ -90.631147418919937, 19.789686888277028 ], [ -90.629148127378144, 19.788340347093627 ], [ -90.623414793036929, 19.794188083505656 ], [ -90.612251459439634, 19.798246060237172 ], [ -90.594901091077915, 19.811989454399946 ], [ -90.598132168695471, 19.813015639425156 ], [ -90.591618748529996, 19.81452865516173 ], [ -90.593081032656613, 19.817154839208957 ], [ -90.590051028258088, 19.814016423416639 ], [ -90.572047540164561, 19.824816580016918 ], [ -90.572453579476061, 19.827112710746434 ], [ -90.571409857957832, 19.825219245827778 ], [ -90.560022949842036, 19.831353830279188 ], [ -90.534622339851765, 19.853098681154023 ], [ -90.522111095582659, 19.858361260025458 ], [ -90.527995548643617, 19.864418967774071 ], [ -90.530483862280221, 19.862274481081993 ], [ -90.529431630383499, 19.865423879955564 ], [ -90.531883427385864, 19.863253885299244 ], [ -90.529126820712605, 19.865952194191923 ], [ -90.521492197623743, 19.858798842969751 ], [ -90.5075814608591, 19.867482889356225 ], [ -90.500306202667332, 19.880928043147836 ], [ -90.492960798003224, 19.885054027636389 ], [ -90.472288628898383, 19.920065218541765 ], [ -90.472182886500164, 19.925125359237395 ], [ -90.465661972764963, 19.931000247093269 ], [ -90.462017829951023, 19.930404199408251 ], [ -90.458013203841375, 19.945833806995619 ], [ -90.449389769858854, 19.961036980003321 ], [ -90.428665859569563, 19.955556720364925 ], [ -90.389091909860255, 19.952690430339111 ], [ -90.388063599681004, 19.962781400343676 ], [ -90.379989450437805, 19.962034140188241 ], [ -90.379683570120122, 19.964956149621205 ], [ -90.350442279749274, 19.959915370180962 ] ] ], [ [ [ -91.957743520086822, 20.196741660283575 ], [ -91.955467420070164, 20.196527060037791 ], [ -91.955464480418996, 20.196114090360606 ], [ -91.957743520086822, 20.196741660283575 ] ] ], [ [ [ -91.978962489888445, 20.204030019785815 ], [ -91.976561140122286, 20.203187999697761 ], [ -91.976554970430499, 20.202769689700347 ], [ -91.978962489888445, 20.204030019785815 ] ] ], [ [ [ -91.961006580282387, 20.203477819833594 ], [ -91.964106679940272, 20.202405309824062 ], [ -91.962319779805668, 20.208619980351532 ], [ -91.961006580282387, 20.203477819833594 ] ] ] ] } },
{ "type": "Feature", "properties": { "code": "04009", "stateCode": "04", "municipalityCode": "009", "name": "Escárcega" }, "geometry": { "type": "Polygon", "coordinates": [ [ [ -90.06300270961377, 18.963955620078835 ], [ -90.037627200444945, 18.960895059689264 ], [ -90.067762780458395, 18.710441289609701 ], [ -90.12208591973581, 18.71610257032328 ], [ -90.120929169566466, 18.726296860122705 ], [ -90.160640370130992, 18.729964480240891 ], [ -90.163829580311599, 18.692586650256036 ], [ -90.138924170189696, 18.690454089994116 ], [ -90.141635739599067, 18.66667149038593 ], [ -90.17468054034542, 18.669778949674434 ], [ -90.177973149764242, 18.637949339572604 ], [ -90.198019619670688, 18.640758320422457 ], [ -90.207754050310001, 18.590683080091242 ], [ -90.196671140014644, 18.588639199602227 ], [ -90.201410879758996, 18.559602349748346 ], [ -90.172258340290583, 18.558905400265807 ], [ -90.1729436604478, 18.510943509615476 ], [ -90.162275110082817, 18.512008879871662 ], [ -90.166854910314669, 18.476708120031002 ], [ -90.146016079591817, 18.477971570120459 ], [ -90.148294600125752, 18.465769179954645 ], [ -90.0879412503227, 18.469189149955579 ], [ -90.095633919931785, 18.392345630167075 ], [ -90.074035229597627, 18.391733769970312 ], [ -90.077614519995635, 18.230113599920735 ], [ -90.080088650280601, 18.230148889626381 ], [ -90.082090450226374, 18.198803229751107 ], [ -90.248523139968682, 18.193445830226146 ], [ -90.248812142879331, 18.16692636907019 ], [ -90.283034623844785, 18.166453740308171 ], [ -90.283636048080865, 18.198721850290458 ], [ -90.427260733172687, 18.197243569453914 ], [ -90.437710776268645, 18.469125220106175 ], [ -90.433848550167994, 18.507690279863585 ], [ -90.486281319711509, 18.507275940428976 ], [ -90.485660319614638, 18.47723189025502 ], [ -90.490410179581104, 18.477262539979208 ], [ -90.489137429930167, 18.465691860415767 ], [ -90.571384719723326, 18.464266310080308 ], [ -90.567331420261084, 18.497665999837832 ], [ -90.590266030376654, 18.498584680196775 ], [ -90.591184459686403, 18.475263890247838 ], [ -90.702234180219733, 18.473919720225176 ], [ -90.702235460147577, 18.338300969902988 ], [ -90.778620940393822, 18.338769060080239 ], [ -90.787386569967552, 18.258531600185105 ], [ -90.822724199591647, 18.262579920101281 ], [ -90.819355049952634, 18.302063260368985 ], [ -90.893019060109637, 18.30302351022619 ], [ -90.896726550075343, 18.277708139682812 ], [ -90.945407547960258, 18.278025879522026 ], [ -90.937634079548602, 18.30505320026527 ], [ -90.929043769841428, 18.301288549594965 ], [ -90.918624430344906, 18.327158060319011 ], [ -90.941490910399423, 18.337240140251314 ], [ -90.952400600207156, 18.319983800247282 ], [ -90.981932859846523, 18.322390510209249 ], [ -90.979751279980007, 18.345286380176042 ], [ -91.0060997697951, 18.347525889754422 ], [ -91.007297680266944, 18.360023459750117 ], [ -90.997314890195142, 18.35823768042339 ], [ -90.9938655800281, 18.390968509623193 ], [ -91.004067140396714, 18.391429490224187 ], [ -91.029955399650632, 18.414775449562004 ], [ -91.006743950267747, 18.484080510052891 ], [ -91.001233879600917, 18.53355717029352 ], [ -90.995000720471182, 18.538870679814579 ], [ -91.013090089732259, 18.558685139573882 ], [ -90.994017750019822, 18.572992249755554 ], [ -90.985237219834659, 18.563114520046657 ], [ -90.995241799891758, 18.555189259925918 ], [ -90.986596419960279, 18.544960950346656 ], [ -90.971334659879474, 18.556891250241019 ], [ -90.996997379842, 18.587085750187232 ], [ -90.975297120010495, 18.586938290034578 ], [ -90.968265919839254, 18.635682999558291 ], [ -90.98193354003908, 18.637754109994955 ], [ -90.97880690960146, 18.657007509586304 ], [ -90.941794740044628, 18.654206289870363 ], [ -90.940853140317927, 18.658300460245982 ], [ -90.915873970010509, 18.653952919667368 ], [ -90.919933520342809, 18.623428780221911 ], [ -90.904023029568478, 18.621925780349805 ], [ -90.899979350022562, 18.651185429726493 ], [ -90.892550230224785, 18.670985029935327 ], [ -90.890236199882906, 18.670479660324055 ], [ -90.890595860321099, 18.676444380338619 ], [ -90.870903230195623, 18.670817580463694 ], [ -90.869347080354103, 18.681244510306467 ], [ -90.848083739979771, 18.680000219596941 ], [ -90.84701152013497, 18.688213260394129 ], [ -90.827516939745578, 18.685991339744145 ], [ -90.823007999951884, 18.714636949554155 ], [ -90.804043599751566, 18.712328479697113 ], [ -90.795428149720152, 18.742165569970958 ], [ -90.812148570250216, 18.744702910238988 ], [ -90.81083141964254, 18.758287490267922 ], [ -90.844085510122042, 18.761328980026889 ], [ -90.840021029815205, 18.799416820100305 ], [ -90.832147720333751, 18.798893080405914 ], [ -90.823744230486014, 18.83097428958785 ], [ -90.851991450462378, 18.834381910164918 ], [ -90.848898860278624, 18.863224110372524 ], [ -90.824582249895229, 18.87414086040712 ], [ -90.798760340153535, 18.851780059781213 ], [ -90.79951304979663, 18.863147979939814 ], [ -90.76888552043583, 18.827924399931515 ], [ -90.732579980362203, 18.858076659709461 ], [ -90.721233290119528, 18.854127430114861 ], [ -90.728973819625566, 18.811151799661527 ], [ -90.74822753976612, 18.814247889624291 ], [ -90.742671720444093, 18.80352875034346 ], [ -90.729922140204081, 18.802148220197591 ], [ -90.733428200394769, 18.766491860388172 ], [ -90.738821660492277, 18.766651249583312 ], [ -90.734457819837147, 18.748084339927786 ], [ -90.73702437687507, 18.742596312915342 ], [ -90.652842716668758, 18.703882632117406 ], [ -90.592696660365391, 18.696312689956464 ], [ -90.509044059868828, 18.677727510429225 ], [ -90.532129939601532, 18.574632460145224 ], [ -90.47204415018507, 18.572564230121682 ], [ -90.458366049970508, 18.805830289756415 ], [ -90.305034600082493, 18.79399557016054 ], [ -90.294465369923131, 18.893669659718125 ], [ -90.216417950250289, 18.892793890225107 ], [ -90.206081770349854, 18.949256830308137 ], [ -90.161910259799456, 18.981530059700589 ], [ -90.163223489979018, 18.998031479912971 ], [ -90.063151850261036, 18.996040579727119 ], [ -90.06300270961377, 18.963955620078835 ] ] ] } },
{ "type": "Feature", "properties": { "code": "04007", "stateCode": "04", "municipalityCode": "007", "name": "Palizada" }, "geometry": { "type": "Polygon", "coordinates": [ [ [ -92.07618209024541, 18.589100799843774 ], [ -92.070085880053952, 18.578606179611626 ], [ -92.073992169923898, 18.572813550194073 ], [ -92.079481910462249, 18.572699419968913 ], [ -92.076463849593409, 18.56655517035286 ], [ -92.080403689723099, 18.561981829774751 ], [ -92.077292219928339, 18.550613399966849 ], [ -92.082585459704703, 18.540790340272427 ], [ -92.03549357042067, 18.531841119940278 ], [ -92.027876260389547, 18.525508289677756 ], [ -92.022599419766109, 18.530862370195603 ], [ -92.014537079757972, 18.53084270961935 ], [ -92.013212829761613, 18.537867919875147 ], [ -92.010552689574283, 18.53670677031532 ], [ -92.0088843103252, 18.523222050093402 ], [ -91.994228680265905, 18.515199600398677 ], [ -91.980353000413416, 18.514454230046802 ], [ -91.97558622998416, 18.509631379980039 ], [ -91.972928369537939, 18.515228690004111 ], [ -91.96188922973667, 18.514092850212482 ], [ -91.959645380255353, 18.521545350428902 ], [ -91.950839849725753, 18.523172550291118 ], [ -91.94397256981452, 18.53150668964933 ], [ -91.93802563023452, 18.533299820405141 ], [ -91.936073780431286, 18.531061650428583 ], [ -91.927023909733137, 18.539059509671784 ], [ -91.918506770064326, 18.536913049810803 ], [ -91.897950970209081, 18.544999549562469 ], [ -91.863751230139954, 18.527401890292388 ], [ -91.859016060254064, 18.527638149754697 ], [ -91.856513859892786, 18.522248320338964 ], [ -91.851612689905167, 18.521232879683726 ], [ -91.851997689924943, 18.505376660175546 ], [ -91.85951499995862, 18.504898800240177 ], [ -91.861028340187389, 18.50350985964501 ], [ -91.859269579568718, 18.505548029605119 ], [ -91.8626198900715, 18.511903630056782 ], [ -91.871678289818476, 18.517820419718579 ], [ -91.879447109535008, 18.512494230138067 ], [ -91.878423429675976, 18.504067680203029 ], [ -91.863211740340532, 18.498650170212809 ], [ -91.859836249738223, 18.504067400221924 ], [ -91.85308616994719, 18.504712879745881 ], [ -91.851406909643444, 18.50551953986027 ], [ -91.841685579690477, 18.503026690147404 ], [ -91.838101229983849, 18.505110979908657 ], [ -91.82142996956766, 18.497759709604466 ], [ -91.808352079694728, 18.501493149971754 ], [ -91.799136419531266, 18.493774650049701 ], [ -91.773289119675567, 18.488415180386419 ], [ -91.785910580253343, 18.476995310228471 ], [ -91.784463340029205, 18.472568370303637 ], [ -91.788278549939946, 18.468803660240585 ], [ -91.792832799959839, 18.475737060339849 ], [ -91.797117080402259, 18.475632030002025 ], [ -91.813451149721459, 18.44307830972723 ], [ -91.824277770187848, 18.447304830026429 ], [ -91.828922090410444, 18.443440060305544 ], [ -91.8253890600229, 18.435852169747893 ], [ -91.828385179669567, 18.43651642976792 ], [ -91.834894629996114, 18.419704480229637 ], [ -91.850005420060569, 18.405010690253373 ], [ -91.847194140292274, 18.40038148029695 ], [ -91.837672820199444, 18.401194419701589 ], [ -91.858253400168906, 18.394382979814143 ], [ -91.854917340273445, 18.38432065991379 ], [ -91.85082995006519, 18.382194080228505 ], [ -91.852236539678856, 18.379048540192297 ], [ -91.857304650002575, 18.379925520249198 ], [ -91.855477739675919, 18.367437119688041 ], [ -91.864190349947165, 18.358039259813424 ], [ -91.861321350402449, 18.350052710255159 ], [ -91.864211219542753, 18.346835430274798 ], [ -91.885111419886883, 18.332499150367855 ], [ -91.906441420312262, 18.333572570273297 ], [ -91.928439649708437, 18.318469970380821 ], [ -91.924883999586697, 18.308967880121209 ], [ -91.906311199649906, 18.289496549869362 ], [ -91.896659429634909, 18.303017630111501 ], [ -91.846320399739156, 18.328151150136367 ], [ -91.835752399888193, 18.321752579847914 ], [ -91.829411059677895, 18.321179969767002 ], [ -91.828917049569498, 18.325000999953463 ], [ -91.826770849599953, 18.323075080137237 ], [ -91.8264290298752, 18.316661289766053 ], [ -91.833495179789125, 18.313663200075695 ], [ -91.828534719531618, 18.303519290381679 ], [ -91.833806599769403, 18.300185089714098 ], [ -91.834658709786794, 18.295217249696226 ], [ -91.830860290331643, 18.28539988970903 ], [ -91.830117290417178, 18.263056619825701 ], [ -91.822352509886315, 18.254719940184877 ], [ -91.820070379922541, 18.241879709751956 ], [ -91.814262279593734, 18.237399600316053 ], [ -91.818483540236755, 18.23139351024378 ], [ -91.801640400452044, 18.214725539646221 ], [ -91.805254370339696, 18.203921119749371 ], [ -91.804234450392542, 18.193635340322462 ], [ -91.777918979584527, 18.174557919907915 ], [ -91.772976170427341, 18.111162259974513 ], [ -91.763525230441047, 18.112032550143713 ], [ -91.771395629992995, 18.170157969865297 ], [ -91.752283429949614, 18.185052769895876 ], [ -91.740277509663258, 18.165438179593174 ], [ -91.736434519775884, 18.168095379614044 ], [ -91.734283079810737, 18.164763089973469 ], [ -91.733917819761899, 18.154862049726606 ], [ -91.75403242033974, 18.150290889732073 ], [ -91.732386880294911, 18.096189750348341 ], [ -91.732423619571861, 18.063365289926097 ], [ -91.760695969853785, 18.056074259686898 ], [ -91.751581540044, 18.033226719964368 ], [ -91.726894569808778, 18.018448719756226 ], [ -91.69992872007505, 18.017474979741877 ], [ -91.657283830165127, 18.023332049663406 ], [ -91.658062880396542, 18.017340340391893 ], [ -91.753466309813589, 18.009953520429239 ], [ -91.750775539538935, 17.99454974036594 ], [ -91.717743249754463, 17.96079778022423 ], [ -91.739537050275487, 17.935213950465073 ], [ -91.760487309888774, 17.957625679752567 ], [ -91.761389369791999, 17.946001369961444 ], [ -91.757100690061051, 17.939733649740084 ], [ -91.762266540152538, 17.939014280320318 ], [ -91.76800602973718, 17.948547579935578 ], [ -91.771185279806005, 17.944366919563922 ], [ -91.804644219698986, 17.972550510226664 ], [ -91.86720785976361, 17.983266350183865 ], [ -91.888110140049449, 18.006337580028674 ], [ -91.900354769989036, 18.012146999992602 ], [ -91.909722679775712, 18.013786309607337 ], [ -91.935355629864873, 18.010202450342227 ], [ -91.966747709935049, 18.015988450434467 ], [ -91.978778580003663, 18.042829719784997 ], [ -91.992154600254025, 18.039256910325669 ], [ -92.014428740005741, 18.052613320230112 ], [ -92.028242169704527, 18.077172049852468 ], [ -92.042095429579305, 18.078318820282007 ], [ -92.035986250119208, 18.087363339633598 ], [ -92.039938820148748, 18.097950339625061 ], [ -92.052601449812528, 18.094085219853266 ], [ -92.062171680341052, 18.098163940128007 ], [ -92.068022580346195, 18.092113290434717 ], [ -92.076796349630044, 18.094286599955829 ], [ -92.081558290390703, 18.085689690380995 ], [ -92.092231000277209, 18.092049970315568 ], [ -92.110108350107581, 18.094406200282336 ], [ -92.127424570155583, 18.108657860137701 ], [ -92.128335689981284, 18.120149859941197 ], [ -92.149043460207679, 18.136730370166994 ], [ -92.148782050479539, 18.149296379904488 ], [ -92.160903000233148, 18.155424170337032 ], [ -92.160562120449939, 18.188668570266728 ], [ -92.164423970144554, 18.197865619757479 ], [ -92.14893752024993, 18.210406080351135 ], [ -92.183243850342976, 18.274063230242206 ], [ -92.172951370205865, 18.275337690408637 ], [ -92.174425849595607, 18.293303310089804 ], [ -92.177227860205491, 18.288744860391684 ], [ -92.180428820185639, 18.289823570285822 ], [ -92.171357549575291, 18.338954309871458 ], [ -92.181948719689245, 18.375902430331063 ], [ -92.17736021956182, 18.375882690079639 ], [ -92.176147740178806, 18.458233219952245 ], [ -92.204852219859205, 18.50000014005095 ], [ -92.220384280305296, 18.511930179713005 ], [ -92.206875739614276, 18.548307630361197 ], [ -92.181321150411634, 18.544602919939909 ], [ -92.164034219707588, 18.546773970425072 ], [ -92.144813050000238, 18.560021030415665 ], [ -92.141924180006285, 18.563707180201288 ], [ -92.142903679829388, 18.574876449719078 ], [ -92.135429169929949, 18.579142089694393 ], [ -92.101800280128032, 18.574802659784616 ], [ -92.07618209024541, 18.589100799843774 ] ] ] } }
]
}
