{"type":"FeatureCollection","features":[{"type":"Feature","properties":{"code":"05010","stateCode":"05","municipalityCode":"010","name":"Frontera"},"geometry":{"type":"Polygon","coordinates":[[[-101.41288,27.10073],[-101.3488,27.06407],[-101.39109,27.01535],[-101.43564,26.94927],[-101.4425,26.91858],[-101.45617,26.8997],[-101.45227,26.89729],[-101.46758,26.89607],[-101.46782,26.89174],[-101.47501,26.89121],[-101.46716,26.88234],[-101.4773,26.88155],[-101.47684,26.87693],[-101.4873,26.87003],[-101.48658,26.86373],[-101.52815,26.86033],[-101.52722,26.84381],[-101.58166,26.80669],[-101.5907,26.81745],[-101.62335,26.83894],[-101.62588,26.84457],[-101.63523,26.84223],[-101.6532,26.85778],[-101.65001,26.89212],[-101.66628,26.95061],[-101.68143,26.95686],[-101.69095,26.96837],[-101.71452,26.9828],[-101.71639,26.99504],[-101.71293,26.99127],[-101.67548,27.00423],[-101.66918,26.9824],[-101.6321,26.97295],[-101.55596,26.97626],[-101.55511,26.98421],[-101.53793,26.99969],[-101.53609,27.01478],[-101.52054,27.01518],[-101.46409,27.05052],[-101.45448,27.04374],[-101.41288,27.10073]]]}},{"type":"Feature","properties":{"code":"05036","stateCode":"05","municipalityCode":"036","name":"Viesca"},"geometry":{"type":"Polygon","coordinates":[[[-103.03209,25.63485],[-102.88602,25.6232],[-102.90471,25.55722],[-102.77949,25.52583],[-102.79189,25.48404],[-102.70694,25.47296],[-102.70418,25.46834],[-102.69799,25.39464],[-102.69918,25.37302],[-102.6049,25.2568],[-102.55621,25.23955],[-102.53625,25.20129],[-102.46333,25.11592],[-102.44676,24.99952],[-102.66969,25.06664],[-102.85313,24.772],[-102.8564,24.73977],[-102.8697,24.74207],[-102.87513,24.74887],[-102.8831,24.75044],[-102.88626,24.75821],[-102.89549,24.76603],[-102.90024,24.76472],[-102.90747,24.76788],[-102.91604,24.77611],[-102.92167,24.77309],[-102.92303,24.78024],[-102.94575,24.77857],[-102.96345,24.78797],[-102.96496,24.79403],[-102.97457,24.79281],[-102.97515,24.79944],[-102.98871,24.79622],[-102.99301,24.81427],[-102.95681,24.83173],[-102.95698,24.86474],[-103.05359,24.92503],[-103.04442,24.94059],[-103.03826,24.9619],[-103.06908,24.97379],[-103.01914,24.97158],[-103.04494,24.9858],[-103.06324,25.00943],[-103.09771,25.02398],[-103.10379,25.11179],[-103.12151,25.11657],[-103.19041,25.16034],[-103.19593,25.19447],[-103.34624,25.22299],[-103.34561,25.25908],[-103.37577,25.27344],[-103.3861,25.27426],[-103.42797,25.30109],[-103.4413,25.32122],[-103.47013,25.30102],[-103.44425,25.27908],[-103.46643,25.27678],[-103.49355,25.31172],[-103.48579,25.31484],[-103.47925,25.32392],[-103.48648,25.33286],[-103.48042,25.33434],[-103.46622,25.35235],[-103.46109,25.37065],[-103.46227,25.37619],[-103.40692,25.3989],[-103.39735,25.39532],[-103.3905,25.39739],[-103.38046,25.39096],[-103.36552,25.39316],[-103.35123,25.37298],[-103.34185,25.37035],[-103.3312,25.37446],[-103.32835,25.37107],[-103.3242,25.37236],[-103.31687,25.38265],[-103.31146,25.38213],[-103.30708,25.38967],[-103.26593,25.41478],[-103.16442,25.41149],[-103.16491,25.40868],[-103.16069,25.40684],[-103.14536,25.40684],[-103.13826,25.40247],[-103.13802,25.39344],[-103.12428,25.39117],[-103.12364,25.39401],[-103.10966,25.39059],[-103.09414,25.47569],[-103.08417,25.47429],[-103.08109,25.49223],[-103.08122,25.50152],[-103.08973,25.50249],[-103.08196,25.54765],[-103.08622,25.54817],[-103.08707,25.57048],[-103.08466,25.57523],[-103.09512,25.59975],[-103.08058,25.6027],[-103.0745,25.59709],[-103.03209,25.63485]]]}},{"type":"Feature","properties":{"code":"05018","stateCode":"05","municipalityCode":"018","name":"Monclova"},"geometry":{"type":"Polygon","coordinates":[[[-101.3488,27.06407],[-101.29774,27.02069],[-101.26413,27.00699],[-101.20524,27.0406],[-101.17966,27.0118],[-101.07635,27.04249],[-101.06746,27.02071],[-101.0608,27.02355],[-101.03788,26.98389],[-100.99591,26.97541],[-100.98167,26.96715],[-100.95876,26.92984],[-100.94037,26.91257],[-100.91674,26.88259],[-100.93389,26.87009],[-100.93827,26.83931],[-100.98104,26.80998],[-100.97493,26.79527],[-100.9663,26.78946],[-100.97006,26.78641],[-100.98285,26.78524],[-101.00726,26.79479],[-101.1107,26.70425],[-101.11263,26.69767],[-101.12908,26.70703],[-101.1342,26.71647],[-101.14425,26.72504],[-101.1735,26.74152],[-101.19579,26.74799],[-101.19807,26.78771],[-101.20501,26.80732],[-101.22985,26.82985],[-101.256,26.84517],[-101.2683,26.84508],[-101.36699,26.81926],[-101.37175,26.82375],[-101.40509,26.83313],[-101.41051,26.83764],[-101.42195,26.83068],[-101.43065,26.83014],[-101.44056,26.83684],[-101.47134,26.81818],[-101.48822,26.81707],[-101.5293,26.84529],[-101.52815,26.86033],[-101.48658,26.86373],[-101.4873,26.87003],[-101.47684,26.87693],[-101.4773,26.88155],[-101.46716,26.88234],[-101.47501,26.89121],[-101.46782,26.89174],[-101.46758,26.89607],[-101.45227,26.89729],[-101.45617,26.8997],[-101.4425,26.91858],[-101.4349,26.95045],[-101.39109,27.01535],[-101.3488,27.06407]]]}},{"type":"Feature","properties":{"code":"05029","stateCode":"05","municipalityCode":"029","name":"Sacramento"},"geometry":{"type":"Polygon","coordinates":[[[-101.78143,27.04245],[-101.73091,27.03515],[-101.70434,27.03547],[-101.71903,27.01571],[-101.71488,26.98355],[-101.69095,26.96837],[-101.68143,26.95686],[-101.66628,26.95061],[-101.65001,26.89212],[-101.74934,26.82984],[-101.78671,26.88966],[-101.86899,26.90034],[-101.86337,26.90037],[-101.86684,26.93685],[-101.83954,26.9402],[-101.85032,26.96119],[-101.84755,26.96102],[-101.80992,27.01942],[-101.80528,27.0339],[-101.78416,27.0339],[-101.78143,27.04245]]]}},{"type":"Feature","properties":{"code":"05007","stateCode":"05","municipalityCode":"007","name":"Cuatro Ciénegas"},"geometry":{"type":"Polygon","coordinates":[[[-102.12852,27.26413],[-102.12422,27.2487],[-102.09743,27.2406],[-102.09368,27.2315],[-102.09347,27.18806],[-102.08402,27.16147],[-102.07988,27.16717],[-102.05579,27.16303],[-102.05032,27.15883],[-102.05057,27.14716],[-102.00298,27.07695],[-102.0086,27.06853],[-102.00019,27.02102],[-101.94265,27.02389],[-101.93784,27.04782],[-101.8918,27.04744],[-101.87169,27.07284],[-101.86749,27.06395],[-101.84393,27.03961],[-101.83512,27.03653],[-101.82628,27.02115],[-101.81343,27.02147],[-101.80948,27.03402],[-101.80528,27.0339],[-101.80992,27.01942],[-101.84755,26.96102],[-101.85032,26.96119],[-101.83954,26.9402],[-101.86684,26.93685],[-101.86337,26.90037],[-101.86899,26.90034],[-101.78671,26.88966],[-101.74934,26.82984],[-101.80427,26.7953],[-101.83814,26.76896],[-101.73346,26.61231],[-101.71744,26.63344],[-101.68443,26.6094],[-101.68424,26.58924],[-101.65636,26.55879],[-101.59528,26.52971],[-101.51689,26.45329],[-101.51472,26.44731],[-101.50849,26.44408],[-101.50277,26.43152],[-101.49641,26.43122],[-101.48488,26.4206],[-101.51112,26.41073],[-101.56087,26.41828],[-101.50503,26.3911],[-101.52912,26.37725],[-101.50531,26.33878],[-101.55845,26.26649],[-101.58059,26.2793],[-101.62679,26.2971],[-101.6411,26.31257],[-101.66003,26.32329],[-101.67937,26.39715],[-101.69357,26.29932],[-101.7074,26.30132],[-101.71438,26.313],[-101.73932,26.31069],[-101.81084,26.32892],[-101.81017,26.32483],[-101.85319,26.2906],[-101.86901,26.38455],[-101.87701,26.34692],[-101.9387,26.34394],[-101.9484,26.39178],[-102.0351,26.36472],[-102.1504,26.42177],[-102.05371,26.32338],[-102.02186,26.27464],[-101.982,26.24347],[-101.97476,26.1844],[-101.96272,26.1578],[-102.0056,26.16132],[-102.00675,26.19556],[-102.03149,26.21807],[-102.13867,26.17199],[-102.11738,26.09121],[-102.19309,26.06743],[-102.26671,26.0515],[-102.28734,26.13409],[-102.39628,26.10791],[-102.31624,26.25155],[-102.34298,26.31479],[-102.34025,26.26965],[-102.37239,26.27653],[-102.50779,26.28025],[-102.48405,26.31963],[-102.50244,26.31966],[-102.33752,26.60054],[-102.38407,26.58696],[-102.50798,26.49776],[-102.59807,26.49774],[-102.62094,26.4911],[-102.67837,26.52576],[-102.75114,26.63163],[-102.75985,26.63726],[-102.78943,26.63434],[-102.8017,26.6484],[-102.96001,26.5295],[-102.97133,26.42348],[-102.98822,26.42515],[-102.9997,26.49826],[-103.0245,26.50106],[-103.03862,26.52278],[-103.00622,26.53409],[-103.01378,26.55603],[-103.03644,26.57432],[-103.03902,26.5809],[-103.00932,26.61451],[-103.00764,26.62443],[-102.96788,26.70654],[-103.0008,26.72501],[-103.05045,26.64835],[-103.15523,26.74219],[-103.16467,26.7541],[-103.04485,26.81305],[-103.21312,26.97645],[-103.02715,26.97794],[-102.98878,26.96319],[-102.98757,26.97957],[-102.79968,26.87313],[-102.80839,27.08096],[-102.78925,27.05287],[-102.78271,27.04836],[-102.75402,27.04925],[-102.74366,27.04499],[-102.72807,27.08346],[-102.69528,27.06437],[-102.66027,27.122],[-102.65417,27.12239],[-102.6402,27.16004],[-102.61812,27.14863],[-102.57213,27.1134],[-102.5292,27.10011],[-102.516,27.1005],[-102.48563,27.0806],[-102.47034,27.06461],[-102.46669,27.05303],[-102.44286,27.0269],[-102.42426,27.03404],[-102.3919,27.03449],[-102.33375,27.01727],[-102.29482,27.01147],[-102.28898,27.01481],[-102.32604,27.11476],[-102.33807,27.12242],[-102.33035,27.12651],[-102.33252,27.13152],[-102.41189,27.1924],[-102.36585,27.262],[-102.30394,27.23163],[-102.29493,27.24639],[-102.31668,27.27277],[-102.14469,27.27884],[-102.12852,27.26413]]]}},{"type":"Feature","properties":{"code":"05032","stateCode":"05","municipalityCode":"032","name":"San Juan de Sabinas"},"geometry":{"type":"Polygon","coordinates":[[[-101.31054,28.23932],[-101.31601,28.2352],[-101.31757,28.2213],[-101.36165,28.21772],[-101.36666,28.13084],[-101.30704,28.11125],[-101.29155,28.11833],[-101.29444,28.07095],[-101.20731,28.03198],[-101.21927,28.00738],[-101.22756,28.01045],[-101.24373,27.97565],[-101.18984,27.94952],[-101.19817,27.92993],[-101.1969,27.9267],[-101.20173,27.92388],[-101.20856,27.90551],[-101.20056,27.9034],[-101.18977,27.88743],[-101.20017,27.88996],[-101.21172,27.88082],[-101.22619,27.88371],[-101.2345,27.8791],[-101.24176,27.87907],[-101.24718,27.88243],[-101.25824,27.88274],[-101.26458,27.89001],[-101.27731,27.89375],[-101.31589,27.89318],[-101.31542,27.90326],[-101.35987,27.91074],[-101.35715,27.93003],[-101.38085,27.92379],[-101.38359,27.93232],[-101.40967,27.92003],[-101.40419,27.9309],[-101.39416,27.93849],[-101.39018,27.9501],[-101.37618,27.95833],[-101.38691,27.96446],[-101.4058,27.96299],[-101.41666,27.97369],[-101.44128,27.98638],[-101.47358,27.98423],[-101.49807,27.972],[-101.49767,28.03772],[-101.50241,28.09066],[-101.53891,28.08968],[-101.61356,28.20938],[-101.59483,28.23495],[-101.58022,28.23483],[-101.48759,28.18686],[-101.42499,28.23137],[-101.31054,28.23932]]]}},{"type":"Feature","properties":{"code":"05006","stateCode":"05","municipalityCode":"006","name":"Castaños"},"geometry":{"type":"Polygon","coordinates":[[[-101.6532,26.85778],[-101.63523,26.84223],[-101.62588,26.84457],[-101.62335,26.83894],[-101.5907,26.81745],[-101.58166,26.80669],[-101.52722,26.84381],[-101.48822,26.81707],[-101.47134,26.81818],[-101.44056,26.83684],[-101.43065,26.83014],[-101.42195,26.83068],[-101.41051,26.83764],[-101.40509,26.83313],[-101.37175,26.82375],[-101.36699,26.81926],[-101.2683,26.84508],[-101.256,26.84517],[-101.22985,26.82985],[-101.20501,26.80732],[-101.19807,26.78771],[-101.19579,26.74799],[-101.1735,26.74152],[-101.14425,26.72504],[-101.1342,26.71647],[-101.12908,26.70703],[-101.11263,26.69767],[-101.05621,26.63684],[-101.04422,26.63481],[-101.0439,26.62878],[-101.01874,26.59768],[-100.99604,26.59781],[-100.99637,26.59309],[-100.99152,26.58875],[-100.99488,26.57989],[-100.99291,26.56955],[-100.98735,26.55936],[-100.98914,26.55383],[-100.98377,26.5456],[-101.20676,26.36978],[-101.09762,26.25291],[-101.09174,26.24451],[-101.07465,26.19897],[-101.12314,26.18521],[-101.14034,26.21744],[-101.18201,26.24107],[-101.22051,26.28149],[-101.2356,26.28994],[-101.23778,26.28513],[-101.31145,26.31013],[-101.31597,26.30007],[-101.32243,26.29766],[-101.34617,26.30522],[-101.34799,26.29584],[-101.37125,26.27018],[-101.45489,26.26737],[-101.52912,26.37725],[-101.50503,26.3911],[-101.56087,26.41828],[-101.51112,26.41073],[-101.48488,26.4206],[-101.49641,26.43122],[-101.50277,26.43152],[-101.50849,26.44408],[-101.51472,26.44731],[-101.51689,26.45329],[-101.59528,26.52971],[-101.65636,26.55879],[-101.68424,26.58924],[-101.68443,26.6094],[-101.71744,26.63344],[-101.73346,26.61231],[-101.83814,26.76896],[-101.80427,26.7953],[-101.65001,26.89212],[-101.6532,26.85778]]]}},{"type":"Feature","properties":{"code":"05003","stateCode":"05","municipalityCode":"003","name":"Allende"},"geometry":{"type":"Polygon","coordinates":[[[-100.80966,28.38095],[-100.77221,28.37127],[-100.77186,28.3746],[-100.73178,28.37393],[-100.7318,28.36097],[-100.74699,28.36293],[-100.74663,28.35929],[-100.77833,28.36533],[-100.7878,28.3621],[-100.80205,28.34992],[-100.80472,28.35286],[-100.89993,28.26776],[-100.87381,28.26098],[-100.87468,28.24749],[-100.8587,28.2433],[-100.86711,28.2185],[-100.87963,28.22295],[-100.87792,28.1905],[-101.03303,28.20027],[-101.03469,28.24413],[-101.02566,28.2447],[-101.0004,28.2686],[-100.93852,28.33634],[-100.88771,28.36092],[-100.80966,28.38095]]]}},{"type":"Feature","properties":{"code":"05012","stateCode":"05","municipalityCode":"012","name":"Guerrero"},"geometry":{"type":"Polygon","coordinates":[[[-100.41006,28.5564],[-100.411,28.54975],[-100.40671,28.53904],[-100.39399,28.5274],[-100.38803,28.51495],[-100.33387,28.49928],[-100.33594,28.49326],[-100.34437,28.48616],[-100.36478,28.48151],[-100.3684,28.47667],[-100.33747,28.44302],[-100.33591,28.43014],[-100.34201,28.41355],[-100.34948,28.4034],[-100.34293,28.38716],[-100.31876,28.36002],[-100.31452,28.34606],[-100.28676,28.31324],[-100.29424,28.28357],[-100.29278,28.27748],[-100.28175,28.26951],[-100.25452,28.23787],[-100.24425,28.23438],[-100.22479,28.23575],[-100.22064,28.23276],[-100.20916,28.19123],[-100.18425,28.18496],[-100.17381,28.17891],[-100.1676,28.17093],[-100.15912,28.16769],[-100.14068,28.16801],[-100.12007,28.15585],[-100.08704,28.14682],[-100.06781,28.11433],[-100.05539,28.10235],[-100.05569,28.0905],[-100.11427,28.05753],[-100.08015,27.98895],[-100.08702,27.97608],[-100.18613,27.96174],[-100.1844,27.8534],[-100.32182,27.8333],[-100.29877,27.74389],[-100.65852,27.82144],[-100.60195,27.9782],[-100.58026,27.97439],[-100.57197,28.00514],[-100.54663,27.9985],[-100.53812,28.02862],[-100.58046,28.05142],[-100.58737,28.05672],[-100.57983,28.06497],[-100.59191,28.06674],[-100.54555,28.1194],[-100.642,28.13444],[-100.64519,28.13845],[-100.64072,28.14135],[-100.64738,28.15029],[-100.64689,28.1564],[-100.65059,28.15644],[-100.66964,28.22697],[-100.62996,28.23195],[-100.59932,28.33186],[-100.50977,28.37448],[-100.48654,28.41114],[-100.48261,28.40996],[-100.4585,28.45425],[-100.49944,28.47501],[-100.47717,28.48456],[-100.4892,28.52993],[-100.46812,28.53757],[-100.45895,28.53508],[-100.44895,28.5389],[-100.4445,28.537],[-100.43021,28.5508],[-100.41777,28.55028],[-100.41612,28.55618],[-100.41006,28.5564]]]}},{"type":"Feature","properties":{"code":"05009","stateCode":"05","municipalityCode":"009","name":"Francisco I. Madero"},"geometry":{"type":"Polygon","coordinates":[[[-103.16467,26.7541],[-103.05045,26.64835],[-103.0008,26.72501],[-102.96788,26.70654],[-103.00764,26.62443],[-103.00932,26.61451],[-103.03902,26.5809],[-103.03644,26.57432],[-103.01378,26.55603],[-103.00622,26.53409],[-103.03862,26.52278],[-103.0245,26.50106],[-102.9997,26.49826],[-102.98822,26.42515],[-102.95803,26.42216],[-102.97789,26.38563],[-102.96218,26.37004],[-102.95267,26.34486],[-102.949,26.30092],[-102.87966,26.29597],[-102.9065,26.24519],[-102.91128,26.2289],[-102.89889,26.21946],[-102.90021,26.20413],[-102.89439,26.17838],[-102.89432,26.16106],[-102.92635,26.16591],[-102.92396,26.18314],[-102.96868,26.19703],[-102.96983,26.18945],[-103.15607,26.20961],[-103.1573,26.19152],[-103.16257,26.17936],[-103.11757,26.17366],[-103.12198,26.14179],[-103.16551,26.14733],[-103.16218,26.11739],[-103.16478,26.09184],[-103.18497,26.0975],[-103.21229,26.12015],[-103.21635,26.04742],[-103.16812,26.04215],[-103.13707,26.0315],[-103.1447,25.9758],[-103.15394,25.96525],[-103.17003,25.96139],[-103.16597,25.96592],[-103.16668,25.97686],[-103.18129,25.97769],[-103.18569,25.96743],[-103.19294,25.968],[-103.19662,25.9474],[-103.18078,25.94413],[-103.17667,25.9355],[-103.18505,25.91522],[-103.20423,25.8942],[-103.20646,25.9263],[-103.2111,25.92609],[-103.21457,25.87151],[-103.2351,25.82765],[-103.20446,25.81746],[-103.22052,25.77655],[-103.2279,25.77583],[-103.23152,25.76328],[-103.23842,25.75581],[-103.24325,25.75708],[-103.24257,25.7505],[-103.23619,25.75315],[-103.25,25.74231],[-103.25161,25.73563],[-103.26702,25.72707],[-103.27309,25.71154],[-103.27847,25.70788],[-103.29399,25.70683],[-103.29639,25.71805],[-103.30317,25.71662],[-103.30332,25.72023],[-103.31,25.72197],[-103.3026,25.73229],[-103.30007,25.74315],[-103.30291,25.74453],[-103.29593,25.75635],[-103.30531,25.7536],[-103.32074,25.73763],[-103.32839,25.7373],[-103.32645,25.7356],[-103.33017,25.73003],[-103.33924,25.7254],[-103.32639,25.76045],[-103.32675,25.77242],[-103.32115,25.79797],[-103.32303,25.79993],[-103.31859,25.8127],[-103.32289,25.82508],[-103.33167,25.83166],[-103.34636,25.8603],[-103.35049,26.14239],[-103.26083,26.28473],[-103.31679,26.36178],[-103.37418,26.60235],[-103.41596,26.61674],[-103.3658,26.65408],[-103.16467,26.7541]]]}},{"type":"Feature","properties":{"code":"05005","stateCode":"05","municipalityCode":"005","name":"Candela"},"geometry":{"type":"Polygon","coordinates":[[[-100.68054,27.11084],[-100.67679,27.10688],[-100.67424,27.0846],[-100.66249,27.08651],[-100.65602,27.08213],[-100.6537,27.07573],[-100.534,27.04558],[-100.53881,27.03868],[-100.5357,27.027],[-100.54082,27.01382],[-100.53974,26.98625],[-100.54525,26.97836],[-100.53824,26.93972],[-100.54493,26.92535],[-100.53843,26.90612],[-100.54067,26.88097],[-100.55136,26.85873],[-100.54662,26.84766],[-100.54473,26.82269],[-100.54172,26.82125],[-100.54143,26.81274],[-100.53816,26.80856],[-100.59014,26.75952],[-100.60131,26.73708],[-100.6144,26.68564],[-100.69123,26.61379],[-100.75304,26.73521],[-100.98377,26.5456],[-100.98914,26.55383],[-100.98735,26.55936],[-100.99291,26.56955],[-100.99488,26.57989],[-100.99152,26.58875],[-100.99637,26.59309],[-100.99604,26.59781],[-101.01874,26.59768],[-101.0439,26.62878],[-101.04422,26.63481],[-101.05621,26.63684],[-101.11263,26.69767],[-101.1107,26.70425],[-101.00726,26.79479],[-100.98285,26.78524],[-100.97006,26.78641],[-100.9663,26.78946],[-100.97493,26.79527],[-100.98104,26.80998],[-100.93827,26.83931],[-100.93389,26.87009],[-100.91674,26.88259],[-100.94037,26.91257],[-100.95876,26.92984],[-100.98167,26.96715],[-100.99591,26.97541],[-101.03788,26.98389],[-101.0608,27.02355],[-100.92479,27.10741],[-100.92108,27.09372],[-100.92509,27.08751],[-100.92255,27.07835],[-100.91331,27.06625],[-100.91653,27.06511],[-100.89932,27.02134],[-100.89403,27.02795],[-100.87164,27.03762],[-100.83056,27.07389],[-100.80961,27.06837],[-100.80927,27.05648],[-100.79833,27.04533],[-100.78423,27.05892],[-100.76267,27.06263],[-100.74757,27.04757],[-100.74771,27.03626],[-100.73584,27.04758],[-100.74618,27.06236],[-100.74862,27.08125],[-100.73771,27.08473],[-100.72613,27.07788],[-100.71966,27.0792],[-100.71165,27.08849],[-100.70933,27.09876],[-100.6989,27.10762],[-100.68054,27.11084]]]}},{"type":"Feature","properties":{"code":"05004","stateCode":"05","municipalityCode":"004","name":"Arteaga"},"geometry":{"type":"Polygon","coordinates":[[[-100.71408,25.52172],[-100.68457,25.5254],[-100.65923,25.52386],[-100.65563,25.5194],[-100.60858,25.51345],[-100.61909,25.50569],[-100.57951,25.49454],[-100.58489,25.47081],[-100.56097,25.46454],[-100.53088,25.46347],[-100.52541,25.44975],[-100.51746,25.44904],[-100.5227,25.43432],[-100.49355,25.43084],[-100.45416,25.41337],[-100.45195,25.40812],[-100.4701,25.33779],[-100.41456,25.327],[-100.41436,25.3299],[-100.39103,25.32806],[-100.32508,25.34024],[-100.28158,25.31971],[-100.26397,25.30529],[-100.25414,25.30691],[-100.24314,25.26744],[-100.25394,25.26557],[-100.26251,25.25402],[-100.23442,25.2355],[-100.24469,25.22899],[-100.2472,25.23017],[-100.22958,25.21792],[-100.26138,25.20707],[-100.30528,25.21342],[-100.32555,25.22226],[-100.33201,25.18629],[-100.47252,25.2312],[-100.54784,25.24363],[-100.59196,25.25505],[-100.70889,25.23646],[-100.80313,25.16526],[-100.80455,25.15326],[-100.86963,25.17277],[-100.89695,25.17726],[-100.89516,25.2034],[-100.91326,25.23237],[-100.91126,25.24739],[-100.89001,25.24521],[-100.88714,25.26522],[-100.88936,25.28883],[-100.89788,25.29787],[-100.90176,25.29775],[-100.90239,25.30265],[-100.9512,25.31538],[-100.91979,25.34187],[-100.91613,25.32252],[-100.88787,25.31639],[-100.87546,25.30998],[-100.8693,25.32684],[-100.86126,25.32479],[-100.86163,25.33291],[-100.89546,25.34212],[-100.9067,25.35718],[-100.9247,25.36813],[-100.91227,25.37219],[-100.87387,25.36173],[-100.86996,25.36513],[-100.86203,25.36114],[-100.85303,25.36267],[-100.85418,25.35924],[-100.84406,25.35632],[-100.83888,25.362],[-100.87399,25.3939],[-100.88558,25.3888],[-100.90867,25.45896],[-100.90506,25.46158],[-100.90712,25.46955],[-100.90302,25.47222],[-100.90665,25.47991],[-100.93667,25.48885],[-100.92939,25.5004],[-100.9264,25.51235],[-100.91468,25.50689],[-100.90961,25.51705],[-100.88563,25.48918],[-100.871,25.48883],[-100.82576,25.51124],[-100.77967,25.5089],[-100.75732,25.52433],[-100.73694,25.52883],[-100.72474,25.53584],[-100.71408,25.52172]]]}},{"type":"Feature","properties":{"code":"05016","stateCode":"05","municipalityCode":"016","name":"Lamadrid"},"geometry":{"type":"Polygon","coordinates":[[[-101.89261,27.29821],[-101.8517,27.27147],[-101.78473,27.15341],[-101.77033,27.11145],[-101.75803,27.11312],[-101.71006,27.03776],[-101.71168,27.03443],[-101.78143,27.04245],[-101.78416,27.0339],[-101.80948,27.03402],[-101.81343,27.02147],[-101.82628,27.02115],[-101.83512,27.03653],[-101.84393,27.03961],[-101.86749,27.06395],[-101.87169,27.07284],[-101.8918,27.04744],[-101.93784,27.04782],[-101.94265,27.02389],[-102.00019,27.02102],[-102.0086,27.06853],[-102.00298,27.07695],[-102.05057,27.14716],[-102.05032,27.15883],[-102.05579,27.16303],[-102.07988,27.16717],[-102.08402,27.16147],[-102.09347,27.18806],[-102.09368,27.2315],[-102.09743,27.2406],[-102.03445,27.23639],[-102.02794,27.25305],[-102.01111,27.26317],[-101.99525,27.26399],[-101.97142,27.24785],[-101.89565,27.30557],[-101.89261,27.29821]]]}},{"type":"Feature","properties":{"code":"05035","stateCode":"05","municipalityCode":"035","name":"Torreón"},"geometry":{"type":"MultiPolygon","coordinates":[[[[-103.42797,25.30109],[-103.3861,25.27426],[-103.37577,25.27344],[-103.34561,25.25908],[-103.34624,25.22299],[-103.19593,25.19447],[-103.19041,25.16034],[-103.12151,25.11657],[-103.10379,25.11179],[-103.09771,25.02398],[-103.06324,25.00943],[-103.04494,24.9858],[-103.01914,24.97158],[-103.06908,24.97379],[-103.03826,24.9619],[-103.04442,24.94059],[-103.05359,24.92503],[-102.95698,24.86474],[-102.95681,24.83173],[-102.99301,24.81427],[-102.99047,24.7942],[-103.00111,24.79841],[-103.00229,24.79404],[-103.00594,24.7934],[-103.01507,24.80095],[-103.02182,24.79994],[-103.03336,24.81084],[-103.05374,24.80994],[-103.06885,24.81856],[-103.09276,24.82273],[-103.25915,24.96466],[-103.24536,24.98246],[-103.24866,24.99252],[-103.24656,24.99603],[-103.27047,25.01566],[-103.27405,25.02336],[-103.26749,25.02804],[-103.27802,25.03461],[-103.26945,25.04024],[-103.27446,25.04595],[-103.26879,25.04914],[-103.26958,25.05489],[-103.26151,25.05417],[-103.26177,25.0581],[-103.27109,25.06043],[-103.27408,25.06455],[-103.27823,25.06297],[-103.29124,25.07053],[-103.29501,25.07998],[-103.31245,25.08507],[-103.32227,25.09429],[-103.33723,25.09913],[-103.34266,25.11033],[-103.35144,25.10722],[-103.35954,25.11003],[-103.3704,25.12401],[-103.37714,25.14205],[-103.39429,25.15774],[-103.3982,25.17548],[-103.40286,25.18235],[-103.40924,25.18239],[-103.41832,25.19201],[-103.41843,25.19638],[-103.4258,25.20154],[-103.43221,25.19952],[-103.43868,25.20196],[-103.45006,25.21905],[-103.45021,25.22861],[-103.46623,25.23868],[-103.47318,25.25011],[-103.49672,25.25575],[-103.50383,25.27465],[-103.51094,25.27982],[-103.50743,25.28402],[-103.50935,25.29146],[-103.49767,25.29515],[-103.49508,25.31166],[-103.46643,25.27678],[-103.44425,25.27908],[-103.47013,25.30102],[-103.4413,25.32122],[-103.42797,25.30109]]],[[[-103.3469,25.64161],[-103.36615,25.62607],[-103.30179,25.61667],[-103.28893,25.61835],[-103.2882,25.61547],[-103.27474,25.61294],[-103.25957,25.5795],[-103.29061,25.58507],[-103.29246,25.57641],[-103.3027,25.5795],[-103.34219,25.42211],[-103.34137,25.41014],[-103.36906,25.41646],[-103.39065,25.43459],[-103.39875,25.4506],[-103.43573,25.47907],[-103.49441,25.53773],[-103.46956,25.54644],[-103.45465,25.55793],[-103.45099,25.57893],[-103.43537,25.58278],[-103.4333,25.58808],[-103.43841,25.59664],[-103.42962,25.59892],[-103.42685,25.61209],[-103.41603,25.61442],[-103.42495,25.61999],[-103.42477,25.62368],[-103.40328,25.62813],[-103.40874,25.63967],[-103.406,25.64503],[-103.39867,25.6459],[-103.38142,25.64034],[-103.38313,25.65516],[-103.36562,25.67077],[-103.35959,25.68873],[-103.35543,25.69139],[-103.35534,25.679],[-103.36039,25.67677],[-103.34846,25.67214],[-103.3469,25.64161]]]]}},{"type":"Feature","properties":{"code":"05014","stateCode":"05","municipalityCode":"014","name":"Jiménez"},"geometry":{"type":"Polygon","coordinates":[[[-100.87922,29.28149],[-100.85509,29.27572],[-100.83488,29.26159],[-100.81379,29.26371],[-100.8162,29.25364],[-100.80576,29.25206],[-100.79598,29.24519],[-100.79581,29.22876],[-100.79165,29.2256],[-100.78517,29.22787],[-100.77383,29.21057],[-100.77603,29.19975],[-100.76933,29.19924],[-100.76701,29.19571],[-100.76625,29.1849],[-100.77608,29.1727],[-100.77278,29.16839],[-100.76411,29.16542],[-100.75959,29.15703],[-100.73932,29.15018],[-100.73704,29.14771],[-100.73877,29.14034],[-100.72447,29.12728],[-100.70879,29.11889],[-100.68441,29.11139],[-100.67361,29.09998],[-100.66442,29.07468],[-100.66021,29.03192],[-100.64567,28.9879],[-100.64851,28.98291],[-100.64637,28.96748],[-100.65062,28.96224],[-100.64698,28.95643],[-100.65171,28.94415],[-100.64792,28.94075],[-100.67053,28.93121],[-100.70111,28.93813],[-100.70481,28.93386],[-100.70216,28.92902],[-100.68537,28.92477],[-100.68679,28.91531],[-100.72434,28.91123],[-100.7656,28.86539],[-100.74657,28.8462],[-100.76684,28.85018],[-100.77286,28.84806],[-100.78155,28.83411],[-100.81787,28.82701],[-100.82835,28.82181],[-100.84845,28.80212],[-100.84922,28.79596],[-100.84189,28.78277],[-100.8427,28.77865],[-100.86688,28.76998],[-100.87688,28.75491],[-100.91244,28.73152],[-100.94105,28.72987],[-101.00842,28.73783],[-101.05308,28.76064],[-101.08238,28.76353],[-101.09588,28.77217],[-101.10492,28.76994],[-101.11671,28.77459],[-101.13259,28.76966],[-101.14507,28.77341],[-101.14952,28.76931],[-101.15842,28.77024],[-101.12252,28.85645],[-101.11349,29.0495],[-101.34785,29.07236],[-101.33935,29.1829],[-101.04771,29.15493],[-101.04259,29.14178],[-101.04245,29.16024],[-101.00454,29.16007],[-101.00401,29.18871],[-100.95178,29.18858],[-100.95215,29.19364],[-100.94763,29.19347],[-100.95405,29.21144],[-100.94797,29.21479],[-100.94479,29.22398],[-100.93683,29.22484],[-100.93534,29.22135],[-100.92914,29.22456],[-100.92903,29.21986],[-100.9208,29.21973],[-100.92089,29.22289],[-100.91016,29.22281],[-100.91066,29.22584],[-100.87968,29.22798],[-100.87963,29.21008],[-100.85945,29.20904],[-100.85938,29.22171],[-100.84887,29.2228],[-100.84886,29.23919],[-100.85702,29.23814],[-100.85922,29.24677],[-100.85635,29.25157],[-100.87922,29.28149]]]}},{"type":"Feature","properties":{"code":"05008","stateCode":"05","municipalityCode":"008","name":"Escobedo"},"geometry":{"type":"Polygon","coordinates":[[[-101.41462,27.51142],[-101.36497,27.5115],[-101.37015,27.4837],[-101.31282,27.48561],[-101.29844,27.43734],[-101.29159,27.40182],[-101.20301,27.3602],[-101.19774,27.34812],[-101.18448,27.34364],[-101.18607,27.34087],[-101.15328,27.31229],[-101.15578,27.29466],[-101.14748,27.2987],[-101.11566,27.29166],[-101.10828,27.28939],[-101.08899,27.27475],[-101.05065,27.23072],[-101.03907,27.20995],[-101.03885,27.19116],[-101.03409,27.19032],[-101.02032,27.17733],[-101.0004,27.1729],[-100.97172,27.147],[-100.96425,27.15069],[-100.94922,27.13863],[-100.92479,27.10741],[-100.94233,27.09645],[-101.12574,27.15031],[-101.17638,27.12207],[-101.18765,27.15981],[-101.1957,27.16564],[-101.21219,27.17019],[-101.2166,27.19432],[-101.20121,27.21007],[-101.23321,27.20962],[-101.25528,27.22528],[-101.25964,27.24179],[-101.26557,27.24927],[-101.30545,27.26761],[-101.32199,27.27916],[-101.3708,27.21483],[-101.37747,27.22012],[-101.3776,27.21695],[-101.39066,27.20719],[-101.42707,27.18485],[-101.43437,27.18891],[-101.43852,27.19777],[-101.44002,27.1939],[-101.4526,27.20479],[-101.45619,27.20279],[-101.45603,27.2067],[-101.46008,27.20531],[-101.47581,27.21364],[-101.44393,27.31536],[-101.4773,27.31607],[-101.45682,27.38756],[-101.49663,27.4445],[-101.49989,27.49396],[-101.50996,27.51594],[-101.41216,27.51736],[-101.41462,27.51142]]]}},{"type":"Feature","properties":{"code":"05019","stateCode":"05","municipalityCode":"019","name":"Morelos"},"geometry":{"type":"Polygon","coordinates":[[[-100.86883,28.45348],[-100.8393,28.43426],[-100.82702,28.43785],[-100.80827,28.42445],[-100.80966,28.38095],[-100.86366,28.36886],[-100.92925,28.34237],[-100.94567,28.3297],[-101.0004,28.2686],[-101.02566,28.2447],[-101.30422,28.2224],[-101.29942,28.33801],[-101.21579,28.37646],[-101.00042,28.39311],[-100.96272,28.40033],[-100.93814,28.43221],[-100.90453,28.4458],[-100.90253,28.44341],[-100.86883,28.45348]]]}},{"type":"Feature","properties":{"code":"05038","stateCode":"05","municipalityCode":"038","name":"Zaragoza"},"geometry":{"type":"Polygon","coordinates":[[[-101.51877,29.37184],[-101.46213,29.23521],[-101.33206,29.27757],[-101.34785,29.07236],[-101.11349,29.0495],[-101.12252,28.85645],[-101.15842,28.77024],[-101.14952,28.76931],[-101.14507,28.77341],[-101.13259,28.76966],[-101.11671,28.77459],[-101.10492,28.76994],[-101.09588,28.77217],[-101.08238,28.76353],[-101.05308,28.76064],[-101.00842,28.73783],[-100.94105,28.72987],[-100.91244,28.73152],[-100.87688,28.75491],[-100.86688,28.76998],[-100.8427,28.77865],[-100.84189,28.78277],[-100.84922,28.79596],[-100.84845,28.80212],[-100.82835,28.82181],[-100.81787,28.82701],[-100.78726,28.83158],[-100.78155,28.83411],[-100.77286,28.84806],[-100.7586,28.84878],[-100.74657,28.8462],[-100.67672,28.75227],[-100.65264,28.74869],[-100.63806,28.65595],[-100.61377,28.64957],[-100.60367,28.6515],[-100.61984,28.64191],[-100.63595,28.64247],[-100.64628,28.6318],[-100.66618,28.62454],[-100.68822,28.60643],[-100.70298,28.60482],[-100.7111,28.60031],[-100.7128,28.59424],[-100.75208,28.55469],[-100.76267,28.55062],[-100.79434,28.51484],[-100.8393,28.43426],[-100.86883,28.45348],[-100.90253,28.44341],[-100.90453,28.4458],[-100.93814,28.43221],[-100.96272,28.40033],[-101.00042,28.39311],[-101.21579,28.37646],[-101.71697,28.50911],[-101.75253,28.57744],[-101.9972,28.98401],[-101.89418,29.16288],[-101.88651,29.16167],[-101.82982,29.27001],[-101.51877,29.37184]]]}},{"type":"Feature","properties":{"code":"05037","stateCode":"05","municipalityCode":"037","name":"Villa Unión"},"geometry":{"type":"Polygon","coordinates":[[[-100.59692,28.3331],[-100.62996,28.23195],[-100.66964,28.22697],[-100.65059,28.15644],[-100.64689,28.1564],[-100.64738,28.15029],[-100.64072,28.14135],[-100.64519,28.13845],[-100.642,28.13444],[-100.54555,28.1194],[-100.59191,28.06674],[-100.57983,28.06497],[-100.58737,28.05672],[-100.58046,28.05142],[-100.53812,28.02862],[-100.54663,27.9985],[-100.57197,28.00514],[-100.58026,27.97439],[-100.60195,27.9782],[-100.65852,27.82144],[-100.75167,27.85086],[-100.9502,27.92658],[-100.95897,27.98189],[-101.0159,28.00384],[-101.02962,28.09129],[-101.03303,28.20027],[-100.87792,28.1905],[-100.87963,28.22295],[-100.86711,28.2185],[-100.8587,28.2433],[-100.87468,28.24749],[-100.87381,28.26098],[-100.89993,28.26776],[-100.81847,28.34287],[-100.80472,28.35286],[-100.80205,28.34992],[-100.7878,28.3621],[-100.77998,28.36484],[-100.74663,28.35929],[-100.74699,28.36293],[-100.7318,28.36097],[-100.73178,28.37393],[-100.61204,28.37746],[-100.59692,28.3331]]]}},{"type":"Feature","properties":{"code":"05001","stateCode":"05","municipalityCode":"001","name":"Abasolo"},"geometry":{"type":"Polygon","coordinates":[[[-101.32199,27.27916],[-101.26557,27.24927],[-101.25964,27.24179],[-101.25528,27.22528],[-101.23321,27.20962],[-101.20121,27.21007],[-101.2166,27.19432],[-101.21219,27.17019],[-101.1957,27.16564],[-101.18765,27.15981],[-101.17638,27.12207],[-101.12574,27.15031],[-100.94233,27.09645],[-101.06746,27.02071],[-101.07635,27.04249],[-101.17966,27.0118],[-101.20524,27.0406],[-101.26413,27.00699],[-101.29774,27.02069],[-101.34693,27.06301],[-101.41288,27.10073],[-101.43169,27.10584],[-101.43733,27.12799],[-101.44418,27.13291],[-101.47732,27.14457],[-101.48685,27.14204],[-101.49738,27.14483],[-101.47581,27.21364],[-101.46008,27.20531],[-101.45603,27.2067],[-101.45619,27.20279],[-101.4526,27.20479],[-101.44002,27.1939],[-101.43852,27.19777],[-101.43437,27.18891],[-101.42707,27.18485],[-101.39066,27.20719],[-101.3776,27.21695],[-101.37747,27.22012],[-101.3708,27.21483],[-101.32199,27.27916]]]}},{"type":"Feature","properties":{"code":"05017","stateCode":"05","municipalityCode":"017","name":"Matamoros"},"geometry":{"type":"Polygon","coordinates":[[[-103.2211,25.77556],[-103.22664,25.7616],[-103.22342,25.75742],[-103.21511,25.75356],[-103.20527,25.75793],[-103.19896,25.68005],[-103.15561,25.67386],[-103.14344,25.66937],[-103.13808,25.66258],[-103.1362,25.67031],[-103.12157,25.65447],[-103.11203,25.6573],[-103.10549,25.64258],[-103.07423,25.61939],[-103.06345,25.64931],[-103.03047,25.64258],[-103.03209,25.63485],[-103.0745,25.59709],[-103.08058,25.6027],[-103.09512,25.59975],[-103.08466,25.57523],[-103.08707,25.57048],[-103.08622,25.54817],[-103.08196,25.54765],[-103.08973,25.50249],[-103.08122,25.50152],[-103.08109,25.49223],[-103.08417,25.47429],[-103.09414,25.47569],[-103.10966,25.39059],[-103.12364,25.39401],[-103.12428,25.39117],[-103.13802,25.39344],[-103.13826,25.40247],[-103.14536,25.40684],[-103.16069,25.40684],[-103.16491,25.40868],[-103.16442,25.41149],[-103.26593,25.41478],[-103.30708,25.38967],[-103.31146,25.38213],[-103.31687,25.38265],[-103.3242,25.37236],[-103.32835,25.37107],[-103.3312,25.37446],[-103.33692,25.37134],[-103.33763,25.39718],[-103.34354,25.4161],[-103.3027,25.5795],[-103.29246,25.57641],[-103.29061,25.58507],[-103.25957,25.5795],[-103.27474,25.61294],[-103.2882,25.61547],[-103.28893,25.61835],[-103.30179,25.61667],[-103.36615,25.62607],[-103.34549,25.64556],[-103.34846,25.67214],[-103.36039,25.67677],[-103.35534,25.679],[-103.35543,25.69139],[-103.34921,25.69344],[-103.35499,25.69986],[-103.33939,25.7079],[-103.35284,25.71655],[-103.33017,25.73003],[-103.32645,25.7356],[-103.32839,25.7373],[-103.32074,25.73763],[-103.30531,25.7536],[-103.29593,25.75635],[-103.30291,25.74453],[-103.30007,25.74315],[-103.3026,25.73229],[-103.31,25.72197],[-103.30332,25.72023],[-103.30317,25.71662],[-103.29639,25.71805],[-103.29399,25.70683],[-103.27847,25.70788],[-103.27309,25.71154],[-103.26702,25.72707],[-103.25161,25.73563],[-103.25,25.74231],[-103.23619,25.75315],[-103.24257,25.7505],[-103.24325,25.75708],[-103.23842,25.75581],[-103.23152,25.76328],[-103.2279,25.77583],[-103.2211,25.77556]]]}},{"type":"Feature","properties":{"code":"05002","stateCode":"05","municipalityCode":"002","name":"Acuña"},"geometry":{"type":"Polygon","coordinates":[[[-102.31549,29.88],[-102.31163,29.877],[-102.30075,29.87769],[-102.28711,29.87133],[-102.28124,29.86293],[-102.2651,29.8677],[-102.26203,29.86318],[-102.26402,29.85527],[-102.26034,29.85312],[-102.25275,29.85348],[-102.24995,29.86344],[-102.24644,29.86423],[-102.24334,29.85928],[-102.2446,29.84877],[-102.23179,29.84833],[-102.22323,29.84054],[-102.20984,29.84447],[-102.19626,29.83626],[-102.19122,29.84707],[-102.18703,29.84877],[-102.17854,29.84009],[-102.18122,29.83106],[-102.17955,29.82606],[-102.167,29.82594],[-102.15962,29.81442],[-102.1495,29.81109],[-102.14358,29.80358],[-102.12906,29.79858],[-102.1194,29.80264],[-102.11527,29.79242],[-102.10124,29.79387],[-102.09427,29.79143],[-102.08365,29.79529],[-102.07222,29.78662],[-102.04912,29.78546],[-102.04618,29.79012],[-102.03814,29.79192],[-102.04083,29.79934],[-102.03545,29.80425],[-102.02167,29.80276],[-102.01457,29.79755],[-101.9972,29.80618],[-101.98786,29.79699],[-101.98158,29.80635],[-101.98174,29.81497],[-101.97549,29.81568],[-101.96662,29.81261],[-101.96312,29.8],[-101.95762,29.79587],[-101.94568,29.80151],[-101.93543,29.79956],[-101.93256,29.79342],[-101.93388,29.78629],[-101.92895,29.78271],[-101.92236,29.78579],[-101.91193,29.79804],[-101.87483,29.79408],[-101.85321,29.80776],[-101.84851,29.8065],[-101.83597,29.79235],[-101.8236,29.78727],[-101.81867,29.79254],[-101.82552,29.80751],[-101.81765,29.81167],[-101.80377,29.80379],[-101.81403,29.79241],[-101.8113,29.78423],[-101.80437,29.78004],[-101.78879,29.77956],[-101.78546,29.78833],[-101.7753,29.78917],[-101.75459,29.77746],[-101.74237,29.77896],[-101.73455,29.77149],[-101.71924,29.77572],[-101.71008,29.76182],[-101.68966,29.77108],[-101.68181,29.76113],[-101.67603,29.76057],[-101.67086,29.76907],[-101.66146,29.77126],[-101.65474,29.76552],[-101.65217,29.7586],[-101.64386,29.75407],[-101.63388,29.75988],[-101.62719,29.77087],[-101.6164,29.76975],[-101.60394,29.77445],[-101.57486,29.76928],[-101.57237,29.77459],[-101.57466,29.78847],[-101.56948,29.79681],[-101.55257,29.80409],[-101.54465,29.81219],[-101.53499,29.7976],[-101.53896,29.78636],[-101.53973,29.76136],[-101.53665,29.75812],[-101.52,29.76493],[-101.50222,29.76416],[-101.48642,29.77441],[-101.47946,29.78347],[-101.4643,29.78961],[-101.45721,29.78882],[-101.45342,29.78467],[-101.45547,29.77067],[-101.45104,29.7533],[-101.44768,29.75049],[-101.43686,29.7511],[-101.41387,29.76842],[-101.40263,29.7713],[-101.39865,29.76264],[-101.4149,29.75259],[-101.4157,29.74641],[-101.39718,29.73535],[-101.39768,29.71379],[-101.37091,29.69881],[-101.37349,29.67748],[-101.36433,29.6669],[-101.36071,29.64869],[-101.35551,29.64936],[-101.34586,29.66276],[-101.33688,29.65963],[-101.31902,29.66064],[-101.30175,29.65096],[-101.3005,29.63794],[-101.31268,29.6059],[-101.31002,29.58537],[-101.30223,29.57603],[-101.29152,29.57208],[-101.27891,29.58767],[-101.27694,29.60111],[-101.28077,29.61715],[-101.27027,29.62822],[-101.26205,29.63025],[-101.24915,29.62286],[-101.24802,29.61581],[-101.25226,29.60316],[-101.24301,29.56617],[-101.25833,29.54277],[-101.26004,29.52377],[-101.25577,29.52089],[-101.23631,29.52373],[-101.18555,29.518],[-101.17613,29.51202],[-101.14763,29.47446],[-101.12981,29.47669],[-101.11309,29.47006],[-101.08772,29.4727],[-101.06181,29.46425],[-101.057,29.44075],[-101.04319,29.42943],[-101.03707,29.40645],[-101.01811,29.38931],[-101.01006,29.36853],[-100.97373,29.35521],[-100.96478,29.34756],[-100.95024,29.34794],[-100.94381,29.34304],[-100.93985,29.33262],[-100.91893,29.32548],[-100.91703,29.31939],[-100.90795,29.31695],[-100.90057,29.31024],[-100.88634,29.30769],[-100.88132,29.29833],[-100.88012,29.28227],[-100.85635,29.25157],[-100.85922,29.24677],[-100.85813,29.24017],[-100.84886,29.23919],[-100.84887,29.2228],[-100.85938,29.22171],[-100.85945,29.20904],[-100.87963,29.21008],[-100.87968,29.22798],[-100.91066,29.22584],[-100.91016,29.22281],[-100.92089,29.22289],[-100.9208,29.21973],[-100.92903,29.21986],[-100.92914,29.22456],[-100.93534,29.22135],[-100.93683,29.22484],[-100.94479,29.22398],[-100.94797,29.21479],[-100.95405,29.21144],[-100.94763,29.19347],[-100.95215,29.19364],[-100.95178,29.18858],[-101.00401,29.18871],[-101.00454,29.16007],[-101.04245,29.16024],[-101.04259,29.14178],[-101.04771,29.15493],[-101.33935,29.1829],[-101.33206,29.27757],[-101.46213,29.23521],[-101.51877,29.37184],[-101.82982,29.27001],[-101.88651,29.16167],[-101.89418,29.16288],[-101.9972,28.98401],[-102.13862,29.00852],[-102.4047,29.06406],[-102.45303,28.98508],[-102.46674,28.97007],[-102.64184,29.11026],[-102.75536,29.1689],[-102.87462,29.24365],[-102.88762,29.2457],[-102.89674,29.25408],[-102.9029,29.25409],[-102.90634,29.26191],[-102.89918,29.26921],[-102.90319,29.27911],[-102.89044,29.28786],[-102.88818,29.29269],[-102.89312,29.30786],[-102.88723,29.31147],[-102.88114,29.33362],[-102.88023,29.34121],[-102.88398,29.34798],[-102.87701,29.35485],[-102.86142,29.35129],[-102.83922,29.3589],[-102.84529,29.36491],[-102.84494,29.37431],[-102.83401,29.37875],[-102.83278,29.38833],[-102.8254,29.39693],[-102.81557,29.39692],[-102.81239,29.40027],[-102.81871,29.40356],[-102.82563,29.40235],[-102.82627,29.40751],[-102.83322,29.4102],[-102.82696,29.4173],[-102.83226,29.43271],[-102.83074,29.44427],[-102.81937,29.45078],[-102.82382,29.45208],[-102.82538,29.45794],[-102.8142,29.47146],[-102.81459,29.48248],[-102.80067,29.48614],[-102.80726,29.49423],[-102.8044,29.50128],[-102.80734,29.50386],[-102.80832,29.52264],[-102.79215,29.53272],[-102.79087,29.54321],[-102.78038,29.54236],[-102.77105,29.5484],[-102.77738,29.55491],[-102.77774,29.56069],[-102.77335,29.56676],[-102.77399,29.57319],[-102.76628,29.57206],[-102.76213,29.57954],[-102.76842,29.59494],[-102.76016,29.59851],[-102.74591,29.59258],[-102.7402,29.5979],[-102.73856,29.61891],[-102.74102,29.63586],[-102.7374,29.6419],[-102.72972,29.6406],[-102.72572,29.64326],[-102.72568,29.6513],[-102.71774,29.65426],[-102.70404,29.67128],[-102.69651,29.67196],[-102.69331,29.67672],[-102.69943,29.68546],[-102.69862,29.69735],[-102.68891,29.70514],[-102.69103,29.72201],[-102.68149,29.72827],[-102.67487,29.74406],[-102.6683,29.74591],[-102.66696,29.739],[-102.6596,29.73547],[-102.63028,29.73404],[-102.6225,29.73631],[-102.61241,29.74822],[-102.59787,29.75133],[-102.58898,29.74901],[-102.5794,29.75563],[-102.57404,29.75502],[-102.57507,29.76617],[-102.56957,29.77174],[-102.56322,29.7679],[-102.55501,29.7549],[-102.55533,29.74908],[-102.54805,29.7446],[-102.51367,29.76574],[-102.51079,29.77358],[-102.5187,29.77882],[-102.51778,29.78394],[-102.49915,29.78115],[-102.48725,29.78693],[-102.48226,29.78331],[-102.48079,29.77621],[-102.47234,29.77639],[-102.46624,29.78378],[-102.45836,29.775],[-102.44835,29.77788],[-102.43919,29.77351],[-102.43421,29.77714],[-102.42238,29.76978],[-102.4122,29.76842],[-102.40928,29.76471],[-102.39448,29.76927],[-102.38758,29.76151],[-102.38505,29.77113],[-102.39027,29.78239],[-102.37721,29.79009],[-102.37756,29.80047],[-102.36311,29.8314],[-102.36491,29.84555],[-102.35215,29.8529],[-102.35002,29.86271],[-102.3432,29.86537],[-102.34151,29.86939],[-102.33376,29.86825],[-102.33213,29.8629],[-102.32368,29.86403],[-102.3248,29.87347],[-102.32114,29.87884],[-102.31549,29.88]]]}},{"type":"Feature","properties":{"code":"05026","stateCode":"05","municipalityCode":"026","name":"Progreso"},"geometry":{"type":"Polygon","coordinates":[[[-101.5065,27.71068],[-101.50173,27.68813],[-101.5073,27.68272],[-101.50429,27.679],[-101.50863,27.65981],[-101.5005,27.6398],[-101.33849,27.63375],[-101.03825,27.64721],[-101.05108,27.58381],[-101.04359,27.58107],[-100.92733,27.47318],[-100.86842,27.48602],[-100.87545,27.44148],[-100.84238,27.46775],[-100.80365,27.46185],[-100.79429,27.45312],[-100.77834,27.45346],[-100.7215,27.48096],[-100.61344,27.51128],[-100.60418,27.5208],[-100.58532,27.52132],[-100.58043,27.5181],[-100.58129,27.50726],[-100.57788,27.49604],[-100.57216,27.48923],[-100.56342,27.4863],[-100.55812,27.48963],[-100.54283,27.47912],[-100.53576,27.4837],[-100.52124,27.48354],[-100.51289,27.47338],[-100.49707,27.46554],[-100.49423,27.45929],[-100.49722,27.45339],[-100.49559,27.44884],[-100.48182,27.44634],[-100.4713,27.42996],[-100.44996,27.41905],[-100.44575,27.41006],[-100.42851,27.40723],[-100.42268,27.39251],[-100.67801,27.3348],[-100.83412,27.19517],[-100.83056,27.07389],[-100.87164,27.03762],[-100.89403,27.02795],[-100.89932,27.02134],[-100.91653,27.06511],[-100.91331,27.06625],[-100.92255,27.07835],[-100.92509,27.08751],[-100.92108,27.09372],[-100.922,27.10171],[-100.94922,27.13863],[-100.96425,27.15069],[-100.97172,27.147],[-101.0004,27.1729],[-101.02032,27.17733],[-101.03409,27.19032],[-101.03885,27.19116],[-101.03907,27.20995],[-101.05065,27.23072],[-101.08899,27.27475],[-101.10519,27.28726],[-101.14748,27.2987],[-101.15578,27.29466],[-101.15328,27.31229],[-101.18607,27.34087],[-101.18448,27.34364],[-101.19774,27.34812],[-101.20301,27.3602],[-101.29159,27.40182],[-101.29844,27.43734],[-101.31282,27.48561],[-101.37015,27.4837],[-101.36497,27.5115],[-101.41462,27.51142],[-101.41216,27.51736],[-101.50996,27.51594],[-101.52158,27.53617],[-101.53131,27.54527],[-101.57298,27.60353],[-101.59072,27.63278],[-101.59755,27.66571],[-101.60664,27.69081],[-101.50173,27.73305],[-101.5065,27.71068]]]}},{"type":"Feature","properties":{"code":"05021","stateCode":"05","municipalityCode":"021","name":"Nadadores"},"geometry":{"type":"Polygon","coordinates":[[[-101.87172,27.48998],[-101.767,27.34126],[-101.76796,27.30131],[-101.77021,27.30102],[-101.76228,27.2768],[-101.7547,27.27635],[-101.751,27.2684],[-101.70871,27.25005],[-101.71448,27.23236],[-101.69012,27.20538],[-101.68997,27.2006],[-101.6817,27.21049],[-101.68735,27.22035],[-101.6865,27.22489],[-101.68298,27.22562],[-101.64124,27.20868],[-101.63822,27.21395],[-101.63096,27.21137],[-101.64072,27.19506],[-101.59847,27.18142],[-101.65715,27.16483],[-101.65299,27.17104],[-101.70332,27.18101],[-101.70944,27.15622],[-101.69231,27.15277],[-101.6966,27.12137],[-101.69104,27.12233],[-101.60786,27.06525],[-101.58797,27.05619],[-101.58099,27.04503],[-101.5774,27.04752],[-101.57493,27.04351],[-101.55148,27.04737],[-101.53008,27.02729],[-101.52054,27.01518],[-101.53609,27.01478],[-101.53793,26.99969],[-101.55511,26.98421],[-101.55596,26.97626],[-101.6321,26.97295],[-101.66918,26.9824],[-101.67548,27.00423],[-101.71293,26.99127],[-101.71639,26.99504],[-101.71903,27.01571],[-101.70434,27.03547],[-101.71168,27.03443],[-101.71006,27.03776],[-101.75803,27.11312],[-101.77033,27.11145],[-101.78473,27.15341],[-101.8517,27.27147],[-101.89261,27.29821],[-101.89565,27.30557],[-101.89345,27.31685],[-101.90869,27.33636],[-101.9253,27.37739],[-101.93916,27.39035],[-101.94585,27.40224],[-101.93962,27.42],[-101.9617,27.42984],[-101.98182,27.46382],[-101.99791,27.47702],[-101.95326,27.46734],[-101.93806,27.47544],[-101.9292,27.48914],[-101.87172,27.48998]]]}},{"type":"Feature","properties":{"code":"05013","stateCode":"05","municipalityCode":"013","name":"Hidalgo"},"geometry":{"type":"Polygon","coordinates":[[[-100.05541,28.08961],[-100.04714,28.0798],[-100.02835,28.07313],[-100.01775,28.06513],[-100.00764,28.02146],[-99.99049,27.99362],[-99.963,27.9838],[-99.93122,27.98058],[-99.93256,27.96617],[-99.93883,27.95216],[-99.93765,27.94219],[-99.92629,27.93549],[-99.92386,27.93018],[-99.92582,27.92708],[-99.91885,27.91888],[-99.90063,27.91245],[-99.89353,27.89948],[-99.89394,27.89298],[-99.90276,27.88194],[-99.90408,27.8737],[-99.90113,27.86397],[-99.88158,27.84962],[-99.87696,27.84147],[-99.87801,27.82559],[-99.87392,27.81291],[-99.87764,27.79965],[-99.86928,27.79428],[-99.85076,27.7939],[-99.84328,27.77373],[-99.84322,27.76986],[-99.9324,27.67471],[-99.99884,27.61528],[-100.18843,27.79914],[-100.28618,27.73095],[-100.29877,27.74389],[-100.3113,27.79632],[-100.31432,27.7986],[-100.32102,27.82275],[-100.32182,27.8333],[-100.1844,27.8534],[-100.18613,27.96174],[-100.08702,27.97608],[-100.08015,27.98895],[-100.11427,28.05753],[-100.05541,28.08961]]]}},{"type":"Feature","properties":{"code":"05024","stateCode":"05","municipalityCode":"024","name":"Parras"},"geometry":{"type":"Polygon","coordinates":[[[-102.0351,26.36472],[-101.9484,26.39178],[-101.9387,26.34394],[-101.87701,26.34692],[-101.86901,26.38455],[-101.85319,26.2906],[-101.81017,26.32483],[-101.79363,26.2237],[-101.86902,26.2232],[-101.86608,26.21424],[-101.89485,26.12758],[-101.80861,26.10912],[-101.79946,26.05121],[-101.77271,25.98681],[-101.81624,25.96745],[-101.81402,25.94186],[-101.81047,25.93474],[-101.77184,25.89933],[-101.76758,25.8665],[-101.76981,25.8652],[-101.75572,25.81431],[-101.76152,25.75071],[-101.77457,25.75253],[-101.78375,25.69907],[-101.84738,25.70607],[-101.85756,25.67405],[-101.86675,25.67388],[-101.8665,25.65895],[-101.87107,25.6585],[-101.86247,25.65892],[-101.86332,25.65629],[-101.85654,25.65409],[-101.86822,25.62263],[-101.87336,25.62498],[-101.87311,25.58609],[-101.80272,25.56498],[-101.80618,25.54931],[-101.79032,25.53841],[-101.79321,25.52661],[-101.78986,25.51969],[-101.77012,25.51323],[-101.77215,25.50371],[-101.69533,25.49562],[-101.70921,25.39516],[-101.73354,25.40927],[-101.74362,25.37293],[-101.71668,25.3596],[-101.71924,25.34319],[-101.67359,25.33747],[-101.67454,25.32962],[-101.65878,25.32737],[-101.64567,25.29826],[-101.6184,25.29644],[-101.62473,25.24785],[-101.57387,25.23767],[-101.59352,25.22911],[-101.61519,25.19807],[-101.62098,25.1844],[-101.59536,25.18225],[-101.60189,25.15974],[-101.59058,25.15137],[-101.55776,25.1455],[-101.56891,25.07019],[-101.54103,25.06723],[-101.53554,25.09865],[-101.45766,25.08984],[-101.45751,25.06169],[-101.44783,25.06153],[-101.44375,25.06817],[-101.43417,25.06951],[-101.43262,25.06615],[-101.4278,25.06852],[-101.42837,25.08822],[-101.41575,25.0908],[-101.41042,25.08472],[-101.40989,25.09025],[-101.37925,25.08925],[-101.38947,25.04046],[-101.39533,25.03146],[-101.4383,25.03053],[-101.441,24.99997],[-101.45009,24.97897],[-101.53265,24.90347],[-101.5239,24.86649],[-101.57089,24.82162],[-101.58277,24.77762],[-101.61023,24.77914],[-101.60395,24.77122],[-101.60041,24.7544],[-101.62227,24.75898],[-101.64077,24.8007],[-101.60901,24.78966],[-101.60126,24.83556],[-101.65633,24.86079],[-101.68515,24.84001],[-101.77346,24.87554],[-101.8319,24.97217],[-101.84881,25.01762],[-102.08181,25.0707],[-102.23762,25.11846],[-102.29551,25.12524],[-102.46333,25.11592],[-102.53625,25.20129],[-102.55621,25.23955],[-102.6049,25.2568],[-102.69918,25.37302],[-102.69799,25.39464],[-102.70418,25.46834],[-102.70694,25.47296],[-102.79189,25.48404],[-102.77949,25.52583],[-102.90471,25.55722],[-102.88602,25.6232],[-102.86573,25.6213],[-102.79498,25.60061],[-102.80284,25.64001],[-102.78299,25.63985],[-102.78289,25.66305],[-102.76476,25.66205],[-102.76464,25.68279],[-102.70531,25.69148],[-102.70444,25.68254],[-102.67153,25.68772],[-102.67243,25.69635],[-102.74073,25.73826],[-102.74119,25.74929],[-102.69736,25.74694],[-102.69782,25.78972],[-102.58453,25.78677],[-102.54505,25.88666],[-102.47442,25.8864],[-102.4474,25.78864],[-102.4,25.78913],[-102.39838,25.84771],[-102.32,25.83931],[-102.3236,25.79006],[-102.30025,25.79034],[-102.2934,25.85168],[-102.25447,25.93899],[-102.2735,25.95491],[-102.22811,26.05344],[-102.22234,26.0538],[-102.22011,26.04379],[-102.21218,26.05196],[-102.20242,26.046],[-102.0732,26.04481],[-102.0501,26.0824],[-102.03426,26.09435],[-101.91309,26.04241],[-101.86899,26.07213],[-101.90237,26.09742],[-101.93064,26.09612],[-101.91676,26.1536],[-101.93761,26.1941],[-101.982,26.24347],[-102.02186,26.27464],[-102.05371,26.32338],[-102.1504,26.42177],[-102.0351,26.36472]]]}},{"type":"Feature","properties":{"code":"05020","stateCode":"05","municipalityCode":"020","name":"Múzquiz"},"geometry":{"type":"Polygon","coordinates":[[[-102.4047,29.06406],[-102.13862,29.00852],[-101.9972,28.98401],[-101.75253,28.57744],[-101.71697,28.50911],[-101.21579,28.37646],[-101.29942,28.33801],[-101.30422,28.2224],[-101.31757,28.2213],[-101.31601,28.2352],[-101.3114,28.23955],[-101.42499,28.23137],[-101.48759,28.18686],[-101.58022,28.23483],[-101.59483,28.23495],[-101.61356,28.20938],[-101.53891,28.08968],[-101.50241,28.09066],[-101.49767,28.03772],[-101.49807,27.972],[-101.47358,27.98423],[-101.44128,27.98638],[-101.41666,27.97369],[-101.4058,27.96299],[-101.38691,27.96446],[-101.37618,27.95833],[-101.39018,27.9501],[-101.39416,27.93849],[-101.40419,27.9309],[-101.40967,27.92003],[-101.38359,27.93232],[-101.38085,27.92379],[-101.35715,27.93003],[-101.35987,27.91074],[-101.31542,27.90326],[-101.31589,27.89318],[-101.31068,27.89315],[-101.29409,27.84632],[-101.33041,27.87212],[-101.34829,27.87696],[-101.3653,27.87372],[-101.36311,27.85983],[-101.34173,27.78783],[-101.32586,27.76401],[-101.31149,27.72613],[-101.26891,27.63666],[-101.33849,27.63375],[-101.5005,27.6398],[-101.50863,27.65981],[-101.50429,27.679],[-101.5073,27.68272],[-101.50173,27.68813],[-101.5065,27.71068],[-101.50173,27.73305],[-101.50661,27.74176],[-101.50082,27.76342],[-101.52053,27.77825],[-101.55596,27.78481],[-101.5571,27.79011],[-101.55357,27.79733],[-101.56024,27.79941],[-101.5638,27.8062],[-101.58506,27.79955],[-101.59769,27.80574],[-101.60071,27.81351],[-101.61071,27.8156],[-101.62282,27.82806],[-101.66505,27.83309],[-101.69805,27.84508],[-101.70225,27.84317],[-101.72885,27.84689],[-101.74927,27.85898],[-101.77371,27.86427],[-101.79225,27.87373],[-101.80308,27.8442],[-101.81463,27.85008],[-101.82761,27.84677],[-101.84489,27.8498],[-101.85417,27.86045],[-101.86593,27.86278],[-101.87621,27.87103],[-101.89218,27.8766],[-101.90392,27.89147],[-101.90798,27.89946],[-101.9074,27.90648],[-101.91796,27.91175],[-101.92423,27.92429],[-101.93053,27.92442],[-101.93199,27.92951],[-101.93771,27.93303],[-101.94524,27.95054],[-101.96776,27.96541],[-101.9663,27.9825],[-101.95761,27.9924],[-101.95748,27.99714],[-101.96388,28.00301],[-101.97011,28.00343],[-101.97559,28.01245],[-101.97319,28.0179],[-101.99919,28.01499],[-102.01666,28.01849],[-102.02917,28.03892],[-102.08374,28.04649],[-102.06384,28.12197],[-102.05824,28.15942],[-102.05856,28.17377],[-102.07118,28.23357],[-102.06605,28.2842],[-102.06637,28.32227],[-102.0785,28.33269],[-102.06966,28.36053],[-102.07805,28.43982],[-102.08675,28.46038],[-102.15882,28.53325],[-102.22991,28.55749],[-102.31174,28.62071],[-102.33834,28.65557],[-102.35825,28.65905],[-102.38118,28.66768],[-102.38172,28.63628],[-102.42281,28.58835],[-102.42164,28.52731],[-102.43588,28.50793],[-102.47945,28.55078],[-102.48689,28.59058],[-102.50572,28.58231],[-102.5696,28.63829],[-102.55284,28.67065],[-102.63804,28.69697],[-102.56876,28.8061],[-102.4788,28.95685],[-102.45303,28.98508],[-102.4047,29.06406]]]}},{"type":"Feature","properties":{"code":"05023","stateCode":"05","municipalityCode":"023","name":"Ocampo"},"geometry":{"type":"Polygon","coordinates":[[[-102.87112,29.24048],[-102.75536,29.1689],[-102.64184,29.11026],[-102.46674,28.97007],[-102.4788,28.95685],[-102.56876,28.8061],[-102.63804,28.69697],[-102.55284,28.67065],[-102.5696,28.63829],[-102.50572,28.58231],[-102.48689,28.59058],[-102.43657,28.33287],[-102.44239,28.33109],[-102.49294,28.28956],[-102.4819,28.26664],[-102.44455,28.21226],[-102.43599,28.18703],[-102.4288,28.17815],[-102.42604,28.16544],[-102.41241,28.14762],[-102.41288,28.14204],[-102.38144,28.04871],[-102.38453,28.01551],[-102.36737,27.99185],[-102.36234,27.98919],[-102.36194,27.98084],[-102.3476,27.96463],[-102.28747,28.00429],[-102.28238,28.00503],[-102.25295,27.97174],[-102.24066,27.97745],[-102.21502,27.94798],[-102.24985,27.9018],[-102.25547,27.89958],[-102.2541,27.89724],[-102.27695,27.88708],[-102.3003,27.88715],[-102.28367,27.87176],[-102.27196,27.85268],[-102.26533,27.84822],[-102.25501,27.84547],[-102.24694,27.86391],[-102.2191,27.84844],[-102.20134,27.85151],[-102.15703,27.81806],[-102.19952,27.6924],[-102.18235,27.65705],[-102.13696,27.69515],[-102.12437,27.66854],[-102.10689,27.6031],[-102.09008,27.56798],[-102.0489,27.51325],[-102.02431,27.5003],[-101.98182,27.46382],[-101.9617,27.42984],[-101.93962,27.42],[-101.94585,27.40224],[-101.93916,27.39035],[-101.9253,27.37739],[-101.90869,27.33636],[-101.89345,27.31685],[-101.89565,27.30557],[-101.97142,27.24785],[-101.99525,27.26399],[-102.01111,27.26317],[-102.02794,27.25305],[-102.03445,27.23639],[-102.09743,27.2406],[-102.12422,27.2487],[-102.12852,27.26413],[-102.14469,27.27884],[-102.31668,27.27277],[-102.29493,27.24639],[-102.30394,27.23163],[-102.36585,27.262],[-102.41189,27.1924],[-102.33252,27.13152],[-102.33035,27.12651],[-102.33807,27.12242],[-102.32604,27.11476],[-102.28898,27.01481],[-102.29482,27.01147],[-102.33375,27.01727],[-102.3919,27.03449],[-102.42426,27.03404],[-102.44286,27.0269],[-102.46669,27.05303],[-102.47034,27.06461],[-102.48563,27.0806],[-102.516,27.1005],[-102.5292,27.10011],[-102.57213,27.1134],[-102.61812,27.14863],[-102.6402,27.16004],[-102.65417,27.12239],[-102.66027,27.122],[-102.69528,27.06437],[-102.72807,27.08346],[-102.74366,27.04499],[-102.75402,27.04925],[-102.78271,27.04836],[-102.78925,27.05287],[-102.80839,27.08096],[-102.79968,26.87313],[-102.98757,26.97957],[-102.98878,26.96319],[-103.02715,26.97794],[-103.335,26.97393],[-103.45379,27.05316],[-103.53071,27.18264],[-103.52153,27.28164],[-103.46213,27.28163],[-103.35626,27.41119],[-103.50603,27.43511],[-103.47266,27.76475],[-103.494,27.78042],[-103.43606,27.8385],[-103.44964,27.86347],[-103.48003,27.85777],[-103.47817,27.86222],[-103.50699,27.86708],[-103.49033,27.90303],[-103.50493,27.90781],[-103.5109,27.89279],[-103.53743,27.87997],[-103.60441,27.90283],[-103.63401,27.86456],[-103.41364,28.4481],[-103.42703,28.46892],[-103.43137,28.45643],[-103.6375,28.55451],[-103.62457,28.58115],[-103.60101,28.57491],[-103.59192,28.59083],[-103.61605,28.59819],[-103.59637,28.63947],[-103.582,28.62879],[-103.57266,28.64064],[-103.5573,28.61128],[-103.51976,28.66875],[-103.51451,28.665],[-103.46325,28.75661],[-103.46635,28.75946],[-103.43166,28.81318],[-103.41002,28.84092],[-103.40459,28.82955],[-103.40027,28.82857],[-103.39635,28.83353],[-103.39491,28.84385],[-103.40365,28.86925],[-103.3577,28.92025],[-103.30922,29.00119],[-103.3026,29.00791],[-103.28607,29.00009],[-103.28167,28.98854],[-103.28311,28.98283],[-103.28848,28.98118],[-103.28514,28.97646],[-103.27967,28.97592],[-103.27417,28.98179],[-103.26734,28.996],[-103.25319,28.98664],[-103.25052,28.98026],[-103.23742,28.9818],[-103.228,28.99171],[-103.22037,28.98348],[-103.21478,28.98764],[-103.20252,28.9871],[-103.18075,28.98223],[-103.17672,28.97784],[-103.17062,28.98034],[-103.16387,28.97205],[-103.15384,28.97148],[-103.13538,28.98351],[-103.1161,28.98418],[-103.11405,28.98928],[-103.11746,29.00015],[-103.10859,29.01327],[-103.10179,29.01763],[-103.09797,29.02676],[-103.10665,29.03836],[-103.1005,29.05146],[-103.10071,29.06033],[-103.09244,29.06446],[-103.09064,29.05396],[-103.08587,29.05381],[-103.08749,29.06733],[-103.077,29.07562],[-103.08033,29.08712],[-103.07597,29.09142],[-103.07,29.09361],[-103.06424,29.09126],[-103.0547,29.10072],[-103.04498,29.09526],[-103.0338,29.1012],[-103.03228,29.10708],[-103.03714,29.11381],[-103.02818,29.11553],[-103.02016,29.12576],[-103.01355,29.12506],[-103.0122,29.12845],[-103.01569,29.13445],[-103.00881,29.13755],[-103.00818,29.14825],[-103.00254,29.14999],[-102.99613,29.16062],[-102.99827,29.17399],[-102.99527,29.17964],[-102.97558,29.18628],[-102.95082,29.17353],[-102.94319,29.1916],[-102.93799,29.1882],[-102.93251,29.19473],[-102.91789,29.19084],[-102.91906,29.19914],[-102.91435,29.20014],[-102.91287,29.20688],[-102.91628,29.21564],[-102.91231,29.21943],[-102.90869,29.21967],[-102.89803,29.20858],[-102.87844,29.21367],[-102.86665,29.22543],[-102.87139,29.23187],[-102.87112,29.24048]]]}},{"type":"Feature","properties":{"code":"05022","stateCode":"05","municipalityCode":"022","name":"Nava"},"geometry":{"type":"Polygon","coordinates":[[[-100.60413,28.65101],[-100.56425,28.64451],[-100.56424,28.64111],[-100.55668,28.6397],[-100.54756,28.64172],[-100.512,28.6356],[-100.45975,28.60663],[-100.44757,28.61002],[-100.43396,28.60657],[-100.43113,28.59701],[-100.40035,28.58657],[-100.39687,28.58149],[-100.39739,28.57483],[-100.40575,28.56036],[-100.40922,28.55636],[-100.41612,28.55618],[-100.41777,28.55028],[-100.43021,28.5508],[-100.4445,28.537],[-100.44895,28.5389],[-100.45895,28.53508],[-100.46812,28.53757],[-100.4892,28.52993],[-100.47717,28.48456],[-100.49944,28.47501],[-100.4585,28.45425],[-100.48261,28.40996],[-100.48654,28.41114],[-100.50977,28.37448],[-100.59692,28.3331],[-100.61204,28.37746],[-100.77158,28.37461],[-100.77221,28.37127],[-100.80966,28.38095],[-100.80827,28.42445],[-100.82702,28.43785],[-100.8393,28.43426],[-100.79434,28.51484],[-100.76267,28.55062],[-100.75208,28.55469],[-100.7128,28.59424],[-100.71045,28.60079],[-100.70298,28.60482],[-100.68822,28.60643],[-100.66618,28.62454],[-100.64628,28.6318],[-100.63595,28.64247],[-100.61984,28.64191],[-100.60413,28.65101]]]}},{"type":"Feature","properties":{"code":"05015","stateCode":"05","municipalityCode":"015","name":"Juárez"},"geometry":{"type":"Polygon","coordinates":[[[-100.97038,27.93439],[-100.75167,27.85086],[-100.65852,27.82144],[-100.29877,27.74389],[-100.28618,27.73095],[-100.35061,27.6846],[-100.4177,27.39363],[-100.42268,27.39251],[-100.42851,27.40723],[-100.44575,27.41006],[-100.44996,27.41905],[-100.46804,27.42715],[-100.48182,27.44634],[-100.49559,27.44884],[-100.49722,27.45339],[-100.49423,27.45929],[-100.49707,27.46554],[-100.51289,27.47338],[-100.52124,27.48354],[-100.53576,27.4837],[-100.54283,27.47912],[-100.55812,27.48963],[-100.56342,27.4863],[-100.57216,27.48923],[-100.57788,27.49604],[-100.58129,27.50726],[-100.58043,27.5181],[-100.58532,27.52132],[-100.60418,27.5208],[-100.61344,27.51128],[-100.7215,27.48096],[-100.77834,27.45346],[-100.79429,27.45312],[-100.80365,27.46185],[-100.84238,27.46775],[-100.87545,27.44148],[-100.86842,27.48602],[-100.92733,27.47318],[-101.04359,27.58107],[-101.05108,27.58381],[-101.03825,27.64721],[-100.95499,27.69362],[-100.93499,27.68745],[-100.93321,27.68007],[-100.92286,27.67202],[-100.90185,27.67315],[-100.90244,27.75764],[-101.01139,27.83335],[-100.98029,27.85947],[-101.0044,27.87623],[-100.97038,27.93439]]]}},{"type":"Feature","properties":{"code":"05011","stateCode":"05","municipalityCode":"011","name":"General Cepeda"},"geometry":{"type":"Polygon","coordinates":[[[-101.55557,25.8574],[-101.51895,25.86949],[-101.50555,25.85926],[-101.49951,25.85921],[-101.50152,25.85133],[-101.4934,25.85264],[-101.49049,25.84703],[-101.47793,25.84897],[-101.57863,25.81067],[-101.5904,25.74788],[-101.58938,25.70112],[-101.45487,25.69967],[-101.44473,25.69507],[-101.47531,25.71819],[-101.51064,25.76626],[-101.39342,25.75205],[-101.40698,25.69938],[-101.41217,25.69755],[-101.41564,25.68309],[-101.43746,25.67032],[-101.43481,25.66826],[-101.45109,25.65278],[-101.46074,25.66116],[-101.47167,25.65373],[-101.41146,25.60413],[-101.40351,25.62904],[-101.39129,25.62238],[-101.39718,25.63259],[-101.39027,25.63063],[-101.38687,25.63467],[-101.37066,25.63415],[-101.36334,25.64023],[-101.36224,25.66108],[-101.34222,25.65278],[-101.33075,25.62893],[-101.23309,25.62478],[-101.2218,25.61522],[-101.20714,25.6155],[-101.20144,25.60476],[-101.19218,25.60617],[-101.18365,25.60105],[-101.19269,25.59593],[-101.20611,25.59536],[-101.21794,25.59053],[-101.24519,25.5711],[-101.25196,25.53406],[-101.22293,25.52987],[-101.26433,25.52076],[-101.26802,25.48887],[-101.3162,25.4754],[-101.32995,25.4761],[-101.32696,25.47078],[-101.33101,25.46897],[-101.33669,25.47457],[-101.34748,25.4771],[-101.36479,25.47368],[-101.40189,25.47313],[-101.38073,25.43651],[-101.38262,25.42748],[-101.36396,25.42558],[-101.3658,25.40878],[-101.33405,25.40184],[-101.28847,25.39871],[-101.28968,25.3914],[-101.27968,25.38868],[-101.26895,25.39161],[-101.26755,25.38671],[-101.27638,25.38178],[-101.27007,25.37957],[-101.25071,25.38215],[-101.25152,25.37755],[-101.2675,25.36578],[-101.2795,25.36525],[-101.28271,25.37024],[-101.28173,25.37972],[-101.29163,25.37917],[-101.29233,25.37544],[-101.3144,25.37361],[-101.31257,25.3275],[-101.36841,25.32557],[-101.38548,25.2],[-101.39312,25.20841],[-101.39394,25.20378],[-101.39675,25.2104],[-101.39914,25.20228],[-101.39507,25.1978],[-101.42222,25.20411],[-101.43302,25.17667],[-101.53415,25.19166],[-101.57752,25.19161],[-101.61519,25.19807],[-101.59352,25.22911],[-101.57387,25.23767],[-101.62473,25.24785],[-101.6184,25.29644],[-101.64567,25.29826],[-101.65878,25.32737],[-101.67454,25.32962],[-101.67359,25.33747],[-101.71924,25.34319],[-101.71668,25.3596],[-101.74362,25.37293],[-101.73354,25.40927],[-101.70921,25.39516],[-101.69533,25.49562],[-101.77215,25.50371],[-101.77012,25.51323],[-101.78986,25.51969],[-101.79321,25.52661],[-101.79032,25.53841],[-101.80618,25.54931],[-101.80272,25.56498],[-101.87311,25.58609],[-101.87336,25.62498],[-101.86822,25.62263],[-101.85654,25.65409],[-101.86332,25.65629],[-101.86247,25.65892],[-101.87107,25.6585],[-101.8665,25.65895],[-101.86675,25.67388],[-101.85756,25.67405],[-101.84738,25.70607],[-101.78375,25.69907],[-101.77457,25.75253],[-101.76152,25.75071],[-101.75301,25.84313],[-101.68367,25.83016],[-101.62315,25.8046],[-101.61661,25.80907],[-101.58474,25.86355],[-101.59444,25.86879],[-101.59948,25.8851],[-101.58627,25.89894],[-101.59045,25.91145],[-101.55557,25.8574]]]}},{"type":"Feature","properties":{"code":"05034","stateCode":"05","municipalityCode":"034","name":"Sierra Mojada"},"geometry":{"type":"Polygon","coordinates":[[[-103.63708,28.55431],[-103.43137,28.45643],[-103.42703,28.46892],[-103.41364,28.4481],[-103.63401,27.86456],[-103.60441,27.90283],[-103.53743,27.87997],[-103.5109,27.89279],[-103.50493,27.90781],[-103.49033,27.90303],[-103.50699,27.86708],[-103.47817,27.86222],[-103.48003,27.85777],[-103.44964,27.86347],[-103.43606,27.8385],[-103.494,27.78042],[-103.47266,27.76475],[-103.50603,27.43511],[-103.35626,27.41119],[-103.46213,27.28163],[-103.52153,27.28164],[-103.53071,27.18264],[-103.45379,27.05316],[-103.335,26.97393],[-103.21312,26.97645],[-103.04485,26.81305],[-103.3658,26.65408],[-103.41596,26.61674],[-103.63698,26.69344],[-103.64389,26.69016],[-103.65826,26.71948],[-103.69909,26.72526],[-103.70164,26.73078],[-103.71525,26.73508],[-103.72487,26.77211],[-103.75062,26.80991],[-103.75397,26.82957],[-103.77961,26.83613],[-103.80448,26.85501],[-103.82253,26.87537],[-103.8517,26.89613],[-103.85194,26.90523],[-103.83592,26.93581],[-103.85209,26.93462],[-103.78463,26.9807],[-103.77995,27.00889],[-103.74083,27.02252],[-103.74431,27.0267],[-103.75246,27.07792],[-103.7738,27.08962],[-103.78347,27.09121],[-103.7994,27.12473],[-103.79843,27.21348],[-103.8094,27.2492],[-103.81976,27.24296],[-103.83059,27.27685],[-103.83212,27.29829],[-103.87688,27.31159],[-103.86365,27.44092],[-103.85851,27.43989],[-103.8546,27.54943],[-103.86884,27.60714],[-103.88356,27.60077],[-103.89726,27.65655],[-103.88324,27.65759],[-103.89553,27.67402],[-103.8895,27.71322],[-103.89669,27.74056],[-103.88115,27.73919],[-103.93565,27.79755],[-103.90084,27.82686],[-103.94391,27.82687],[-103.96,27.83531],[-103.94578,27.85639],[-103.94564,27.88886],[-103.94333,27.88884],[-103.95497,27.95082],[-103.93564,27.94534],[-103.94187,27.9278],[-103.89289,27.91402],[-103.87772,27.95749],[-103.92669,27.97136],[-103.88949,28.06038],[-103.86094,28.10902],[-103.8675,28.11214],[-103.76818,28.30037],[-103.76287,28.2982],[-103.72833,28.35649],[-103.64301,28.51246],[-103.64336,28.53063],[-103.64794,28.53298],[-103.63708,28.55431]]]}},{"type":"Feature","properties":{"code":"05033","stateCode":"05","municipalityCode":"033","name":"San Pedro"},"geometry":{"type":"Polygon","coordinates":[[[-102.78943,26.63434],[-102.75985,26.63726],[-102.75114,26.63163],[-102.67837,26.52576],[-102.62094,26.4911],[-102.59807,26.49774],[-102.50798,26.49776],[-102.38407,26.58696],[-102.33752,26.60054],[-102.50244,26.31966],[-102.48405,26.31963],[-102.50779,26.28025],[-102.37239,26.27653],[-102.34025,26.26965],[-102.34298,26.31479],[-102.31624,26.25155],[-102.39628,26.10791],[-102.28734,26.13409],[-102.26671,26.0515],[-102.19309,26.06743],[-102.11738,26.09121],[-102.13867,26.17199],[-102.03149,26.21807],[-102.00675,26.19556],[-102.0056,26.16132],[-101.96272,26.1578],[-101.97476,26.1844],[-101.982,26.24347],[-101.93761,26.1941],[-101.91676,26.1536],[-101.93064,26.09612],[-101.90237,26.09742],[-101.86899,26.07213],[-101.91309,26.04241],[-102.03426,26.09435],[-102.0501,26.0824],[-102.0732,26.04481],[-102.20242,26.046],[-102.21218,26.05196],[-102.22011,26.04379],[-102.22234,26.0538],[-102.22811,26.05344],[-102.2735,25.95491],[-102.25447,25.93899],[-102.2934,25.85168],[-102.30025,25.79034],[-102.3236,25.79006],[-102.32,25.83931],[-102.39838,25.84771],[-102.4,25.78913],[-102.4474,25.78864],[-102.47442,25.8864],[-102.54505,25.88666],[-102.58453,25.78677],[-102.69782,25.78972],[-102.69736,25.74694],[-102.74119,25.74929],[-102.74073,25.73826],[-102.67243,25.69635],[-102.67153,25.68772],[-102.70444,25.68254],[-102.70531,25.69148],[-102.76464,25.68279],[-102.76476,25.66205],[-102.78289,25.66305],[-102.78299,25.63985],[-102.80284,25.64001],[-102.79498,25.60061],[-102.86573,25.6213],[-103.03209,25.63485],[-103.03047,25.64258],[-103.06345,25.64931],[-103.07423,25.61939],[-103.10549,25.64258],[-103.11203,25.6573],[-103.12157,25.65447],[-103.1362,25.67031],[-103.13808,25.66258],[-103.14344,25.66937],[-103.15561,25.67386],[-103.19896,25.68005],[-103.20527,25.75793],[-103.21729,25.75364],[-103.22664,25.7616],[-103.20446,25.81746],[-103.2351,25.82765],[-103.21457,25.87151],[-103.2111,25.92609],[-103.20646,25.9263],[-103.20423,25.8942],[-103.18505,25.91522],[-103.17667,25.9355],[-103.18078,25.94413],[-103.19662,25.9474],[-103.19294,25.968],[-103.18569,25.96743],[-103.18129,25.97769],[-103.16668,25.97686],[-103.16597,25.96592],[-103.17003,25.96139],[-103.15394,25.96525],[-103.1447,25.9758],[-103.13707,26.0315],[-103.16812,26.04215],[-103.21635,26.04742],[-103.21309,26.11934],[-103.18497,26.0975],[-103.16478,26.09184],[-103.16218,26.11739],[-103.16551,26.14733],[-103.12198,26.14179],[-103.11757,26.17366],[-103.16257,26.17936],[-103.1573,26.19152],[-103.15607,26.20961],[-102.96983,26.18945],[-102.96868,26.19703],[-102.92396,26.18314],[-102.92635,26.16591],[-102.89432,26.16106],[-102.89439,26.17838],[-102.90021,26.20413],[-102.89889,26.21946],[-102.91128,26.2289],[-102.9065,26.24519],[-102.87966,26.29597],[-102.949,26.30092],[-102.95267,26.34486],[-102.96218,26.37004],[-102.97789,26.38563],[-102.95803,26.42216],[-102.97133,26.42348],[-102.96001,26.5295],[-102.8017,26.6484],[-102.78943,26.63434]]]}},{"type":"Feature","properties":{"code":"05031","stateCode":"05","municipalityCode":"031","name":"San Buenaventura"},"geometry":{"type":"Polygon","coordinates":[[[-102.35825,28.65905],[-102.33834,28.65557],[-102.31174,28.62071],[-102.22991,28.55749],[-102.15882,28.53325],[-102.08675,28.46038],[-102.07805,28.43982],[-102.06966,28.36053],[-102.0785,28.33269],[-102.06637,28.32227],[-102.06605,28.2842],[-102.07118,28.23357],[-102.05856,28.17377],[-102.05824,28.15942],[-102.06384,28.12197],[-102.08374,28.04649],[-102.02917,28.03892],[-102.01666,28.01849],[-101.99919,28.01499],[-101.97319,28.0179],[-101.97559,28.01245],[-101.97011,28.00343],[-101.96388,28.00301],[-101.95748,27.99714],[-101.95761,27.9924],[-101.9663,27.9825],[-101.96776,27.96541],[-101.94524,27.95054],[-101.93771,27.93303],[-101.93199,27.92951],[-101.93053,27.92442],[-101.92423,27.92429],[-101.91796,27.91175],[-101.9074,27.90648],[-101.90798,27.89946],[-101.90392,27.89147],[-101.89218,27.8766],[-101.87621,27.87103],[-101.86593,27.86278],[-101.85417,27.86045],[-101.84489,27.8498],[-101.82761,27.84677],[-101.81463,27.85008],[-101.80308,27.8442],[-101.79455,27.8728],[-101.78681,27.87241],[-101.77371,27.86427],[-101.74927,27.85898],[-101.72885,27.84689],[-101.70225,27.84317],[-101.69805,27.84508],[-101.66505,27.83309],[-101.62282,27.82806],[-101.61071,27.8156],[-101.60071,27.81351],[-101.59769,27.80574],[-101.58506,27.79955],[-101.5638,27.8062],[-101.56024,27.79941],[-101.55357,27.79733],[-101.5571,27.79011],[-101.55596,27.78481],[-101.52053,27.77825],[-101.50082,27.76342],[-101.50661,27.74176],[-101.50173,27.73305],[-101.60664,27.69081],[-101.59755,27.66571],[-101.59072,27.63278],[-101.55162,27.57329],[-101.52158,27.53617],[-101.50397,27.50701],[-101.49989,27.49396],[-101.49663,27.4445],[-101.45682,27.38756],[-101.4773,27.31607],[-101.44393,27.31536],[-101.49738,27.14483],[-101.48685,27.14204],[-101.47732,27.14457],[-101.44418,27.13291],[-101.43733,27.12799],[-101.43169,27.10584],[-101.41288,27.10073],[-101.45448,27.04374],[-101.46409,27.05052],[-101.52054,27.01518],[-101.53863,27.03726],[-101.55148,27.04737],[-101.57493,27.04351],[-101.5774,27.04752],[-101.58099,27.04503],[-101.58797,27.05619],[-101.60786,27.06525],[-101.69104,27.12233],[-101.6966,27.12137],[-101.69231,27.15277],[-101.70944,27.15622],[-101.70332,27.18101],[-101.65299,27.17104],[-101.65715,27.16483],[-101.59847,27.18142],[-101.64072,27.19506],[-101.63096,27.21137],[-101.63822,27.21395],[-101.64124,27.20868],[-101.68298,27.22562],[-101.6865,27.22489],[-101.68735,27.22035],[-101.6817,27.21049],[-101.68997,27.2006],[-101.69012,27.20538],[-101.71448,27.23236],[-101.70871,27.25005],[-101.751,27.2684],[-101.7547,27.27635],[-101.76228,27.2768],[-101.77021,27.30102],[-101.76796,27.30131],[-101.767,27.34126],[-101.79058,27.37835],[-101.81688,27.4108],[-101.87172,27.48998],[-101.9292,27.48914],[-101.93806,27.47544],[-101.95326,27.46734],[-101.99791,27.47702],[-102.02431,27.5003],[-102.0489,27.51325],[-102.09724,27.58092],[-102.11016,27.61284],[-102.12437,27.66854],[-102.13696,27.69515],[-102.18235,27.65705],[-102.19952,27.6924],[-102.15703,27.81806],[-102.20134,27.85151],[-102.2191,27.84844],[-102.24694,27.86391],[-102.25501,27.84547],[-102.26533,27.84822],[-102.27196,27.85268],[-102.28367,27.87176],[-102.3003,27.88715],[-102.27695,27.88708],[-102.2541,27.89724],[-102.25547,27.89958],[-102.24985,27.9018],[-102.21502,27.94798],[-102.24066,27.97745],[-102.25295,27.97174],[-102.28238,28.00503],[-102.28747,28.00429],[-102.3476,27.96463],[-102.36194,27.98084],[-102.36234,27.98919],[-102.36737,27.99185],[-102.38453,28.01551],[-102.38144,28.04871],[-102.41288,28.14204],[-102.41241,28.14762],[-102.42604,28.16544],[-102.4288,28.17815],[-102.43599,28.18703],[-102.44455,28.21226],[-102.4819,28.26664],[-102.49294,28.28956],[-102.44239,28.33109],[-102.43657,28.33287],[-102.47945,28.55078],[-102.43588,28.50793],[-102.42164,28.52731],[-102.42281,28.58835],[-102.38172,28.63628],[-102.38118,28.66768],[-102.35825,28.65905]]]}},{"type":"Feature","properties":{"code":"05030","stateCode":"05","municipalityCode":"030","name":"Saltillo"},"geometry":{"type":"Polygon","coordinates":[[[-100.94881,25.52289],[-100.94564,25.51868],[-100.9524,25.50546],[-100.94983,25.50304],[-100.94628,25.50864],[-100.94325,25.50373],[-100.93606,25.50204],[-100.93667,25.48885],[-100.90665,25.47991],[-100.90302,25.47222],[-100.90712,25.46955],[-100.90506,25.46158],[-100.90867,25.45896],[-100.88558,25.3888],[-100.87399,25.3939],[-100.83888,25.362],[-100.84406,25.35632],[-100.85418,25.35924],[-100.85303,25.36267],[-100.86203,25.36114],[-100.86996,25.36513],[-100.87387,25.36173],[-100.91227,25.37219],[-100.9247,25.36813],[-100.9067,25.35718],[-100.89546,25.34212],[-100.86163,25.33291],[-100.86126,25.32479],[-100.8693,25.32684],[-100.87546,25.30998],[-100.88787,25.31639],[-100.91613,25.32252],[-100.91979,25.34187],[-100.9512,25.31538],[-100.90239,25.30265],[-100.90176,25.29775],[-100.89788,25.29787],[-100.88936,25.28883],[-100.88714,25.26522],[-100.89001,25.24521],[-100.91126,25.24739],[-100.91326,25.23237],[-100.89516,25.2034],[-100.89695,25.17726],[-100.86963,25.17277],[-100.80455,25.15326],[-100.82151,24.99671],[-100.79206,24.97915],[-100.79146,24.97405],[-100.7275,24.91872],[-100.82613,24.835],[-100.82741,24.82421],[-100.79698,24.75081],[-100.80547,24.59634],[-100.79993,24.55619],[-100.81042,24.55159],[-100.84781,24.55562],[-100.90223,24.58392],[-100.95879,24.54268],[-101.0805,24.59119],[-101.12762,24.62336],[-101.16465,24.68156],[-101.17904,24.73296],[-101.20173,24.76549],[-101.21504,24.77517],[-101.23609,24.77788],[-101.31312,24.80141],[-101.34214,24.81335],[-101.40216,24.78822],[-101.41265,24.77206],[-101.46164,24.73676],[-101.49171,24.74378],[-101.54058,24.74558],[-101.60041,24.7544],[-101.60395,24.77122],[-101.61023,24.77914],[-101.58277,24.77762],[-101.57089,24.82162],[-101.5239,24.86649],[-101.53265,24.90347],[-101.45009,24.97897],[-101.441,24.99997],[-101.4383,25.03053],[-101.39533,25.03146],[-101.38947,25.04046],[-101.37925,25.08925],[-101.40989,25.09025],[-101.41042,25.08472],[-101.41575,25.0908],[-101.42837,25.08822],[-101.4278,25.06852],[-101.43262,25.06615],[-101.43417,25.06951],[-101.44375,25.06817],[-101.44783,25.06153],[-101.45751,25.06169],[-101.45766,25.08984],[-101.53554,25.09865],[-101.54103,25.06723],[-101.56891,25.07019],[-101.55776,25.1455],[-101.59058,25.15137],[-101.60189,25.15974],[-101.59536,25.18225],[-101.62098,25.1844],[-101.61519,25.19807],[-101.57752,25.19161],[-101.53415,25.19166],[-101.43302,25.17667],[-101.42222,25.20411],[-101.39507,25.1978],[-101.39914,25.20228],[-101.39675,25.2104],[-101.39394,25.20378],[-101.39312,25.20841],[-101.38548,25.2],[-101.36841,25.32557],[-101.31257,25.3275],[-101.3144,25.37361],[-101.29233,25.37544],[-101.29163,25.37917],[-101.28173,25.37972],[-101.28271,25.37024],[-101.2795,25.36525],[-101.2675,25.36578],[-101.25152,25.37755],[-101.25071,25.38215],[-101.27007,25.37957],[-101.27638,25.38178],[-101.26755,25.38671],[-101.26895,25.39161],[-101.27968,25.38868],[-101.28968,25.3914],[-101.28847,25.39871],[-101.33405,25.40184],[-101.3658,25.40878],[-101.36396,25.42558],[-101.38262,25.42748],[-101.38073,25.43651],[-101.40189,25.47313],[-101.36479,25.47368],[-101.34748,25.4771],[-101.33669,25.47457],[-101.33101,25.46897],[-101.32696,25.47078],[-101.32995,25.4761],[-101.3162,25.4754],[-101.31081,25.46641],[-101.31369,25.46443],[-101.31294,25.46033],[-101.29453,25.45465],[-101.27662,25.45026],[-101.22964,25.45154],[-101.21549,25.45329],[-101.0837,25.49403],[-101.05596,25.49616],[-101.0194,25.51137],[-101.00635,25.50973],[-101.00038,25.51208],[-100.99829,25.51651],[-100.98719,25.50833],[-100.98244,25.49898],[-100.98627,25.48672],[-100.98136,25.49754],[-100.97172,25.50104],[-100.96752,25.50806],[-100.96841,25.5048],[-100.96383,25.50235],[-100.95372,25.52275],[-100.94881,25.52289]]]}},{"type":"Feature","properties":{"code":"05028","stateCode":"05","municipalityCode":"028","name":"Sabinas"},"geometry":{"type":"Polygon","coordinates":[[[-101.03469,28.24413],[-101.02962,28.09129],[-101.0159,28.00384],[-100.95897,27.98189],[-100.9502,27.92658],[-100.97202,27.93502],[-101.0044,27.87623],[-100.98029,27.85947],[-101.01139,27.83335],[-100.90244,27.75764],[-100.90185,27.67315],[-100.92286,27.67202],[-100.93321,27.68007],[-100.93499,27.68745],[-100.95499,27.69362],[-101.03825,27.64721],[-101.26891,27.63666],[-101.31149,27.72613],[-101.32586,27.76401],[-101.34173,27.78783],[-101.3653,27.87372],[-101.35271,27.87764],[-101.33041,27.87212],[-101.29409,27.84632],[-101.31068,27.89315],[-101.27731,27.89375],[-101.26458,27.89001],[-101.25824,27.88274],[-101.24718,27.88243],[-101.24176,27.87907],[-101.2345,27.8791],[-101.22619,27.88371],[-101.21172,27.88082],[-101.20017,27.88996],[-101.18977,27.88743],[-101.20056,27.9034],[-101.20856,27.90551],[-101.20173,27.92388],[-101.1969,27.9267],[-101.19817,27.92993],[-101.18984,27.94952],[-101.24373,27.97565],[-101.22756,28.01045],[-101.21927,28.00738],[-101.20731,28.03198],[-101.29444,28.07095],[-101.29155,28.11833],[-101.30704,28.11125],[-101.36666,28.13084],[-101.36165,28.21772],[-101.03469,28.24413]]]}},{"type":"Feature","properties":{"code":"05027","stateCode":"05","municipalityCode":"027","name":"Ramos Arizpe"},"geometry":{"type":"Polygon","coordinates":[[[-101.66003,26.32329],[-101.6411,26.31257],[-101.62679,26.2971],[-101.58059,26.2793],[-101.55845,26.26649],[-101.50531,26.33878],[-101.45489,26.26737],[-101.37125,26.27018],[-101.34799,26.29584],[-101.34617,26.30522],[-101.32243,26.29766],[-101.31597,26.30007],[-101.31145,26.31013],[-101.23778,26.28513],[-101.2356,26.28994],[-101.22051,26.28149],[-101.18201,26.24107],[-101.14034,26.21744],[-101.12314,26.18521],[-101.07465,26.19897],[-101.06857,26.18903],[-101.0474,26.16985],[-100.98274,26.13948],[-100.94264,26.09062],[-100.9429,26.08679],[-100.91642,26.07561],[-100.90461,26.0087],[-100.90553,25.95695],[-100.87688,25.94722],[-100.83442,25.94504],[-100.82724,25.9205],[-100.82267,25.91688],[-100.83577,25.86659],[-100.84707,25.85789],[-100.8619,25.81848],[-100.82512,25.75172],[-100.80561,25.7243],[-100.8037,25.70876],[-100.78778,25.6836],[-100.78041,25.64573],[-100.78342,25.63968],[-100.72977,25.6339],[-100.71992,25.60307],[-100.69029,25.5671],[-100.6329,25.5713],[-100.61196,25.5514],[-100.61473,25.54235],[-100.5943,25.54437],[-100.53844,25.53185],[-100.5297,25.51439],[-100.59975,25.51996],[-100.61005,25.51352],[-100.67864,25.52536],[-100.69788,25.5248],[-100.70743,25.52078],[-100.71408,25.52172],[-100.72474,25.53584],[-100.73694,25.52883],[-100.75732,25.52433],[-100.77967,25.5089],[-100.82576,25.51124],[-100.871,25.48883],[-100.88563,25.48918],[-100.90961,25.51705],[-100.91468,25.50689],[-100.9264,25.51235],[-100.92939,25.5004],[-100.93567,25.49261],[-100.93606,25.50204],[-100.94325,25.50373],[-100.94628,25.50864],[-100.94983,25.50304],[-100.9524,25.50546],[-100.94567,25.51971],[-100.95372,25.52275],[-100.96383,25.50235],[-100.96841,25.5048],[-100.96752,25.50806],[-100.97172,25.50104],[-100.98136,25.49754],[-100.98627,25.48672],[-100.98244,25.49898],[-100.98719,25.50833],[-100.99829,25.51651],[-101.00038,25.51208],[-101.00635,25.50973],[-101.0194,25.51137],[-101.05596,25.49616],[-101.0837,25.49403],[-101.21549,25.45329],[-101.27662,25.45026],[-101.31294,25.46033],[-101.31369,25.46443],[-101.31081,25.46641],[-101.3162,25.4754],[-101.26802,25.48887],[-101.26433,25.52076],[-101.22293,25.52987],[-101.25196,25.53406],[-101.24519,25.5711],[-101.21794,25.59053],[-101.20611,25.59536],[-101.19269,25.59593],[-101.18365,25.60105],[-101.19218,25.60617],[-101.20144,25.60476],[-101.20714,25.6155],[-101.2218,25.61522],[-101.23309,25.62478],[-101.33075,25.62893],[-101.34222,25.65278],[-101.36224,25.66108],[-101.36334,25.64023],[-101.37066,25.63415],[-101.38687,25.63467],[-101.39027,25.63063],[-101.39718,25.63259],[-101.39129,25.62238],[-101.40351,25.62904],[-101.41146,25.60413],[-101.47167,25.65373],[-101.46074,25.66116],[-101.45109,25.65278],[-101.43481,25.66826],[-101.43746,25.67032],[-101.41564,25.68309],[-101.41217,25.69755],[-101.40698,25.69938],[-101.39342,25.75205],[-101.51064,25.76626],[-101.47531,25.71819],[-101.44473,25.69507],[-101.45487,25.69967],[-101.58938,25.70112],[-101.5904,25.74788],[-101.57863,25.81067],[-101.47793,25.84897],[-101.49049,25.84703],[-101.4934,25.85264],[-101.50152,25.85133],[-101.49951,25.85921],[-101.50555,25.85926],[-101.51895,25.86949],[-101.55557,25.8574],[-101.59045,25.91145],[-101.58627,25.89894],[-101.59948,25.8851],[-101.59444,25.86879],[-101.58474,25.86355],[-101.61661,25.80907],[-101.62315,25.8046],[-101.68367,25.83016],[-101.75301,25.84313],[-101.75572,25.81431],[-101.76981,25.8652],[-101.76758,25.8665],[-101.77184,25.89933],[-101.81047,25.93474],[-101.81402,25.94186],[-101.81624,25.96745],[-101.77271,25.98681],[-101.79946,26.05121],[-101.80861,26.10912],[-101.89485,26.12758],[-101.86608,26.21424],[-101.86902,26.2232],[-101.79363,26.2237],[-101.81084,26.32892],[-101.73932,26.31069],[-101.71438,26.313],[-101.7074,26.30132],[-101.69357,26.29932],[-101.67937,26.39715],[-101.66003,26.32329]]]}},{"type":"Feature","properties":{"code":"05025","stateCode":"05","municipalityCode":"025","name":"Piedras Negras"},"geometry":{"type":"Polygon","coordinates":[[[-100.64791,28.94075],[-100.63802,28.92698],[-100.62965,28.92255],[-100.63152,28.91678],[-100.64101,28.91518],[-100.63256,28.90374],[-100.6268,28.90391],[-100.62157,28.91005],[-100.61337,28.90118],[-100.60095,28.90161],[-100.60262,28.88689],[-100.58977,28.88776],[-100.59055,28.88355],[-100.59894,28.87963],[-100.59902,28.87524],[-100.59039,28.87292],[-100.58987,28.86157],[-100.573,28.84877],[-100.57702,28.83582],[-100.57352,28.82746],[-100.56179,28.8292],[-100.54667,28.82545],[-100.54611,28.81283],[-100.53584,28.80596],[-100.53378,28.80123],[-100.53299,28.78854],[-100.5381,28.78125],[-100.52993,28.77035],[-100.53344,28.75881],[-100.52831,28.75578],[-100.52106,28.75761],[-100.51452,28.75133],[-100.51444,28.74217],[-100.50737,28.74042],[-100.50667,28.71693],[-100.51202,28.70649],[-100.50819,28.68409],[-100.50029,28.66189],[-100.47962,28.65561],[-100.47435,28.64712],[-100.46147,28.64084],[-100.44618,28.64169],[-100.44757,28.61002],[-100.45975,28.60663],[-100.512,28.6356],[-100.54756,28.64172],[-100.55668,28.6397],[-100.56424,28.64111],[-100.56425,28.64451],[-100.60367,28.6515],[-100.61377,28.64957],[-100.63806,28.65595],[-100.65264,28.74869],[-100.67672,28.75227],[-100.74657,28.8462],[-100.7656,28.86539],[-100.72434,28.91123],[-100.68679,28.91531],[-100.68537,28.92477],[-100.70216,28.92902],[-100.70481,28.93386],[-100.70111,28.93813],[-100.67053,28.93121],[-100.64791,28.94075]]]}}]}