{
"type": "FeatureCollection",
"name": "06",
"crs": { "type": "name", "properties": { "name": "urn:ogc:def:crs:OGC:1.3:CRS84" } },
"features": [
{ "type": "Feature", "properties": { "code": "06009", "stateCode": "06", "municipalityCode": "009", "name": "Tecomán" }, "geometry": { "type": "MultiPolygon", "coordinates": [ [ [ [ -114.737343155984647, 18.372059999343922 ], [ -114.722503172463504, 18.365966695988849 ], [ -114.68960770689317, 18.371135919974368 ], [ -114.680502165638899, 18.361308419800558 ], [ -114.698368408068731, 18.345159230404761 ], [ -114.709431239751481, 18.350457446790148 ], [ -114.725001290430029, 18.342935157808306 ], [ -114.7244139814741, 18.347166741193462 ], [ -114.728750570917484, 18.349141506427006 ], [ -114.732301268295743, 18.342278781851657 ], [ -114.741145525478629, 18.344014147125883 ], [ -114.752103046935943, 18.338863909849557 ], [ -114.759389307703515, 18.34574174243129 ], [ -114.756376124532011, 18.365303726213977 ], [ -114.737343155984647, 18.372059999343922 ] ] ], [ [ [ -103.884281179710186, 19.121403109870613 ], [ -103.88384223007715, 19.112318289786504 ], [ -103.876622339856624, 19.11090539970326 ], [ -103.867846720404657, 19.101090289928898 ], [ -103.848409860259395, 19.107868859996696 ], [ -103.852408549609279, 19.084212319708357 ], [ -103.861173619915036, 19.086766770287269 ], [ -103.856038179775837, 19.08059483029453 ], [ -103.857339350200618, 19.045606600099294 ], [ -103.783541280258333, 19.05927799965448 ], [ -103.782670059733476, 19.063072429778707 ], [ -103.78728583021433, 19.065736850321208 ], [ -103.790717749806177, 19.074198029714044 ], [ -103.785009059773913, 19.075057950243693 ], [ -103.784529029744149, 19.078230350105322 ], [ -103.773016169636449, 19.078699280456135 ], [ -103.776083660118275, 19.07201395028417 ], [ -103.768649820309577, 19.068074399554551 ], [ -103.774138720243187, 19.059913939736674 ], [ -103.770740059624444, 19.045520779630206 ], [ -103.772030979680437, 19.037859020044614 ], [ -103.767871460086369, 19.027003249901632 ], [ -103.771884739916985, 19.021837539905096 ], [ -103.769944970428682, 19.000104260088381 ], [ -103.780716169971058, 18.99990939974208 ], [ -103.77757089037074, 18.977907379887405 ], [ -103.783978970347945, 18.956112769812218 ], [ -103.769864720099022, 18.948332519557717 ], [ -103.776344709973827, 18.942954550010977 ], [ -103.765117690365557, 18.940634150318107 ], [ -103.762219149710702, 18.948680580198108 ], [ -103.751467180172739, 18.94492668971543 ], [ -103.775349920058389, 18.916064549665872 ], [ -103.766959620062451, 18.922664280255685 ], [ -103.763910119870118, 18.921203079787006 ], [ -103.769220649947741, 18.911010320010103 ], [ -103.747971739873392, 18.909040540299394 ], [ -103.745175630447847, 18.917415120316548 ], [ -103.740783169840682, 18.917568230323734 ], [ -103.738345219769769, 18.904176020230445 ], [ -103.741103109601426, 18.90080662022708 ], [ -103.731989749577707, 18.907690090025206 ], [ -103.727962630122505, 18.90391205039656 ], [ -103.728843179802126, 18.912868650051564 ], [ -103.720767820317931, 18.901490430160042 ], [ -103.710980459746736, 18.900886259770672 ], [ -103.710852620277436, 18.894212180051284 ], [ -103.702724110423844, 18.891662549936306 ], [ -103.705069690118719, 18.890070030353012 ], [ -103.695570679849567, 18.88220967963635 ], [ -103.686714089987859, 18.881607749807284 ], [ -103.694171710380061, 18.865463630416983 ], [ -103.671042049539111, 18.854466170214966 ], [ -103.668637820456865, 18.858544890246744 ], [ -103.652223370085466, 18.848889540288852 ], [ -103.650287429692185, 18.840827519559536 ], [ -103.624624229827774, 18.826109429863578 ], [ -103.620691419638831, 18.820351820055212 ], [ -103.620031019655826, 18.801383199789424 ], [ -103.637468350007836, 18.783527280194466 ], [ -103.653711339831418, 18.776542420199636 ], [ -103.661843229737116, 18.778952109823951 ], [ -103.679017000374529, 18.773211050447095 ], [ -103.685438379932847, 18.757292770117061 ], [ -103.700302650216429, 18.754355749938465 ], [ -103.703645799736051, 18.738958739835393 ], [ -103.712717380297107, 18.72635394024875 ], [ -103.718930310177214, 18.710431490260085 ], [ -103.72568890989524, 18.707676680138398 ], [ -103.72875005039279, 18.700138979830356 ], [ -103.737982229904475, 18.694074429904532 ], [ -103.737905232960969, 18.684022942220828 ], [ -103.75264114029919, 18.703059249629501 ], [ -103.803418939847347, 18.748910230136545 ], [ -103.876595600293939, 18.799230910432978 ], [ -103.947504140461049, 18.842092250185498 ], [ -103.972546821056355, 18.86471167587348 ], [ -103.961824530129746, 18.867124840234727 ], [ -103.952723279447028, 18.879160049133009 ], [ -103.95573405691573, 18.890875843698218 ], [ -103.95043926504141, 18.89429614388709 ], [ -103.950890967660641, 18.901865996919749 ], [ -103.939467389942166, 18.915537001835524 ], [ -103.943624307557016, 18.920702985065763 ], [ -103.942226565104193, 18.930995702894414 ], [ -103.945979521975119, 18.942880805537946 ], [ -103.941770979251672, 18.948035564033436 ], [ -103.945869125471873, 18.956859870924443 ], [ -103.939117623326808, 18.958514115481169 ], [ -103.930962709444657, 18.950161245550067 ], [ -103.920392230331274, 18.949766184306167 ], [ -103.914206051871105, 18.957702783732849 ], [ -103.919897430361118, 18.982357754234091 ], [ -103.912983923067983, 18.995275492757568 ], [ -103.914449183390033, 19.008379112405436 ], [ -103.908203489141968, 19.014668607052492 ], [ -103.9124784234385, 19.026170023709678 ], [ -103.913279027200232, 19.045447906919957 ], [ -103.906109159176097, 19.070989892067612 ], [ -103.900038190574648, 19.077817932230978 ], [ -103.895555200997336, 19.091013892200579 ], [ -103.897463169921096, 19.101909820089713 ], [ -103.884281179710186, 19.121403109870613 ] ] ], [ [ [ -110.986336276066737, 18.861140359239528 ], [ -110.979793476660049, 18.85749866703749 ], [ -110.977135401114438, 18.861545624874182 ], [ -110.977746713456597, 18.854759013543397 ], [ -110.969803516426154, 18.854412719572348 ], [ -110.95774345186571, 18.837958013399643 ], [ -110.950987517549933, 18.836416070590861 ], [ -110.946816148809347, 18.840264378709403 ], [ -110.943881044207686, 18.834138650526413 ], [ -110.940263049397146, 18.834317716796683 ], [ -110.939414375995213, 18.82252382167961 ], [ -110.930303942534152, 18.817340905688152 ], [ -110.930043518103361, 18.812208335984444 ], [ -110.915793347644652, 18.79835389026211 ], [ -110.917536434285296, 18.791866707479997 ], [ -110.915052461647434, 18.782390326917124 ], [ -110.907745076124939, 18.778911535328017 ], [ -110.915679816467033, 18.776953383796755 ], [ -110.919036854129516, 18.769722686386569 ], [ -110.915932006064921, 18.754595870134885 ], [ -110.920091834044129, 18.732295176187222 ], [ -110.92866859686923, 18.727874454420618 ], [ -110.940099567533252, 18.730122801030539 ], [ -110.942870946573251, 18.721678841174015 ], [ -110.949548931254924, 18.726344888346276 ], [ -110.951474520800843, 18.719222983132248 ], [ -110.958119745146661, 18.723770608927737 ], [ -110.954958786066967, 18.731254223742006 ], [ -110.960698174989034, 18.733504005957609 ], [ -110.960779942782565, 18.737050829526812 ], [ -110.963622895847536, 18.735465469671123 ], [ -110.964082843328697, 18.740933607029771 ], [ -110.970817339313143, 18.745283580883036 ], [ -110.979375703520944, 18.747100534192082 ], [ -110.984539510403025, 18.744800163771707 ], [ -110.988981445849575, 18.752958187749442 ], [ -110.996630613677652, 18.753964613729572 ], [ -111.000214264473414, 18.758261954554133 ], [ -111.005960240944802, 18.752566105441325 ], [ -111.010891147299418, 18.756278514626093 ], [ -111.015535534348601, 18.75374418078589 ], [ -111.018622366861223, 18.760806830145253 ], [ -111.015137428565765, 18.764495731321311 ], [ -111.019075570758787, 18.763851573145892 ], [ -111.022963313664349, 18.768922235466977 ], [ -111.021429268255531, 18.775062219616444 ], [ -111.028288821816005, 18.775154526780216 ], [ -111.02752200728132, 18.778416561084676 ], [ -111.033316122076727, 18.780300617223642 ], [ -111.035862032199717, 18.787923752504962 ], [ -111.040570491511815, 18.784064707969268 ], [ -111.046234777019734, 18.785884109084911 ], [ -111.049110678070846, 18.779854984389459 ], [ -111.055591438690527, 18.780688869960883 ], [ -111.052297622620486, 18.787631319100733 ], [ -111.045768989624904, 18.790640233062163 ], [ -111.04742796655384, 18.79399653103766 ], [ -111.041510922158622, 18.794832401689582 ], [ -111.040968886415087, 18.798441098377548 ], [ -111.046452783727958, 18.801711462651063 ], [ -111.045104133660303, 18.807216813581981 ], [ -111.04821316711454, 18.808493873135678 ], [ -111.043420802410168, 18.814518404965217 ], [ -111.052058195779054, 18.816302956271524 ], [ -111.041624087506094, 18.816690539952045 ], [ -111.040454872602268, 18.813880662263077 ], [ -111.037023112088846, 18.821047288961502 ], [ -111.027431414790357, 18.818935116196659 ], [ -111.028519619184365, 18.823190047616361 ], [ -111.025105099842193, 18.826059123664095 ], [ -111.018015366236213, 18.822524115552678 ], [ -111.012935733874841, 18.82537271384895 ], [ -111.010464372592452, 18.831439764755174 ], [ -111.012533343942621, 18.834083198380885 ], [ -111.008955712672218, 18.834873543386632 ], [ -111.007030717980584, 18.84007716956819 ], [ -111.009897924733579, 18.843793764900955 ], [ -111.008285853636011, 18.846866545407096 ], [ -111.000635568401165, 18.853180939798879 ], [ -110.997929320260539, 18.851902701319734 ], [ -110.998898539172956, 18.858949359941185 ], [ -110.989337234415359, 18.860769065565076 ], [ -110.991099392997711, 18.864552135821004 ], [ -110.98855396614411, 18.86648040182541 ], [ -110.983784722987906, 18.863740963315966 ], [ -110.986336276066737, 18.861140359239528 ] ] ] ] } },
{ "type": "Feature", "properties": { "code": "06005", "stateCode": "06", "municipalityCode": "005", "name": "Cuauhtémoc" }, "geometry": { "type": "Polygon", "coordinates": [ [ [ -103.612479229995103, 19.488632060279002 ], [ -103.615357570086374, 19.474995450206109 ], [ -103.60147240017703, 19.462681950333934 ], [ -103.58666282982054, 19.444029450000684 ], [ -103.586328520347337, 19.439524599660622 ], [ -103.578916690390827, 19.435485750242076 ], [ -103.574268420017887, 19.4115623201224 ], [ -103.568160740347622, 19.406115889724596 ], [ -103.558911230028656, 19.409004619849661 ], [ -103.55169557968226, 19.399176910453757 ], [ -103.542974769619647, 19.393980720180483 ], [ -103.536327659921184, 19.381045259999851 ], [ -103.526626890391015, 19.372615820272774 ], [ -103.523395429611625, 19.359333780337824 ], [ -103.517146110059301, 19.357079819643559 ], [ -103.518603519560614, 19.35462397042134 ], [ -103.500280910171142, 19.34444148033857 ], [ -103.492553658462029, 19.346505737400342 ], [ -103.486429980247664, 19.337890650083292 ], [ -103.486602320313807, 19.327932050112626 ], [ -103.495603149765657, 19.320131649698766 ], [ -103.490017630187367, 19.314524830223881 ], [ -103.490114199968289, 19.310270509902903 ], [ -103.49922662012878, 19.308506509688726 ], [ -103.500966879629985, 19.299750600376132 ], [ -103.509181580435353, 19.295149909644341 ], [ -103.506216200374794, 19.289713940106825 ], [ -103.508875660087796, 19.267111259620442 ], [ -103.505328649942641, 19.253268020274632 ], [ -103.509906219559952, 19.243301509684667 ], [ -103.505690780035195, 19.236156510357173 ], [ -103.506596370349854, 19.227494969685345 ], [ -103.514133780078069, 19.217193080381477 ], [ -103.562441710280467, 19.215642939608131 ], [ -103.566414919832681, 19.216686349870063 ], [ -103.570054970455999, 19.228671380278382 ], [ -103.574266739552783, 19.229795819909764 ], [ -103.583030910413271, 19.224467079911765 ], [ -103.598930570357567, 19.221283569589168 ], [ -103.607193139946673, 19.212174059646163 ], [ -103.623133679588889, 19.20707557969742 ], [ -103.634798860019799, 19.199542769732002 ], [ -103.636548630440387, 19.194968430146602 ], [ -103.64260795009973, 19.193426459960143 ], [ -103.644179890455945, 19.188265630299821 ], [ -103.649002550093442, 19.190617539596179 ], [ -103.650000250241916, 19.194220689804556 ], [ -103.639372219857577, 19.206266999889525 ], [ -103.655002770225252, 19.21306290974108 ], [ -103.652879060364256, 19.218260939548422 ], [ -103.650362940067495, 19.217667770081189 ], [ -103.650861149872568, 19.232683309645775 ], [ -103.665123400449517, 19.229609089731763 ], [ -103.675002289417009, 19.234283803334961 ], [ -103.675554486718212, 19.240935224507275 ], [ -103.658693689868286, 19.255459079943673 ], [ -103.662287479891944, 19.256476140244004 ], [ -103.660096139820993, 19.26133992004193 ], [ -103.662876449781606, 19.269523029588093 ], [ -103.672742719615997, 19.270028799699144 ], [ -103.681789480395707, 19.263851830020585 ], [ -103.688123549600959, 19.268673400187364 ], [ -103.674319779971881, 19.284372259783197 ], [ -103.671344429860582, 19.298200229917178 ], [ -103.663681430318817, 19.309259819997418 ], [ -103.665738370218776, 19.311883059992233 ], [ -103.660675020285424, 19.312963709784171 ], [ -103.660814769788516, 19.318594449636823 ], [ -103.679171460145753, 19.325760249954001 ], [ -103.673580549964981, 19.338284919554845 ], [ -103.682811749594663, 19.335399519949931 ], [ -103.690519799902148, 19.33780204992819 ], [ -103.687509350138328, 19.347463979755055 ], [ -103.678067060274671, 19.342852340241816 ], [ -103.671298510340705, 19.356725539925904 ], [ -103.674372679687906, 19.361146049964269 ], [ -103.673372540058367, 19.367811880303044 ], [ -103.67620948954611, 19.369501849587898 ], [ -103.674824920241122, 19.374283890170986 ], [ -103.679626220040561, 19.377165549895064 ], [ -103.673483819728972, 19.390216980438634 ], [ -103.669805220329351, 19.395318919724264 ], [ -103.665745379903711, 19.391100089679721 ], [ -103.661181859522245, 19.393604349785427 ], [ -103.654755050373083, 19.386468950009284 ], [ -103.651103549932984, 19.395714140377169 ], [ -103.653383319930796, 19.402837309924234 ], [ -103.646810709965507, 19.408785460065594 ], [ -103.650318289984384, 19.415324770298191 ], [ -103.64767105047558, 19.428191520373169 ], [ -103.656752527438499, 19.429168418271246 ], [ -103.653762969220892, 19.432967845574026 ], [ -103.660456368717263, 19.432050585371808 ], [ -103.661375272322175, 19.429287417155482 ], [ -103.673472259650353, 19.431439030380222 ], [ -103.672033000222072, 19.440379169967244 ], [ -103.674825379769459, 19.445154480139394 ], [ -103.670859279710371, 19.445368799887515 ], [ -103.668810089890002, 19.462237969897732 ], [ -103.64308492046159, 19.471393379809061 ], [ -103.645989519880246, 19.476157919883377 ], [ -103.638565770409826, 19.480089549838485 ], [ -103.636299310394662, 19.467840280085969 ], [ -103.626030679904659, 19.486076120302666 ], [ -103.612479229995103, 19.488632060279002 ] ] ] } },
{ "type": "Feature", "properties": { "code": "06010", "stateCode": "06", "municipalityCode": "010", "name": "Villa de Álvarez" }, "geometry": { "type": "Polygon", "coordinates": [ [ [ -103.655870999846002, 19.429145709572904 ], [ -103.64767105047558, 19.428191520373169 ], [ -103.650318289984384, 19.415324770298191 ], [ -103.646810709965507, 19.408785460065594 ], [ -103.653383319930796, 19.402837309924234 ], [ -103.651622539559654, 19.393868140444603 ], [ -103.654755050373083, 19.386468950009284 ], [ -103.661181859522245, 19.393604349785427 ], [ -103.665745379903711, 19.391100089679721 ], [ -103.669805220329351, 19.395318919724264 ], [ -103.673483819728972, 19.390216980438634 ], [ -103.679626220040561, 19.377165549895064 ], [ -103.674824920241122, 19.374283890170986 ], [ -103.67620948954611, 19.369501849587898 ], [ -103.673372540058367, 19.367811880303044 ], [ -103.674372679687906, 19.361146049964269 ], [ -103.671298510340705, 19.356725539925904 ], [ -103.678067060274671, 19.342852340241816 ], [ -103.687509350138328, 19.347463979755055 ], [ -103.690519799902148, 19.33780204992819 ], [ -103.682811749594663, 19.335399519949931 ], [ -103.673580549964981, 19.338284919554845 ], [ -103.675239290034639, 19.330620280197675 ], [ -103.683947429649706, 19.32209683039801 ], [ -103.685914964238009, 19.314614259738324 ], [ -103.692462426948609, 19.311585846914795 ], [ -103.702010261139279, 19.298140500432961 ], [ -103.709086554359786, 19.294159414850103 ], [ -103.71542284025557, 19.2753431328081 ], [ -103.730149146370039, 19.25716747826106 ], [ -103.73272504888854, 19.254833483679221 ], [ -103.737408126574564, 19.256437577925393 ], [ -103.738771549129495, 19.252910598291351 ], [ -103.776107552133567, 19.236998095712497 ], [ -103.791308059605768, 19.246649020356681 ], [ -103.781264350310934, 19.252744020391329 ], [ -103.788477939610331, 19.251827780337582 ], [ -103.801212819796277, 19.264521910037086 ], [ -103.811751340297775, 19.252968280039244 ], [ -103.828114050380378, 19.255060830424895 ], [ -103.835111999689872, 19.258975630240553 ], [ -103.843305600230721, 19.239929349781008 ], [ -103.84205591001124, 19.227918450399073 ], [ -103.836455919883235, 19.220167450055492 ], [ -103.840150920183589, 19.22158329029158 ], [ -103.845902910210071, 19.237614480033194 ], [ -103.840974650317833, 19.250956049652963 ], [ -103.89643523021816, 19.254604780150554 ], [ -103.912851379972807, 19.262492510229613 ], [ -103.913836340209826, 19.267435260053364 ], [ -103.931072000078359, 19.265669180443545 ], [ -103.934322680407419, 19.267862939614574 ], [ -103.931609309623582, 19.272950460238594 ], [ -103.934345349671887, 19.276321029886823 ], [ -103.957086710135073, 19.290689549973333 ], [ -103.986364250187435, 19.282070060088596 ], [ -103.990381619674437, 19.286664679985545 ], [ -104.005032030219652, 19.290710259819836 ], [ -104.022099370281737, 19.287377030000947 ], [ -104.029257260178809, 19.292198080034936 ], [ -104.02133564893299, 19.307465059866612 ], [ -104.026072939241658, 19.314294340459718 ], [ -104.023475549339366, 19.318623170779233 ], [ -104.008288860374705, 19.328052820872138 ], [ -104.003462910112361, 19.336589800493336 ], [ -103.997136349505425, 19.340101971354581 ], [ -103.999058629983068, 19.351576740962447 ], [ -103.983653828776227, 19.348588019897623 ], [ -103.981350659745033, 19.363282449631484 ], [ -103.961173890457815, 19.362092430865559 ], [ -103.956458218638815, 19.35446648986326 ], [ -103.935783620185376, 19.345682940964164 ], [ -103.936126480411687, 19.34844865133817 ], [ -103.912183689902704, 19.364498350404453 ], [ -103.915966449869046, 19.358572509919018 ], [ -103.908512999283857, 19.340521939749959 ], [ -103.894430029569648, 19.342923419990004 ], [ -103.882437909886391, 19.350227890060093 ], [ -103.877865570030878, 19.338938289915756 ], [ -103.864619716252548, 19.345369624951697 ], [ -103.857247490026523, 19.345048595995586 ], [ -103.747886581047382, 19.290679388294567 ], [ -103.742228993404126, 19.311197163392908 ], [ -103.716319891969135, 19.326946385021678 ], [ -103.70347996914424, 19.342631584952166 ], [ -103.699290830889538, 19.363148477150538 ], [ -103.685147523464536, 19.382879691999353 ], [ -103.677129430534237, 19.408951937772795 ], [ -103.655870999846002, 19.429145709572904 ] ] ] } },
{ "type": "Feature", "properties": { "code": "06008", "stateCode": "06", "municipalityCode": "008", "name": "Minatitlán" }, "geometry": { "type": "Polygon", "coordinates": [ [ [ -104.0617249413216, 19.497702938912596 ], [ -104.051763598988217, 19.497600540233154 ], [ -104.039135709712397, 19.484661460752658 ], [ -104.000045550014747, 19.468828831223149 ], [ -103.997672429615761, 19.471626180638616 ], [ -103.988164340373743, 19.471160249681489 ], [ -103.987097119515283, 19.474295919729791 ], [ -103.974007090269467, 19.474552910784137 ], [ -103.971290089680068, 19.462632490701559 ], [ -103.964798659866531, 19.454162650667424 ], [ -103.89952159986025, 19.434547250354424 ], [ -103.885203919908875, 19.422447310489535 ], [ -103.883647969955476, 19.412581400540983 ], [ -103.886917218714828, 19.40564270992536 ], [ -103.881117430332196, 19.393480820596654 ], [ -103.885437379550936, 19.367983741010153 ], [ -103.881794369756136, 19.357312820525006 ], [ -103.906065459144926, 19.33954492000105 ], [ -103.909945150437466, 19.341916029808189 ], [ -103.915966449869003, 19.358572509918964 ], [ -103.911197679714476, 19.363874200310548 ], [ -103.912183689902662, 19.364498350404403 ], [ -103.93612648041163, 19.348448651338082 ], [ -103.935783620185418, 19.345682940964178 ], [ -103.956458218638772, 19.354466489863324 ], [ -103.961173890457843, 19.362092430865591 ], [ -103.98135065974499, 19.36328244963142 ], [ -103.983653828776184, 19.348588019897573 ], [ -103.99905862998304, 19.351576740962479 ], [ -103.997136349505453, 19.340101971354528 ], [ -104.003462910112404, 19.336589800493286 ], [ -104.008288860374648, 19.328052820872056 ], [ -104.023475549339409, 19.318623170779247 ], [ -104.026072939241601, 19.314294340459668 ], [ -104.021335648932933, 19.307465059866647 ], [ -104.029257260178767, 19.292198080034954 ], [ -104.039691550292673, 19.293213170995642 ], [ -104.043176768811193, 19.300701399719404 ], [ -104.05178996925531, 19.306319429869735 ], [ -104.062996348681807, 19.301842510573081 ], [ -104.057790489105315, 19.292009080275552 ], [ -104.069020338741666, 19.286215520805257 ], [ -104.065796048918742, 19.280715800531969 ], [ -104.056018519777368, 19.284795170679722 ], [ -104.051990889991657, 19.274310651109232 ], [ -104.040922339483501, 19.273768720321677 ], [ -104.032034319294524, 19.277003690447302 ], [ -104.034063248571755, 19.265895349591389 ], [ -104.041858219886478, 19.257951919970839 ], [ -104.044712148864051, 19.250165720051598 ], [ -104.048745910063417, 19.248641549645409 ], [ -104.052883549803852, 19.250974319656347 ], [ -104.068766740113873, 19.245831059754856 ], [ -104.075867178850586, 19.251175831208222 ], [ -104.092966859250524, 19.24938168020574 ], [ -104.115340230091391, 19.255377061046083 ], [ -104.122556489376549, 19.258124691134245 ], [ -104.118396379881617, 19.266807249784936 ], [ -104.144768778872361, 19.268649999646737 ], [ -104.172688508580876, 19.277236109946983 ], [ -104.171305428921542, 19.282336181319398 ], [ -104.176599649920803, 19.28549195016085 ], [ -104.22733437947835, 19.297957969872456 ], [ -104.223268920255052, 19.301685599888085 ], [ -104.218424170380032, 19.299015621047758 ], [ -104.214173199759941, 19.302373340118038 ], [ -104.207597719140239, 19.29982220009957 ], [ -104.204755199571252, 19.303704400110917 ], [ -104.190357599153288, 19.292306020664547 ], [ -104.190016370224797, 19.302032709563644 ], [ -104.179630690054722, 19.308804290242495 ], [ -104.17980131889675, 19.312562120597828 ], [ -104.169796578741511, 19.312963739747893 ], [ -104.168809829699185, 19.307676630819881 ], [ -104.163755488914234, 19.308228719663198 ], [ -104.161649829566969, 19.30271964957825 ], [ -104.152930378982731, 19.315152419986713 ], [ -104.144789089711622, 19.311240969969475 ], [ -104.140158860166736, 19.316167030813869 ], [ -104.136035998768861, 19.312934940700735 ], [ -104.132207749430009, 19.320886260623819 ], [ -104.129600169019739, 19.31776447983858 ], [ -104.122736029083981, 19.319287350084302 ], [ -104.12549736956764, 19.324252251301953 ], [ -104.121588628841778, 19.32749655020071 ], [ -104.124726508925036, 19.328689709579439 ], [ -104.133344120049657, 19.353745830834256 ], [ -104.120263219615708, 19.360090450330766 ], [ -104.11879858007957, 19.3716635508591 ], [ -104.109598000416568, 19.381197089957002 ], [ -104.090226219386935, 19.393024799613979 ], [ -104.083837399249447, 19.415598949587778 ], [ -104.070883748859913, 19.435235431270613 ], [ -104.079942939104342, 19.431781749725047 ], [ -104.086639778886962, 19.44203100022283 ], [ -104.076739519129205, 19.480214720192681 ], [ -104.068981258898361, 19.484296830432449 ], [ -104.0617249413216, 19.497702938912596 ] ] ] } },
{ "type": "Feature", "properties": { "code": "06002", "stateCode": "06", "municipalityCode": "002", "name": "Colima" }, "geometry": { "type": "Polygon", "coordinates": [ [ [ -103.678870879660579, 19.325608479922845 ], [ -103.662547650007212, 19.320509139746473 ], [ -103.660395950260948, 19.313729829635058 ], [ -103.665738370218776, 19.311883059992233 ], [ -103.663681430318817, 19.309259819997418 ], [ -103.671344429860582, 19.298200229917178 ], [ -103.674319779971881, 19.284372259783197 ], [ -103.688123549600959, 19.268673400187364 ], [ -103.681789480395707, 19.263851830020585 ], [ -103.672742719615997, 19.270028799699144 ], [ -103.662876449781606, 19.269523029588093 ], [ -103.660096139820993, 19.26133992004193 ], [ -103.662287479891944, 19.256476140244004 ], [ -103.658693689868286, 19.255459079943673 ], [ -103.675554486718212, 19.240935224507275 ], [ -103.675002289417009, 19.234283803334961 ], [ -103.665123400449517, 19.229609089731763 ], [ -103.650861149872568, 19.232683309645775 ], [ -103.650362940067495, 19.217667770081189 ], [ -103.652879060364256, 19.218260939548422 ], [ -103.655002770225252, 19.21306290974108 ], [ -103.639372219857577, 19.206266999889525 ], [ -103.650000250241916, 19.194220689804556 ], [ -103.649002550093442, 19.190617539596179 ], [ -103.643819180013139, 19.188322349857362 ], [ -103.64260795009973, 19.193426459960143 ], [ -103.636548630440387, 19.194968430146602 ], [ -103.634798860019799, 19.199542769732002 ], [ -103.623133679588889, 19.20707557969742 ], [ -103.607193139946673, 19.212174059646163 ], [ -103.598930570357567, 19.221283569589168 ], [ -103.583030910413271, 19.224467079911765 ], [ -103.574266739552783, 19.229795819909764 ], [ -103.570054970455999, 19.228671380278382 ], [ -103.566414919832681, 19.216686349870063 ], [ -103.562441710280467, 19.215642939608131 ], [ -103.511276310036209, 19.21679150971416 ], [ -103.510032339993259, 19.213389509713448 ], [ -103.51523851959405, 19.211351799998329 ], [ -103.511382850040007, 19.206797420325579 ], [ -103.510865059644559, 19.199657939630441 ], [ -103.503532630307177, 19.194860680333356 ], [ -103.498244400128698, 19.186043150261547 ], [ -103.49763088032384, 19.174642149695941 ], [ -103.503126800195375, 19.170172120251642 ], [ -103.502120550084371, 19.162485909853807 ], [ -103.509165650197801, 19.155961310120851 ], [ -103.513954549802222, 19.138340539929604 ], [ -103.511009050308573, 19.13204911026196 ], [ -103.519556939890464, 19.124454540108157 ], [ -103.523616799528085, 19.115640659920082 ], [ -103.520653879827336, 19.111660370123381 ], [ -103.521127090229427, 19.101980279597441 ], [ -103.51738777995061, 19.098790600162591 ], [ -103.522333109936625, 19.092781279826657 ], [ -103.526480630064796, 19.078728049909831 ], [ -103.522226000023736, 19.076665230333841 ], [ -103.522574140070901, 19.066214850182252 ], [ -103.509364059549796, 19.057556450192777 ], [ -103.506588400343915, 19.049421139971187 ], [ -103.5013406900338, 19.048722950069671 ], [ -103.496901720329461, 19.041702399589774 ], [ -103.496951050123712, 19.035176780206672 ], [ -103.490905200011994, 19.032669829917705 ], [ -103.488505540091836, 19.027586750129924 ], [ -103.498782219761296, 19.011673649594496 ], [ -103.493949110336686, 19.006892349722683 ], [ -103.490831220327834, 18.995820819944814 ], [ -103.48985071045945, 18.980771649742426 ], [ -103.495675889959827, 18.972043680406031 ], [ -103.489542050321148, 18.968691489763444 ], [ -103.488764080454999, 18.962144170165089 ], [ -103.493061780421513, 18.957955949850433 ], [ -103.508601450247426, 18.96367131973183 ], [ -103.502915380087757, 18.95778955018152 ], [ -103.506370000324821, 18.948225519787325 ], [ -103.510157280124531, 18.946262110245126 ], [ -103.512407449852603, 18.949407630362188 ], [ -103.519467850164858, 18.950226149664942 ], [ -103.522535630325763, 18.947916690205464 ], [ -103.514584199574969, 18.93859362974359 ], [ -103.514421619907026, 18.934388740189174 ], [ -103.523548320119346, 18.927198940084896 ], [ -103.534058710415863, 18.926293199777458 ], [ -103.528414030029836, 18.912316719732825 ], [ -103.531347919598801, 18.906259120107201 ], [ -103.541489059990212, 18.909665229639067 ], [ -103.558074680365308, 18.906580429565441 ], [ -103.559624999740393, 18.895955689861392 ], [ -103.568853289759105, 18.892518799751535 ], [ -103.573244139546901, 18.871327890363158 ], [ -103.581167000299601, 18.875929059567923 ], [ -103.578464370107412, 18.880236380357253 ], [ -103.590711949880571, 18.903462280118966 ], [ -103.596208860463946, 18.904239139842304 ], [ -103.589555030176527, 18.906945280133851 ], [ -103.585156570036432, 18.917337509951729 ], [ -103.57995606013283, 18.917110249571877 ], [ -103.57971323025123, 18.928354739984645 ], [ -103.58800008028895, 18.926867520321146 ], [ -103.589471260456392, 18.934066770421818 ], [ -103.58542043043839, 18.977156580055382 ], [ -103.592323429972012, 18.980956370212514 ], [ -103.588871119829108, 18.985342259576633 ], [ -103.592228799779321, 19.004532769857491 ], [ -103.603071139765206, 19.010225550300703 ], [ -103.611786539525738, 19.028477550138419 ], [ -103.636005920292888, 19.028300199618595 ], [ -103.646903199814034, 19.021891400346185 ], [ -103.648388620466662, 19.016657339849747 ], [ -103.648513219897808, 19.032434619750855 ], [ -103.642916629744505, 19.051404109748837 ], [ -103.645038510047542, 19.056212710001084 ], [ -103.657315620246052, 19.058180540375652 ], [ -103.658397370110407, 19.062556569816682 ], [ -103.679120550033886, 19.07051210982068 ], [ -103.683407819868023, 19.072776420208967 ], [ -103.682382720437332, 19.074807890083456 ], [ -103.718204719730963, 19.08850621995715 ], [ -103.720266860157878, 19.080124310029927 ], [ -103.727654549726438, 19.071527420181642 ], [ -103.725120420195438, 19.064678169730271 ], [ -103.740568860004714, 19.069870370430849 ], [ -103.74209168038405, 19.0656582001549 ], [ -103.750305219653612, 19.064292620130985 ], [ -103.751094090215773, 19.061176629888575 ], [ -103.753542680345547, 19.062450819709365 ], [ -103.752883429658382, 19.071825200299454 ], [ -103.766907710439128, 19.070681199869306 ], [ -103.768649820309562, 19.068074399554501 ], [ -103.77608366011826, 19.07201395028412 ], [ -103.773016169636435, 19.078699280456117 ], [ -103.784529029744121, 19.078230350105358 ], [ -103.782611169811361, 19.088773140185058 ], [ -103.797604150449018, 19.106199860091191 ], [ -103.817040049720958, 19.121842570355277 ], [ -103.82584016966814, 19.135985710389555 ], [ -103.800181510403604, 19.151539199606763 ], [ -103.796751619954478, 19.148547199894271 ], [ -103.793454479670373, 19.154904679589354 ], [ -103.779376410319799, 19.147892375885036 ], [ -103.782692304193844, 19.174972177206595 ], [ -103.776107552133567, 19.236998095712497 ], [ -103.738771549129495, 19.252910598291351 ], [ -103.737408126574564, 19.256437577925393 ], [ -103.73272504888854, 19.254833483679221 ], [ -103.730149146370039, 19.25716747826106 ], [ -103.71542284025557, 19.2753431328081 ], [ -103.709086554359786, 19.294159414850103 ], [ -103.702010261139279, 19.298140500432961 ], [ -103.692462426948609, 19.311585846914795 ], [ -103.685914964238009, 19.314614259738324 ], [ -103.683947429649706, 19.32209683039801 ], [ -103.678870879660579, 19.325608479922845 ] ] ] } },
{ "type": "Feature", "properties": { "code": "06007", "stateCode": "06", "municipalityCode": "007", "name": "Manzanillo" }, "geometry": { "type": "MultiPolygon", "coordinates": [ [ [ [ -104.488821527962827, 19.103569806048039 ], [ -104.484882547240943, 19.10282229492795 ], [ -104.487341392155429, 19.101207211876794 ], [ -104.488821527962827, 19.103569806048039 ] ] ], [ [ [ -104.243669310346149, 19.310091719683133 ], [ -104.223268920255123, 19.301685599888106 ], [ -104.227334379478421, 19.297957969872456 ], [ -104.176599649920774, 19.285491950160885 ], [ -104.171305428921514, 19.282336181319348 ], [ -104.172688508580933, 19.277236109947061 ], [ -104.144768778872418, 19.268649999646737 ], [ -104.118396379881588, 19.266807249784851 ], [ -104.122556489376521, 19.258124691134263 ], [ -104.117732489659957, 19.256102970276782 ], [ -104.09296685925051, 19.249381680205651 ], [ -104.075867178850658, 19.25117583120829 ], [ -104.068766740113844, 19.245831059754792 ], [ -104.069749230927243, 19.240476471774929 ], [ -104.061607826910617, 19.23509839970059 ], [ -104.06066167711451, 19.225128223500629 ], [ -104.056231462531713, 19.218831695553643 ], [ -104.046874774536349, 19.218458094583664 ], [ -104.04261635405345, 19.213214151931428 ], [ -104.03452645796888, 19.212502257354775 ], [ -104.035371675362668, 19.202216253996308 ], [ -104.030443837358789, 19.198953432151761 ], [ -104.035146196478692, 19.194390209152598 ], [ -104.032052729524082, 19.181501262160044 ], [ -104.048339052501291, 19.163855374671151 ], [ -104.063754714018785, 19.155078595318493 ], [ -104.059293844748694, 19.150216563055643 ], [ -104.064766029983787, 19.145336060308939 ], [ -104.069404309791366, 19.132309719609861 ], [ -104.062531259867072, 19.1186995502934 ], [ -104.067874019839167, 19.10193654980862 ], [ -104.042171369932362, 19.08200034006429 ], [ -104.039853079558796, 19.076286519886462 ], [ -104.031287179979529, 19.06998039981632 ], [ -104.030777849847581, 19.063838859914775 ], [ -104.026879120153794, 19.059928910195939 ], [ -104.029139200351196, 19.057619690238081 ], [ -104.027927540013891, 19.045795659736353 ], [ -104.023076340244344, 19.038804379832619 ], [ -104.032353619743745, 19.031463369997688 ], [ -104.034390979639937, 19.02472743024569 ], [ -104.031875690076276, 19.024306599662914 ], [ -104.036814220393779, 19.021772479654697 ], [ -104.030140829964779, 19.012597510043463 ], [ -104.050756949682977, 19.008742879731916 ], [ -104.055991909562962, 19.013657650116912 ], [ -104.058368880071612, 19.01157460016795 ], [ -104.060460879539463, 19.013637030166183 ], [ -104.066862920398421, 19.009131059715649 ], [ -104.077969749616315, 18.987408620010104 ], [ -104.092185949550569, 18.990018140347424 ], [ -104.09329982045827, 18.986977460004738 ], [ -104.099866569898296, 18.98709709032266 ], [ -104.118563710137224, 18.948517170031163 ], [ -104.116608460323562, 18.943806719840627 ], [ -104.222790435574183, 18.98652849792494 ], [ -104.250178749165485, 18.996027619098545 ], [ -104.257678330004182, 18.994894898997984 ], [ -104.256529707311103, 18.998393336076312 ], [ -104.262644266413531, 18.996699601098122 ], [ -104.265093030239768, 19.001310740337246 ], [ -104.283572709638705, 19.008702120095556 ], [ -104.316493455968214, 19.018376330420178 ], [ -104.328769280409389, 19.020005229657759 ], [ -104.332064120127427, 19.017621879587011 ], [ -104.336464980222047, 19.022419890134685 ], [ -104.336290573282454, 19.029441300200066 ], [ -104.331002380011469, 19.036290660069888 ], [ -104.330074250419656, 19.051159859801352 ], [ -104.314664338862926, 19.061171080851341 ], [ -104.3176865819851, 19.054676197016533 ], [ -104.31169289380766, 19.058515934830506 ], [ -104.314272228891411, 19.054099654590036 ], [ -104.305351630842523, 19.057295568757304 ], [ -104.303953697701019, 19.071855489304603 ], [ -104.314461398721377, 19.089825180151806 ], [ -104.333972977045576, 19.102160305118446 ], [ -104.345389632366562, 19.103172765162874 ], [ -104.346870779873598, 19.099697719830541 ], [ -104.344016770172871, 19.098432800217484 ], [ -104.348768983625504, 19.096761327020996 ], [ -104.35026719989304, 19.090821750256119 ], [ -104.354155339796975, 19.09103779957146 ], [ -104.356172677631207, 19.096944544780918 ], [ -104.349826654036491, 19.103507098409779 ], [ -104.353873179994608, 19.104034290241138 ], [ -104.350859340791658, 19.110369463783517 ], [ -104.356953520267567, 19.11612935001726 ], [ -104.377005059541915, 19.119615090044888 ], [ -104.394924400398949, 19.113862109732988 ], [ -104.398569710277471, 19.105641459699466 ], [ -104.389779479545282, 19.096752889680548 ], [ -104.395339794121483, 19.090132147644002 ], [ -104.395431405356064, 19.085027014812752 ], [ -104.398696023966608, 19.093146924989778 ], [ -104.411320255343654, 19.106449778170589 ], [ -104.423184248025564, 19.100543955690409 ], [ -104.427823006021029, 19.09179943561923 ], [ -104.438474664565589, 19.098395303069324 ], [ -104.43641575019636, 19.086046720298203 ], [ -104.441717979662627, 19.083256750031396 ], [ -104.444827280010585, 19.091113980423565 ], [ -104.448251350005108, 19.091048259980667 ], [ -104.446086559142486, 19.093365122715618 ], [ -104.449526071428735, 19.094206261234671 ], [ -104.447972919924027, 19.099049430103683 ], [ -104.452449238646139, 19.100868753114238 ], [ -104.449768650222964, 19.103421450078628 ], [ -104.451472400430433, 19.108483720367222 ], [ -104.463341221459601, 19.111930867260398 ], [ -104.467193568520884, 19.109892858501716 ], [ -104.473236749876378, 19.116466320391904 ], [ -104.489382050054417, 19.124553149732431 ], [ -104.562949569694311, 19.143997280435222 ], [ -104.604009290261942, 19.150866119998462 ], [ -104.669862112369515, 19.173109665001562 ], [ -104.690585689942154, 19.176975880061015 ], [ -104.687998920022807, 19.184878679597237 ], [ -104.680935920149153, 19.183773750417732 ], [ -104.683612309967643, 19.189957919988107 ], [ -104.679979339786996, 19.193171519699131 ], [ -104.675145650195148, 19.185495740325305 ], [ -104.653670769639675, 19.182615890445327 ], [ -104.629341599941299, 19.172906350285874 ], [ -104.626027430082914, 19.178203479873993 ], [ -104.618821569688876, 19.180851450141326 ], [ -104.615301509580107, 19.174104170207958 ], [ -104.618957290012375, 19.167666660439842 ], [ -104.615747709954022, 19.161680889710819 ], [ -104.611473580193518, 19.16100094985854 ], [ -104.612833890191808, 19.155482820017259 ], [ -104.589840080248109, 19.150095220295313 ], [ -104.585780170211535, 19.16181432021704 ], [ -104.596142629694427, 19.16405223014333 ], [ -104.596073139547016, 19.171606680146809 ], [ -104.600287480136032, 19.179053369891761 ], [ -104.590028799914066, 19.186531680175801 ], [ -104.586667799887081, 19.185385059549056 ], [ -104.583989620167401, 19.177989320442681 ], [ -104.576937620448405, 19.180204600022087 ], [ -104.574769110353088, 19.193030380172139 ], [ -104.567248569936069, 19.201266120321115 ], [ -104.569112739554186, 19.218695230303108 ], [ -104.559904150137911, 19.220076940301833 ], [ -104.560286509737395, 19.228178600086949 ], [ -104.554515949702974, 19.237097780267195 ], [ -104.537051650243029, 19.251034860403426 ], [ -104.532957520231008, 19.258644859813007 ], [ -104.523319379965187, 19.260372379726466 ], [ -104.508384739819519, 19.24422504990908 ], [ -104.501425180205985, 19.252592140003888 ], [ -104.494535429895123, 19.253947050353005 ], [ -104.488448029566598, 19.247232690196459 ], [ -104.488954890061763, 19.229943369866493 ], [ -104.483849510249897, 19.230540460357162 ], [ -104.477664630132324, 19.238718950006476 ], [ -104.474009150029389, 19.236548140398703 ], [ -104.472529780330234, 19.228943250324441 ], [ -104.464784599911752, 19.230037780143796 ], [ -104.462822169909728, 19.236095799734663 ], [ -104.467008180073336, 19.245106889931961 ], [ -104.455698740146062, 19.248040260417515 ], [ -104.459804970261089, 19.254448419699234 ], [ -104.45695288959493, 19.259809769882221 ], [ -104.448929169537365, 19.258997019950417 ], [ -104.43855297970893, 19.262668950357579 ], [ -104.435764599805523, 19.269637249783646 ], [ -104.439795749793888, 19.277233780157143 ], [ -104.437414909922083, 19.279167029745967 ], [ -104.423815200055444, 19.282081119969668 ], [ -104.417447629889736, 19.280269089882491 ], [ -104.412365179928983, 19.28532924989824 ], [ -104.399925370447534, 19.288956820388872 ], [ -104.397431680440675, 19.285819199705863 ], [ -104.402452629874304, 19.278400660391807 ], [ -104.401322510286789, 19.26681303030281 ], [ -104.395560600141948, 19.271288250437848 ], [ -104.38433093988094, 19.272041579732605 ], [ -104.374273460346771, 19.281883979888104 ], [ -104.363316120174133, 19.275336220319115 ], [ -104.364345219751655, 19.269791490041833 ], [ -104.361873689921083, 19.269078419589253 ], [ -104.342802030218664, 19.289988080074568 ], [ -104.31480390955987, 19.279355890403476 ], [ -104.310633739735948, 19.289507479663417 ], [ -104.300100769741093, 19.29602437970939 ], [ -104.297591000362132, 19.302670770186914 ], [ -104.29141694979775, 19.302696680436121 ], [ -104.284342139751416, 19.296882509673882 ], [ -104.280998650456439, 19.303068740357471 ], [ -104.269264280129931, 19.302209910323391 ], [ -104.262233319984816, 19.307370779973802 ], [ -104.261179050131332, 19.311806200403598 ], [ -104.243669310346149, 19.310091719683133 ] ] ], [ [ [ -112.065652279670331, 18.993246219622343 ], [ -112.066131289769956, 18.992148180223264 ], [ -112.066244910166589, 18.993362629875229 ], [ -112.065652279670331, 18.993246219622343 ] ] ], [ [ [ -110.801021451284399, 19.33487432531027 ], [ -110.794510239580475, 19.333452899173697 ], [ -110.794739354654908, 19.327706219485165 ], [ -110.79140414967307, 19.324538649347581 ], [ -110.800564884461437, 19.3116976272306 ], [ -110.796283879358427, 19.302702156386154 ], [ -110.801457296853187, 19.298618354761306 ], [ -110.80851874911454, 19.301237883765882 ], [ -110.812655325095506, 19.298234779095882 ], [ -110.817946959668433, 19.301347468318735 ], [ -110.818851271640739, 19.306517532728183 ], [ -110.815693934386701, 19.314386409236487 ], [ -110.803195435929226, 19.320099012199965 ], [ -110.805676293429272, 19.325207270438003 ], [ -110.800527024710902, 19.326258124299926 ], [ -110.801021451284399, 19.33487432531027 ] ] ] ] } },
{ "type": "Feature", "properties": { "code": "06006", "stateCode": "06", "municipalityCode": "006", "name": "Ixtlahuacán" }, "geometry": { "type": "Polygon", "coordinates": [ [ [ -103.719199979916382, 19.088591850354987 ], [ -103.682382720437289, 19.074807890083406 ], [ -103.683407819867995, 19.072776420208914 ], [ -103.679120550033929, 19.070512109820619 ], [ -103.65839737011045, 19.062556569816721 ], [ -103.657315620246081, 19.058180540375666 ], [ -103.645038510047584, 19.05621271000112 ], [ -103.642916629744548, 19.051404109748866 ], [ -103.64851321989785, 19.032434619750841 ], [ -103.64838862046669, 19.016657339849719 ], [ -103.646903199813977, 19.021891400346224 ], [ -103.636005920292931, 19.028300199618609 ], [ -103.61612068031495, 19.030166890429019 ], [ -103.611786539525781, 19.028477550138451 ], [ -103.603071139765248, 19.010225550300703 ], [ -103.592228799779349, 19.004532769857441 ], [ -103.588871119829165, 18.985342259576669 ], [ -103.592323429972041, 18.980956370212464 ], [ -103.585420430438433, 18.977156580055329 ], [ -103.589471260456335, 18.934066770421751 ], [ -103.588000080288907, 18.926867520321196 ], [ -103.579713230251272, 18.92835473998468 ], [ -103.579956060132858, 18.917110249571895 ], [ -103.58515657003646, 18.91733750995175 ], [ -103.589555030176555, 18.906945280133883 ], [ -103.596208860463904, 18.904239139842254 ], [ -103.590711949880543, 18.903462280119001 ], [ -103.57826185009452, 18.878798290427621 ], [ -103.583723279788998, 18.873907480215014 ], [ -103.58643989037131, 18.865505249636538 ], [ -103.589853969548983, 18.870779719628654 ], [ -103.588207820470728, 18.875750660177435 ], [ -103.596753630107017, 18.884222570158208 ], [ -103.602526600065488, 18.881599259921938 ], [ -103.609844749686005, 18.889295819747428 ], [ -103.619577479654239, 18.893241800152705 ], [ -103.630280090060623, 18.885324849575785 ], [ -103.640572369776734, 18.867244490444644 ], [ -103.617813219536899, 18.844474920311864 ], [ -103.617407599912895, 18.839695400321602 ], [ -103.626199650404118, 18.830974369822254 ], [ -103.624624229827702, 18.826109429863632 ], [ -103.650287429692199, 18.840827519559429 ], [ -103.65222337008548, 18.848889540288901 ], [ -103.668637820456865, 18.858544890246723 ], [ -103.671042049539139, 18.854466170215041 ], [ -103.69417171037999, 18.865463630416947 ], [ -103.686714089987873, 18.881607749807266 ], [ -103.69557067984951, 18.882209679636425 ], [ -103.705069690118748, 18.890070030352991 ], [ -103.702724110423787, 18.891662549936296 ], [ -103.710852620277365, 18.89421218005122 ], [ -103.71098045974675, 18.900886259770672 ], [ -103.72076782031796, 18.901490430160095 ], [ -103.72884317980207, 18.912868650051564 ], [ -103.727962630122519, 18.90391205039656 ], [ -103.73198974957765, 18.907690090025206 ], [ -103.74110310960144, 18.900806620227158 ], [ -103.738345219769712, 18.904176020230445 ], [ -103.740783169840711, 18.917568230323798 ], [ -103.745175630447861, 18.917415120316548 ], [ -103.747971739873407, 18.909040540299358 ], [ -103.76922064994767, 18.911010320010153 ], [ -103.763910119870133, 18.921203079786942 ], [ -103.766959620062465, 18.922664280255745 ], [ -103.772294279957649, 18.915956260124755 ], [ -103.776181079577327, 18.917786020003607 ], [ -103.751467180172668, 18.944926689715466 ], [ -103.762219149710717, 18.948680580198076 ], [ -103.765117690365486, 18.940634150318179 ], [ -103.776344709973856, 18.942954550010977 ], [ -103.769864720099037, 18.948332519557649 ], [ -103.783978970347974, 18.956112769812282 ], [ -103.777570890370683, 18.977907379887316 ], [ -103.780716169970987, 18.999909399742169 ], [ -103.769944970428696, 19.000104260088282 ], [ -103.771884739916999, 19.021837539905096 ], [ -103.767871460086397, 19.027003249901519 ], [ -103.772030979680466, 19.0378590200446 ], [ -103.770740059624458, 19.04552077963017 ], [ -103.77413872024313, 19.059913939736653 ], [ -103.766907710439085, 19.070681199869306 ], [ -103.752883429658326, 19.071825200299497 ], [ -103.751571339645309, 19.061233219818785 ], [ -103.750305219653569, 19.064292620131017 ], [ -103.742091680384007, 19.065658200154846 ], [ -103.740568860004672, 19.069870370430881 ], [ -103.725120420195381, 19.064678169730286 ], [ -103.727654549726395, 19.071527420181663 ], [ -103.720266860157906, 19.080124310029944 ], [ -103.719199979916382, 19.088591850354987 ] ] ] } },
{ "type": "Feature", "properties": { "code": "06003", "stateCode": "06", "municipalityCode": "003", "name": "Comala" }, "geometry": { "type": "Polygon", "coordinates": [ [ [ -103.606199309631705, 19.500557860219612 ], [ -103.614545249928767, 19.494694120183691 ], [ -103.612445599622589, 19.488858949896297 ], [ -103.628123980451576, 19.483960089636224 ], [ -103.630083180257131, 19.475047000074664 ], [ -103.636299310394662, 19.467840280085969 ], [ -103.638565770409826, 19.480089549838485 ], [ -103.645989519880246, 19.476157919883377 ], [ -103.64308492046159, 19.471393379809061 ], [ -103.668810089890002, 19.462237969897732 ], [ -103.670859279710371, 19.445368799887515 ], [ -103.674825379769459, 19.445154480139394 ], [ -103.672033000222072, 19.440379169967244 ], [ -103.673472259650353, 19.431439030380222 ], [ -103.661375272322175, 19.429287417155482 ], [ -103.660456368717263, 19.432050585371808 ], [ -103.653063095970765, 19.432651272910071 ], [ -103.677129430534237, 19.408951937772795 ], [ -103.685147523464536, 19.382879691999353 ], [ -103.699290830889538, 19.363148477150538 ], [ -103.70347996914424, 19.342631584952166 ], [ -103.716319891969135, 19.326946385021678 ], [ -103.742228993404126, 19.311197163392908 ], [ -103.747886581047382, 19.290679388294567 ], [ -103.857247490026523, 19.345048595995586 ], [ -103.864619716252548, 19.345369624951697 ], [ -103.877865570030878, 19.338938289915756 ], [ -103.882437909886391, 19.350227890060093 ], [ -103.898950290408933, 19.342983259707125 ], [ -103.881794369756093, 19.357312820525006 ], [ -103.885437379550879, 19.367983741010107 ], [ -103.881117430332154, 19.393480820596654 ], [ -103.886917218714785, 19.40564270992531 ], [ -103.883647969955518, 19.412581400541047 ], [ -103.885396828691555, 19.422928571023643 ], [ -103.899530679303524, 19.43280408104307 ], [ -103.897962079563001, 19.438599490030445 ], [ -103.908765460436541, 19.45362830999904 ], [ -103.897317709894054, 19.461431879949949 ], [ -103.89038182014572, 19.463603370361209 ], [ -103.886860110199024, 19.461644849796272 ], [ -103.879418169765103, 19.44448866010508 ], [ -103.863754999584117, 19.447384739957418 ], [ -103.856452770283511, 19.431330539898259 ], [ -103.835248179785381, 19.439704020115432 ], [ -103.824134889600288, 19.437788250283116 ], [ -103.827968059956675, 19.432665309754295 ], [ -103.823528259995243, 19.427210489709548 ], [ -103.823396849570031, 19.416910889860691 ], [ -103.81925285967074, 19.408739710205523 ], [ -103.817657060405764, 19.412442770230971 ], [ -103.79813862955254, 19.421829029972809 ], [ -103.792733660132043, 19.427513690286357 ], [ -103.774374120160218, 19.430549380215826 ], [ -103.750658320343405, 19.445663570034391 ], [ -103.735308680126167, 19.443423000058459 ], [ -103.718257319660012, 19.453497510235021 ], [ -103.715789400317902, 19.4670095202444 ], [ -103.708273309763058, 19.469856539630584 ], [ -103.6988274795292, 19.484761150195627 ], [ -103.687433400065842, 19.493625479832492 ], [ -103.682830820042597, 19.493120019657429 ], [ -103.66487861974106, 19.502630909735299 ], [ -103.651540949566808, 19.500996029799925 ], [ -103.618276509891629, 19.512518770443393 ], [ -103.606199309631705, 19.500557860219612 ] ] ] } },
{ "type": "Feature", "properties": { "code": "06001", "stateCode": "06", "municipalityCode": "001", "name": "Armería" }, "geometry": { "type": "Polygon", "coordinates": [ [ [ -104.050592830270148, 19.15392751003764 ], [ -104.036780520331149, 19.151967450447881 ], [ -104.028333580041078, 19.143744349716894 ], [ -104.012844090460277, 19.137026119924574 ], [ -104.005063939534381, 19.136878909716078 ], [ -104.005913339596034, 19.133555150100243 ], [ -104.000709650196114, 19.131366110099876 ], [ -103.983111370145508, 19.132958370440299 ], [ -103.968256539566852, 19.122720380432398 ], [ -103.963102089864591, 19.122359820164554 ], [ -103.960399489785559, 19.117123650042068 ], [ -103.937056169987954, 19.118928770093849 ], [ -103.925831089531812, 19.1148399795796 ], [ -103.90588714974902, 19.100656059898736 ], [ -103.895010050525926, 19.096990137851531 ], [ -103.913279027200218, 19.045447906919957 ], [ -103.912478423438486, 19.026170023709696 ], [ -103.90820348914194, 19.014668607052442 ], [ -103.914449183390005, 19.008379112405386 ], [ -103.912983923067955, 18.995275492757628 ], [ -103.919897430361104, 18.98235775423414 ], [ -103.914206051871076, 18.957702783732813 ], [ -103.920392230331259, 18.949766184306167 ], [ -103.930962709444643, 18.950161245550081 ], [ -103.93911762332678, 18.958514115481222 ], [ -103.945869125471845, 18.956859870924475 ], [ -103.941770979251643, 18.9480355640334 ], [ -103.94597952197509, 18.942880805537978 ], [ -103.942226565104164, 18.930995702894361 ], [ -103.943624307556988, 18.920702985065798 ], [ -103.939357658457681, 18.91596674123069 ], [ -103.950890967660612, 18.9018659969197 ], [ -103.949977823909876, 18.895061026965188 ], [ -103.956167153417979, 18.889085072099999 ], [ -103.952326336808952, 18.879982687434758 ], [ -103.96214198923272, 18.866961635720532 ], [ -103.976654189446634, 18.86653001792039 ], [ -104.119946110426142, 18.944198460002283 ], [ -104.116608460323548, 18.943806719840676 ], [ -104.118563710137195, 18.948517170031195 ], [ -104.099866569898268, 18.987097090322614 ], [ -104.093299820458256, 18.98697746000477 ], [ -104.092185949550554, 18.990018140347377 ], [ -104.077969749616301, 18.987408620010154 ], [ -104.066862920398393, 19.009131059715685 ], [ -104.060460879539434, 19.013637030166137 ], [ -104.058368880071598, 19.011574600167901 ], [ -104.055991909562934, 19.013657650116862 ], [ -104.050756949682963, 19.008742879731891 ], [ -104.030140829964751, 19.012597510043413 ], [ -104.036814220393765, 19.021772479654647 ], [ -104.031875690076248, 19.024306599662882 ], [ -104.034390979639909, 19.02472743024563 ], [ -104.032353619743731, 19.031463369997688 ], [ -104.023076340244316, 19.038804379832584 ], [ -104.027927540013863, 19.045795659736303 ], [ -104.029139200351196, 19.057619690238131 ], [ -104.026879120153765, 19.05992891019589 ], [ -104.030777849847553, 19.063838859914725 ], [ -104.029598479551083, 19.067132579841005 ], [ -104.042171369932348, 19.082000340064308 ], [ -104.067874019839152, 19.10193654980862 ], [ -104.062531259867058, 19.118699550293364 ], [ -104.069036910285917, 19.128567910156363 ], [ -104.066201379635345, 19.142650449572226 ], [ -104.061477084564856, 19.14566972924176 ], [ -104.06085101961834, 19.151661630031157 ], [ -104.050592830270148, 19.15392751003764 ] ] ] } },
{ "type": "Feature", "properties": { "code": "06004", "stateCode": "06", "municipalityCode": "004", "name": "Coquimatlán" }, "geometry": { "type": "Polygon", "coordinates": [ [ [ -104.051789969255282, 19.306319429869699 ], [ -104.043176768811151, 19.300701399719458 ], [ -104.039691550292645, 19.293213170995582 ], [ -104.030148289427046, 19.29289329003651 ], [ -104.022099370281737, 19.287377030000947 ], [ -104.005032030219652, 19.290710259819836 ], [ -103.990381619674437, 19.286664679985545 ], [ -103.987976979897041, 19.282156739621126 ], [ -103.957086710135073, 19.290689549973333 ], [ -103.934345349671887, 19.276321029886823 ], [ -103.931609309623582, 19.272950460238594 ], [ -103.934322680407419, 19.267862939614574 ], [ -103.931072000078359, 19.265669180443545 ], [ -103.913836340209826, 19.267435260053364 ], [ -103.912851379972807, 19.262492510229613 ], [ -103.89643523021816, 19.254604780150554 ], [ -103.840974650317833, 19.250956049652963 ], [ -103.845902910210071, 19.237614480033194 ], [ -103.840150920183589, 19.22158329029158 ], [ -103.836455919883235, 19.220167450055492 ], [ -103.84205591001124, 19.227918450399073 ], [ -103.843305600230721, 19.239929349781008 ], [ -103.835111999689872, 19.258975630240553 ], [ -103.828114050380378, 19.255060830424895 ], [ -103.811751340297775, 19.252968280039244 ], [ -103.801212819796277, 19.264521910037086 ], [ -103.788477939610331, 19.251827780337582 ], [ -103.781264350310934, 19.252744020391329 ], [ -103.791308059605768, 19.246649020356681 ], [ -103.776107552133567, 19.236998095712497 ], [ -103.782692304193844, 19.174972177206595 ], [ -103.778934290724237, 19.148776614455048 ], [ -103.783402614364945, 19.147692594573684 ], [ -103.793454479670373, 19.154904679589354 ], [ -103.796751619954478, 19.148547199894271 ], [ -103.800181510403604, 19.151539199606763 ], [ -103.82584016966814, 19.135985710389555 ], [ -103.817040049720958, 19.121842570355277 ], [ -103.797604150449018, 19.106199860091191 ], [ -103.782611169811361, 19.088773140185058 ], [ -103.785009059773898, 19.075057950243675 ], [ -103.790717749806149, 19.07419802971399 ], [ -103.787285830214316, 19.065736850321226 ], [ -103.782670059733462, 19.063072429778721 ], [ -103.783541280258319, 19.059277999654533 ], [ -103.857339350200604, 19.045606600099354 ], [ -103.856038179775808, 19.080594830294505 ], [ -103.861173619915022, 19.086766770287234 ], [ -103.852408549609265, 19.08421231970841 ], [ -103.848409860259366, 19.107868859996646 ], [ -103.867846720404629, 19.101090289928848 ], [ -103.876622339856596, 19.110905399703324 ], [ -103.883842230077136, 19.112318289786554 ], [ -103.884281179710172, 19.121403109870613 ], [ -103.898659249549397, 19.097353139908709 ], [ -103.937056169987954, 19.118928770093849 ], [ -103.960399489785559, 19.117123650042068 ], [ -103.963102089864591, 19.122359820164554 ], [ -103.968256539566852, 19.122720380432398 ], [ -103.983111370145508, 19.132958370440299 ], [ -104.000709650196114, 19.131366110099876 ], [ -104.005913339596034, 19.133555150100243 ], [ -104.005063939534381, 19.136878909716078 ], [ -104.012844090460277, 19.137026119924574 ], [ -104.028333580041078, 19.143744349716894 ], [ -104.036780520331149, 19.151967450447881 ], [ -104.048247419911249, 19.151682889877048 ], [ -104.0510590302396, 19.154298399913852 ], [ -104.063067551280312, 19.152014696978217 ], [ -104.0621554975463, 19.156696272492795 ], [ -104.048339052501277, 19.163855374671133 ], [ -104.032052729524054, 19.181501262160069 ], [ -104.035146196478678, 19.19439020915263 ], [ -104.03044383735876, 19.198953432151797 ], [ -104.03537167536264, 19.202216253996259 ], [ -104.034526457968866, 19.212502257354725 ], [ -104.042616354053422, 19.213214151931481 ], [ -104.046874774536334, 19.218458094583731 ], [ -104.055550381161169, 19.218216111703594 ], [ -104.060661677114496, 19.225128223500647 ], [ -104.061607826910603, 19.23509839970064 ], [ -104.070028029853958, 19.241032580669753 ], [ -104.06876674011383, 19.245831059754842 ], [ -104.052883549803909, 19.250974319656379 ], [ -104.044712148864008, 19.25016572005158 ], [ -104.032194339341899, 19.2702328909727 ], [ -104.032034319294567, 19.277003690447302 ], [ -104.040922339483458, 19.273768720321659 ], [ -104.051990889991629, 19.274310651109204 ], [ -104.056018519777325, 19.284795170679722 ], [ -104.064490909868809, 19.280527000812324 ], [ -104.068911598841296, 19.285971460892963 ], [ -104.0578138193911, 19.291847951182906 ], [ -104.06299634868185, 19.301842510573046 ], [ -104.051789969255282, 19.306319429869699 ] ] ] } }
]
}
