{"type":"FeatureCollection","features":[{"type":"Feature","properties":{"code":"09005","stateCode":"09","municipalityCode":"005","name":"Gustavo A. Madero"},"geometry":{"type":"Polygon","coordinates":[[[-99.12215,19.59248],[-99.11789,19.59059],[-99.1186,19.58446],[-99.1081,19.56489],[-99.13057,19.53609],[-99.12737,19.53508],[-99.128,19.52453],[-99.11441,19.51106],[-99.1073,19.50969],[-99.0974,19.51263],[-99.06386,19.49878],[-99.06799,19.48908],[-99.05087,19.45018],[-99.05256,19.44842],[-99.06229,19.44479],[-99.08088,19.45016],[-99.08716,19.44577],[-99.09322,19.4516],[-99.10137,19.44994],[-99.13334,19.46485],[-99.14312,19.46506],[-99.16298,19.51796],[-99.17463,19.52407],[-99.17137,19.52719],[-99.17705,19.52933],[-99.17601,19.53204],[-99.1568,19.52809],[-99.15585,19.53244],[-99.15851,19.53392],[-99.15108,19.54485],[-99.1609,19.54926],[-99.1581,19.55735],[-99.1468,19.56464],[-99.13376,19.58624],[-99.12215,19.59248]]]}},{"type":"Feature","properties":{"code":"09007","stateCode":"09","municipalityCode":"007","name":"Iztapalapa"},"geometry":{"type":"Polygon","coordinates":[[[-99.05813,19.40072],[-98.99194,19.3676],[-98.99456,19.35814],[-98.96045,19.32537],[-98.97856,19.3239],[-98.97987,19.32614],[-99.00135,19.32713],[-99.04361,19.31221],[-99.04662,19.31488],[-99.05378,19.31186],[-99.05987,19.30444],[-99.0634,19.30568],[-99.06163,19.29266],[-99.06915,19.28509],[-99.11216,19.33422],[-99.12198,19.35766],[-99.13989,19.35737],[-99.13542,19.37731],[-99.12253,19.3757],[-99.12248,19.38244],[-99.09565,19.3796],[-99.0888,19.39038],[-99.08458,19.38948],[-99.08402,19.39257],[-99.06085,19.38259],[-99.05813,19.40072]]]}},{"type":"Feature","properties":{"code":"09015","stateCode":"09","municipalityCode":"015","name":"Cuauhtémoc"},"geometry":{"type":"Polygon","coordinates":[[[-99.14174,19.46582],[-99.12224,19.45978],[-99.12589,19.44819],[-99.12308,19.4425],[-99.1282,19.41376],[-99.1257,19.40433],[-99.15633,19.40406],[-99.17044,19.39979],[-99.17108,19.4035],[-99.1843,19.40783],[-99.16578,19.44365],[-99.16308,19.45906],[-99.15865,19.46392],[-99.14174,19.46582]]]}},{"type":"Feature","properties":{"code":"09017","stateCode":"09","municipalityCode":"017","name":"Venustiano Carranza"},"geometry":{"type":"Polygon","coordinates":[[[-99.12218,19.45975],[-99.10137,19.44994],[-99.09322,19.4516],[-99.08716,19.44577],[-99.08088,19.45016],[-99.06229,19.44479],[-99.05087,19.45018],[-99.04646,19.44236],[-99.05579,19.42214],[-99.0695,19.42025],[-99.07798,19.40715],[-99.09797,19.40914],[-99.1257,19.40433],[-99.1282,19.41376],[-99.12308,19.4425],[-99.12589,19.44819],[-99.12218,19.45975]]]}},{"type":"Feature","properties":{"code":"09013","stateCode":"09","municipalityCode":"013","name":"Xochimilco"},"geometry":{"type":"Polygon","coordinates":[[[-99.0987,19.31964],[-99.06831,19.28444],[-99.03732,19.27171],[-99.02982,19.2626],[-99.01652,19.25996],[-99.00704,19.25161],[-99.03019,19.22363],[-99.09456,19.21154],[-99.09927,19.20811],[-99.13166,19.15263],[-99.12995,19.17236],[-99.13239,19.17853],[-99.12708,19.18727],[-99.13067,19.19131],[-99.12931,19.203],[-99.13832,19.21573],[-99.15439,19.22064],[-99.15115,19.22341],[-99.15338,19.22598],[-99.15068,19.23469],[-99.14445,19.23452],[-99.14752,19.24026],[-99.14401,19.23968],[-99.14426,19.24474],[-99.13892,19.24597],[-99.14173,19.249],[-99.13939,19.25469],[-99.1424,19.26662],[-99.14492,19.26745],[-99.14119,19.27353],[-99.14106,19.28253],[-99.12493,19.28524],[-99.10136,19.2952],[-99.0987,19.31964]]]}},{"type":"Feature","properties":{"code":"09003","stateCode":"09","municipalityCode":"003","name":"Coyoacán"},"geometry":{"type":"Polygon","coordinates":[[[-99.17169,19.35956],[-99.12198,19.35766],[-99.11293,19.33537],[-99.09921,19.32092],[-99.10093,19.30002],[-99.11681,19.30142],[-99.13472,19.30829],[-99.14262,19.29961],[-99.14741,19.30129],[-99.15666,19.29684],[-99.16226,19.30128],[-99.19505,19.30205],[-99.20575,19.30568],[-99.19493,19.32203],[-99.1947,19.33023],[-99.19629,19.33363],[-99.19982,19.33351],[-99.19124,19.33688],[-99.17169,19.35956]]]}},{"type":"Feature","properties":{"code":"09008","stateCode":"09","municipalityCode":"008","name":"La Magdalena Contreras"},"geometry":{"type":"Polygon","coordinates":[[[-99.20785,19.33787],[-99.21269,19.32692],[-99.22123,19.3201],[-99.22047,19.31132],[-99.2319,19.30504],[-99.2333,19.2966],[-99.24266,19.29227],[-99.24081,19.28699],[-99.24537,19.27696],[-99.24347,19.26979],[-99.24709,19.26475],[-99.24724,19.26028],[-99.24389,19.2592],[-99.24459,19.25273],[-99.25035,19.24569],[-99.25343,19.23481],[-99.27068,19.2242],[-99.27734,19.21472],[-99.2831,19.21306],[-99.29315,19.21391],[-99.32225,19.23265],[-99.32316,19.23923],[-99.31764,19.24449],[-99.31536,19.25636],[-99.29798,19.26145],[-99.29258,19.26831],[-99.28619,19.27068],[-99.28114,19.28062],[-99.27332,19.28519],[-99.27617,19.2891],[-99.26974,19.30118],[-99.27222,19.30246],[-99.26843,19.30512],[-99.27134,19.30826],[-99.26953,19.31356],[-99.2659,19.31344],[-99.25469,19.32676],[-99.24423,19.32856],[-99.23731,19.3247],[-99.2312,19.32984],[-99.20785,19.33787]]]}},{"type":"Feature","properties":{"code":"09009","stateCode":"09","municipalityCode":"009","name":"Milpa Alta"},"geometry":{"type":"Polygon","coordinates":[[[-98.9988,19.22769],[-98.99056,19.22578],[-98.96684,19.20901],[-98.96968,19.20425],[-98.96703,19.19991],[-98.96769,19.18974],[-98.95239,19.16864],[-98.96737,19.16444],[-98.95463,19.14952],[-98.96646,19.14387],[-98.95751,19.12238],[-98.95906,19.10428],[-98.96572,19.08586],[-98.979,19.07446],[-98.98359,19.07876],[-99.02899,19.08537],[-99.04321,19.07576],[-99.0598,19.04824],[-99.13648,19.08938],[-99.16329,19.11749],[-99.1525,19.14212],[-99.14961,19.16031],[-99.13241,19.14861],[-99.10175,19.20481],[-99.09465,19.21149],[-98.9988,19.22769]]]}},{"type":"Feature","properties":{"code":"09010","stateCode":"09","municipalityCode":"010","name":"Álvaro Obregón"},"geometry":{"type":"Polygon","coordinates":[[[-99.1922,19.40372],[-99.18836,19.39363],[-99.19173,19.38268],[-99.19109,19.36349],[-99.18371,19.36172],[-99.17774,19.36514],[-99.17171,19.35957],[-99.19124,19.33688],[-99.19982,19.33351],[-99.19629,19.33363],[-99.1947,19.33023],[-99.19499,19.32184],[-99.20025,19.31116],[-99.20575,19.30568],[-99.21592,19.30788],[-99.22052,19.31372],[-99.22115,19.32027],[-99.21278,19.3268],[-99.20752,19.33781],[-99.2312,19.32984],[-99.23731,19.3247],[-99.24423,19.32856],[-99.25518,19.32656],[-99.2659,19.31344],[-99.27054,19.31194],[-99.2712,19.30722],[-99.26843,19.30512],[-99.27222,19.30246],[-99.26974,19.30118],[-99.27617,19.2891],[-99.27332,19.28519],[-99.28114,19.28062],[-99.28619,19.27068],[-99.29258,19.26831],[-99.29798,19.26145],[-99.31536,19.25636],[-99.31764,19.24449],[-99.32267,19.24031],[-99.32225,19.23265],[-99.32432,19.23261],[-99.32364,19.26509],[-99.31573,19.2822],[-99.31641,19.30005],[-99.31157,19.30681],[-99.30879,19.3051],[-99.3033,19.31114],[-99.30129,19.30951],[-99.30053,19.32225],[-99.29485,19.31692],[-99.29057,19.32145],[-99.29126,19.32916],[-99.28796,19.33348],[-99.28832,19.33067],[-99.2867,19.32977],[-99.28495,19.33647],[-99.28021,19.33523],[-99.28116,19.33743],[-99.26842,19.34189],[-99.25821,19.34976],[-99.26126,19.36104],[-99.26683,19.36355],[-99.26507,19.37175],[-99.26843,19.36871],[-99.26998,19.37314],[-99.24211,19.38735],[-99.23784,19.39349],[-99.1922,19.40372]]]}},{"type":"Feature","properties":{"code":"09014","stateCode":"09","municipalityCode":"014","name":"Benito Juárez"},"geometry":{"type":"Polygon","coordinates":[[[-99.18906,19.39559],[-99.13741,19.40346],[-99.13718,19.3992],[-99.13094,19.39895],[-99.13984,19.35692],[-99.16978,19.35866],[-99.17774,19.36514],[-99.18371,19.36172],[-99.19109,19.36349],[-99.18906,19.39559]]]}},{"type":"Feature","properties":{"code":"09011","stateCode":"09","municipalityCode":"011","name":"Tláhuac"},"geometry":{"type":"Polygon","coordinates":[[[-99.00135,19.32713],[-98.9579,19.32323],[-98.96722,19.30597],[-98.97653,19.25313],[-98.96599,19.24994],[-98.96859,19.23222],[-98.9403,19.22324],[-98.94255,19.21561],[-98.95109,19.21818],[-98.95395,19.21465],[-98.96853,19.21057],[-98.99373,19.22747],[-98.99579,19.22504],[-99.00299,19.22757],[-99.0001,19.22632],[-99.03019,19.22363],[-99.00704,19.25161],[-99.01652,19.25996],[-99.02982,19.2626],[-99.03732,19.27171],[-99.06897,19.28496],[-99.06163,19.29266],[-99.0634,19.30568],[-99.05987,19.30444],[-99.05378,19.31186],[-99.04662,19.31488],[-99.04361,19.31221],[-99.00135,19.32713]]]}},{"type":"Feature","properties":{"code":"09006","stateCode":"09","municipalityCode":"006","name":"Iztacalco"},"geometry":{"type":"Polygon","coordinates":[[[-99.05591,19.42219],[-99.06085,19.38259],[-99.08402,19.39257],[-99.08458,19.38948],[-99.0888,19.39038],[-99.09565,19.3796],[-99.12248,19.38244],[-99.12253,19.3757],[-99.13549,19.37719],[-99.13094,19.39895],[-99.13718,19.3992],[-99.13659,19.40281],[-99.09804,19.40914],[-99.07824,19.40705],[-99.0695,19.42025],[-99.05591,19.42219]]]}},{"type":"Feature","properties":{"code":"09002","stateCode":"09","municipalityCode":"002","name":"Azcapotzalco"},"geometry":{"type":"Polygon","coordinates":[[[-99.20434,19.51503],[-99.15695,19.50272],[-99.14312,19.46506],[-99.15865,19.46392],[-99.16371,19.45643],[-99.18848,19.46078],[-99.19096,19.47063],[-99.22112,19.47507],[-99.21016,19.51114],[-99.20434,19.51503]]]}},{"type":"Feature","properties":{"code":"09012","stateCode":"09","municipalityCode":"012","name":"Tlalpan"},"geometry":{"type":"Polygon","coordinates":[[[-99.21985,19.31212],[-99.21539,19.30762],[-99.19629,19.30228],[-99.16556,19.30175],[-99.15666,19.29684],[-99.14741,19.30129],[-99.14262,19.29961],[-99.13472,19.30829],[-99.11681,19.30142],[-99.10093,19.30002],[-99.10136,19.2952],[-99.10502,19.29352],[-99.12493,19.28524],[-99.14106,19.28253],[-99.14119,19.27353],[-99.14492,19.26745],[-99.1424,19.26662],[-99.13939,19.25469],[-99.14173,19.249],[-99.13892,19.24597],[-99.14426,19.24474],[-99.14401,19.23968],[-99.14752,19.24026],[-99.14445,19.23452],[-99.15068,19.23469],[-99.15338,19.22598],[-99.15115,19.22341],[-99.15439,19.22064],[-99.13832,19.21573],[-99.13282,19.20998],[-99.12931,19.203],[-99.13067,19.19131],[-99.12708,19.18727],[-99.13239,19.17853],[-99.12995,19.17225],[-99.1328,19.15488],[-99.13024,19.15254],[-99.13241,19.14861],[-99.14961,19.16031],[-99.1525,19.14212],[-99.16329,19.11749],[-99.13648,19.08938],[-99.22678,19.09606],[-99.2787,19.1317],[-99.28761,19.1466],[-99.30276,19.19086],[-99.30714,19.21373],[-99.31625,19.2215],[-99.31556,19.2274],[-99.29315,19.21391],[-99.28239,19.21308],[-99.25343,19.23481],[-99.25035,19.24569],[-99.24459,19.25273],[-99.24389,19.2592],[-99.24724,19.26028],[-99.24709,19.26475],[-99.24347,19.26979],[-99.24537,19.27696],[-99.24081,19.28699],[-99.24266,19.29227],[-99.2333,19.2966],[-99.2319,19.30504],[-99.21985,19.31212]]]}},{"type":"Feature","properties":{"code":"09004","stateCode":"09","municipalityCode":"004","name":"Cuajimalpa de Morelos"},"geometry":{"type":"Polygon","coordinates":[[[-99.25771,19.40474],[-99.25525,19.39868],[-99.25925,19.3926],[-99.25475,19.39522],[-99.24704,19.39418],[-99.24765,19.38596],[-99.27016,19.37263],[-99.26843,19.36871],[-99.26507,19.37175],[-99.26683,19.36355],[-99.26126,19.36104],[-99.25823,19.34971],[-99.26842,19.34189],[-99.28116,19.33743],[-99.28021,19.33523],[-99.28495,19.33647],[-99.2867,19.32977],[-99.28796,19.33348],[-99.29126,19.32916],[-99.29057,19.32145],[-99.29485,19.31692],[-99.30053,19.32225],[-99.30129,19.30951],[-99.3033,19.31114],[-99.30879,19.3051],[-99.31157,19.30681],[-99.31641,19.30005],[-99.31573,19.2822],[-99.32364,19.26509],[-99.32432,19.23261],[-99.32672,19.23257],[-99.33082,19.23794],[-99.34234,19.24112],[-99.33916,19.2677],[-99.34821,19.27396],[-99.36492,19.27777],[-99.35149,19.29415],[-99.3535,19.2974],[-99.34999,19.29684],[-99.35627,19.30201],[-99.35661,19.30668],[-99.33384,19.33059],[-99.32827,19.3452],[-99.32848,19.35309],[-99.32329,19.35834],[-99.31813,19.35816],[-99.31954,19.36362],[-99.31309,19.37045],[-99.30776,19.37156],[-99.30348,19.37783],[-99.30123,19.3697],[-99.29559,19.36908],[-99.26172,19.39599],[-99.25771,19.40474]]]}},{"type":"Feature","properties":{"code":"09016","stateCode":"09","municipalityCode":"016","name":"Miguel Hidalgo"},"geometry":{"type":"Polygon","coordinates":[[[-99.20084,19.47335],[-99.19044,19.47046],[-99.18848,19.46078],[-99.16371,19.45643],[-99.16578,19.44365],[-99.1843,19.40783],[-99.17108,19.4035],[-99.17044,19.39979],[-99.18906,19.39559],[-99.1922,19.40374],[-99.19761,19.40309],[-99.23784,19.39349],[-99.23993,19.38886],[-99.24765,19.38596],[-99.24704,19.39418],[-99.25475,19.39522],[-99.25922,19.39257],[-99.25486,19.40455],[-99.2373,19.41236],[-99.23084,19.42171],[-99.22233,19.42695],[-99.22963,19.43737],[-99.21813,19.44411],[-99.21997,19.45288],[-99.21529,19.45622],[-99.21154,19.46799],[-99.20084,19.47335]]]}}]}