{
"type": "FeatureCollection",
"name": "17",
"crs": { "type": "name", "properties": { "name": "urn:ogc:def:crs:OGC:1.3:CRS84" } },
"features": [
{ "type": "Feature", "properties": { "code": "17008", "stateCode": "17", "municipalityCode": "008", "name": "Emiliano Zapata" }, "geometry": { "type": "Polygon", "coordinates": [ [ [ -99.222635712552417, 18.876941493551492 ], [ -99.217862749671866, 18.872691570928094 ], [ -99.19883194977713, 18.875408569600488 ], [ -99.199192199716549, 18.868542630311349 ], [ -99.197449660349392, 18.870152969796479 ], [ -99.191062679552118, 18.865037259844279 ], [ -99.188636049814619, 18.867192379721587 ], [ -99.18470622042733, 18.858239120321937 ], [ -99.177883650324134, 18.853294859556406 ], [ -99.177963719718264, 18.859666890083165 ], [ -99.170971427758161, 18.855532720787863 ], [ -99.170819768567952, 18.86099318118394 ], [ -99.144914719110119, 18.831217110026159 ], [ -99.154423879868546, 18.808789489545859 ], [ -99.157629860299252, 18.809931050338449 ], [ -99.161599230042611, 18.800325490320073 ], [ -99.159040219962634, 18.792362320327335 ], [ -99.148720549888864, 18.786780140237838 ], [ -99.147852644128989, 18.759047172265813 ], [ -99.175344818581678, 18.746900490037518 ], [ -99.177082350418743, 18.742039230323435 ], [ -99.19119242871848, 18.755776380213174 ], [ -99.189920599928769, 18.77300989055032 ], [ -99.192445618289184, 18.784289120456233 ], [ -99.186858459751733, 18.7943383197446 ], [ -99.193891140050582, 18.799193291306153 ], [ -99.207375579818944, 18.796667019610403 ], [ -99.20648561929967, 18.802883351124819 ], [ -99.214213049903762, 18.808450680090193 ], [ -99.208483380053352, 18.819223510107697 ], [ -99.208007539115215, 18.839817850995594 ], [ -99.203114318332126, 18.842922940260831 ], [ -99.217561308584735, 18.842058219549802 ], [ -99.222635712552417, 18.876941493551492 ] ] ] } },
{ "type": "Feature", "properties": { "code": "17003", "stateCode": "17", "municipalityCode": "003", "name": "Axochiapan" }, "geometry": { "type": "Polygon", "coordinates": [ [ [ -98.726245369538461, 18.609391879767585 ], [ -98.717985939652905, 18.603587349815214 ], [ -98.71988308975908, 18.600228490073086 ], [ -98.71256628968149, 18.587957600304431 ], [ -98.714376599901726, 18.577932219604151 ], [ -98.711717490396808, 18.573679310258871 ], [ -98.716768999863035, 18.573112679825659 ], [ -98.715806749273014, 18.568482250510137 ], [ -98.711814748870907, 18.569988739898442 ], [ -98.713773019369555, 18.565415950310587 ], [ -98.716673569895789, 18.565919980194298 ], [ -98.714482549415408, 18.559716910339102 ], [ -98.710083508581079, 18.559437430124657 ], [ -98.712287569102102, 18.557328600820522 ], [ -98.705291309149999, 18.551779830494453 ], [ -98.706889740231361, 18.54377755069083 ], [ -98.702751079802695, 18.538786980240943 ], [ -98.706985998887177, 18.52446772099389 ], [ -98.713361579656322, 18.520564740100966 ], [ -98.709349650317833, 18.513575060834768 ], [ -98.701939940113405, 18.512185949605673 ], [ -98.706672279172821, 18.511367880576849 ], [ -98.70431093909167, 18.504077940708772 ], [ -98.708039940449041, 18.494278230903596 ], [ -98.701189349004153, 18.497060050370646 ], [ -98.698973880085418, 18.494980491024048 ], [ -98.70246279867095, 18.479924940026446 ], [ -98.70766556896605, 18.478741111228388 ], [ -98.70534717918747, 18.475692830980606 ], [ -98.707557319862616, 18.472738541319021 ], [ -98.704462050402086, 18.471827861280783 ], [ -98.710415568762457, 18.468066820092435 ], [ -98.706044428764258, 18.463936451145326 ], [ -98.71025176932379, 18.463015420751887 ], [ -98.708130180134276, 18.458145150214044 ], [ -98.71028305893347, 18.457420880929625 ], [ -98.705871059509519, 18.455900200615705 ], [ -98.711623688877793, 18.45216157040716 ], [ -98.706699119991498, 18.445112230534601 ], [ -98.713479169580168, 18.445563399944572 ], [ -98.726952769933035, 18.439533120390255 ], [ -98.734624820327653, 18.443974949762065 ], [ -98.738083179547317, 18.45573792039297 ], [ -98.747593550064039, 18.451434320431709 ], [ -98.755358309958154, 18.457037249992126 ], [ -98.754017480372482, 18.461945000304976 ], [ -98.757751820379625, 18.462909349950721 ], [ -98.761000830099078, 18.475445630082934 ], [ -98.771209179978214, 18.477399570120973 ], [ -98.774760279698896, 18.482181449876602 ], [ -98.781135460424494, 18.48103551995403 ], [ -98.7867732496358, 18.484627180424539 ], [ -98.783361309808853, 18.487802489973546 ], [ -98.786854149838931, 18.492492629796711 ], [ -98.789484110002093, 18.491112649784334 ], [ -98.793456950060829, 18.497208139648908 ], [ -98.798954220253833, 18.49808937010247 ], [ -98.799825999603115, 18.502762019805846 ], [ -98.803815150459741, 18.502431980223093 ], [ -98.802705689897678, 18.505326859675712 ], [ -98.810502119801953, 18.512029549770759 ], [ -98.810507139857847, 18.519203550172417 ], [ -98.807788660263014, 18.520600739930909 ], [ -98.815796769746683, 18.533905569721988 ], [ -98.81018974026388, 18.544473199632058 ], [ -98.819236369738988, 18.570976320419732 ], [ -98.797501799828751, 18.565731709978902 ], [ -98.798643339884592, 18.579736030274795 ], [ -98.759454510379982, 18.582854739691822 ], [ -98.760594000084581, 18.586316199817681 ], [ -98.734929890366871, 18.589030540248306 ], [ -98.733502969777007, 18.60262900023951 ], [ -98.735772510140293, 18.605203800127217 ], [ -98.735356349628205, 18.606385340410132 ], [ -98.726558540202987, 18.604829369775608 ], [ -98.726245369538461, 18.609391879767585 ] ] ] } },
{ "type": "Feature", "properties": { "code": "17036", "stateCode": "17", "municipalityCode": "036", "name": "Hueyapan" }, "geometry": { "type": "Polygon", "coordinates": [ [ [ -98.665928910018536, 18.906039720000901 ], [ -98.664711319863045, 18.899632980243169 ], [ -98.661315259812284, 18.897809019588568 ], [ -98.667292279668629, 18.889376969952586 ], [ -98.664860310359046, 18.887665430121739 ], [ -98.672331550416857, 18.884522420218847 ], [ -98.674010819747267, 18.878130450033552 ], [ -98.68197716952065, 18.875961370247449 ], [ -98.67921197019507, 18.876074219700659 ], [ -98.687156680421623, 18.85767931957729 ], [ -98.700994749989817, 18.861863739708973 ], [ -98.715377629825056, 18.842298290309515 ], [ -98.724096250687182, 18.82084021198698 ], [ -98.717396280809538, 18.865720331766237 ], [ -98.697759950041601, 18.876952520033878 ], [ -98.702185539913557, 18.881912780949627 ], [ -98.702241890197186, 18.891327969955213 ], [ -98.687962260075494, 18.898459970368783 ], [ -98.681414549702794, 18.907167320202657 ], [ -98.672914749752906, 18.909440859868166 ], [ -98.665928910018536, 18.906039720000901 ] ] ] } },
{ "type": "Feature", "properties": { "code": "17029", "stateCode": "17", "municipalityCode": "029", "name": "Yautepec" }, "geometry": { "type": "Polygon", "coordinates": [ [ [ -99.00790029226286, 18.948829028011723 ], [ -99.013988739273941, 18.933550150860057 ], [ -99.005381020037916, 18.910791119924102 ], [ -98.995445249720973, 18.910782600291828 ], [ -98.999530880156954, 18.900293119607642 ], [ -98.992453449698772, 18.893658510314339 ], [ -98.982972459030634, 18.898780550218891 ], [ -98.987994849090853, 18.901033889568161 ], [ -98.990777630315094, 18.907547859877866 ], [ -98.987869139600221, 18.91003986042692 ], [ -98.988564680362572, 18.921421890045934 ], [ -98.977699110313026, 18.931547420380451 ], [ -98.976935289936748, 18.936529619900124 ], [ -98.953240863370098, 18.929637522060649 ], [ -98.950820811216801, 18.917332220724223 ], [ -98.955152449662506, 18.905115138481154 ], [ -98.946873991537529, 18.902406181378126 ], [ -98.942855107265984, 18.904851800976804 ], [ -98.932994979621228, 18.897257139753386 ], [ -98.941914830470992, 18.892361739607964 ], [ -98.941680178970003, 18.889459020015497 ], [ -98.955368289044401, 18.885269431563511 ], [ -98.956583178162447, 18.881985280957025 ], [ -98.97121681703841, 18.882574370020919 ], [ -98.988571969376096, 18.866153710102502 ], [ -99.005388689501814, 18.870796370144774 ], [ -99.001874458880735, 18.859963490521494 ], [ -99.014131278292567, 18.85423953992818 ], [ -99.041005877830983, 18.857622550033291 ], [ -99.041108488005094, 18.848483149926722 ], [ -99.048945059510743, 18.844718579735609 ], [ -99.0461501077219, 18.839962779714405 ], [ -99.050056748616839, 18.821056450797162 ], [ -99.04692573975997, 18.804749540290437 ], [ -99.049044309013638, 18.799402740838723 ], [ -99.053944658735901, 18.795749110990414 ], [ -99.058875829889203, 18.796581060645622 ], [ -99.072937368811907, 18.776359280561906 ], [ -99.086917550392457, 18.770976879744008 ], [ -99.086177399747569, 18.790864020166524 ], [ -99.094621150072157, 18.790877230254679 ], [ -99.090556277019559, 18.805598352286971 ], [ -99.095429519647865, 18.807465169576407 ], [ -99.105817709613603, 18.821587659722635 ], [ -99.117175180066525, 18.829651549580472 ], [ -99.146253570318905, 18.827762489631549 ], [ -99.144914719110119, 18.831217110026159 ], [ -99.148382890103051, 18.835966060212812 ], [ -99.135686350368786, 18.851726879788629 ], [ -99.134360919664672, 18.864128490122177 ], [ -99.121903000182286, 18.861926349687941 ], [ -99.119807369757808, 18.866983739654668 ], [ -99.120262519983001, 18.880813969919704 ], [ -99.133308849558105, 18.894892380116701 ], [ -99.12688225946647, 18.898445449980237 ], [ -99.116097018727658, 18.897824820046647 ], [ -99.106960570042943, 18.904645479556976 ], [ -99.102600630049906, 18.90395513983637 ], [ -99.109156660447383, 18.908096769782343 ], [ -99.095745779837728, 18.915624680447944 ], [ -99.05285439963518, 18.926206690133732 ], [ -99.028396488576163, 18.925545511062651 ], [ -99.027129228018126, 18.941692181279603 ], [ -99.019503380305494, 18.948119970427435 ], [ -99.016182620142104, 18.959723879752797 ], [ -99.00790029226286, 18.948829028011723 ] ] ] } },
{ "type": "Feature", "properties": { "code": "17018", "stateCode": "17", "municipalityCode": "018", "name": "Temixco" }, "geometry": { "type": "Polygon", "coordinates": [ [ [ -99.29065804982082, 18.92177211964059 ], [ -99.270869030369568, 18.902615879625365 ], [ -99.260974769912011, 18.903932119862151 ], [ -99.256586089978896, 18.890681909613516 ], [ -99.236239600361927, 18.897292921101528 ], [ -99.226838079223427, 18.867179449867958 ], [ -99.221010139971241, 18.862193739826434 ], [ -99.217561308584735, 18.842058219549802 ], [ -99.203114318332126, 18.842922940260831 ], [ -99.208007539115215, 18.839817850995594 ], [ -99.208466770241813, 18.8193119511761 ], [ -99.213134659922758, 18.806847379980226 ], [ -99.22872994015934, 18.811552860094888 ], [ -99.235152378690742, 18.809740550900305 ], [ -99.246458399220941, 18.826795580793942 ], [ -99.266959429578975, 18.823418400222717 ], [ -99.267709379736246, 18.806542580026321 ], [ -99.261312999370034, 18.800378319825423 ], [ -99.258078848748852, 18.790343800744097 ], [ -99.250299460316839, 18.784101861334069 ], [ -99.276855578905042, 18.773508890190925 ], [ -99.281958077169648, 18.774169336344471 ], [ -99.286512785502822, 18.781050036722501 ], [ -99.284726030153521, 18.781965399764214 ], [ -99.289634509649176, 18.787596460295678 ], [ -99.288142280761832, 18.795449980430742 ], [ -99.299706520132546, 18.8015404005357 ], [ -99.31223908996806, 18.815473830571829 ], [ -99.335433479718333, 18.822826719825276 ], [ -99.348412079847066, 18.830743520819805 ], [ -99.352307779917538, 18.842289741124191 ], [ -99.329450466552075, 18.86085480496606 ], [ -99.329961029922671, 18.866672540941313 ], [ -99.32617429034984, 18.867950380332708 ], [ -99.319390249813111, 18.866594829626724 ], [ -99.308693740113327, 18.851782059893853 ], [ -99.295184770289453, 18.842875449581619 ], [ -99.27340423025511, 18.843750980241559 ], [ -99.271566820058027, 18.853383050183943 ], [ -99.277394779719941, 18.857725310007545 ], [ -99.27893197040369, 18.866994829837477 ], [ -99.281621969828734, 18.866870420180891 ], [ -99.28877227964368, 18.87913265017702 ], [ -99.280813400223238, 18.88307174970716 ], [ -99.283669339546861, 18.894572519596657 ], [ -99.294095380057925, 18.893186999842261 ], [ -99.301365089900074, 18.900986520255394 ], [ -99.285759659720384, 18.901125319637433 ], [ -99.29065804982082, 18.92177211964059 ] ] ] } },
{ "type": "Feature", "properties": { "code": "17014", "stateCode": "17", "municipalityCode": "014", "name": "Mazatepec" }, "geometry": { "type": "Polygon", "coordinates": [ [ [ -99.384568740034098, 18.758469711295927 ], [ -99.364561117366264, 18.755963490769748 ], [ -99.356220345052876, 18.739417437222563 ], [ -99.328084138028501, 18.715769081107958 ], [ -99.333437890426694, 18.688088619885949 ], [ -99.352559921082758, 18.681218619936285 ], [ -99.350119109765913, 18.679261019590054 ], [ -99.358054150268742, 18.674542660228678 ], [ -99.355137999732221, 18.663358850064132 ], [ -99.347348460359257, 18.663144179994649 ], [ -99.346647620103568, 18.643972920006906 ], [ -99.349270019645388, 18.639606050091917 ], [ -99.353954000187059, 18.639617279585469 ], [ -99.350954489828297, 18.627628369689457 ], [ -99.354226450384203, 18.619655880370459 ], [ -99.35680454030701, 18.62027418020169 ], [ -99.355509859948128, 18.616083339941891 ], [ -99.385651399981015, 18.6281660802318 ], [ -99.384657349535161, 18.638513770234628 ], [ -99.394785430123221, 18.649423339551401 ], [ -99.399213829972837, 18.648498169777906 ], [ -99.410780629558317, 18.654856939555547 ], [ -99.39919217031364, 18.661922229631315 ], [ -99.39894358021931, 18.666098219705582 ], [ -99.393129119567064, 18.665581649729987 ], [ -99.392957549631873, 18.679264480033797 ], [ -99.378105659788858, 18.680936250127093 ], [ -99.37945531957989, 18.688938459617834 ], [ -99.375529249653923, 18.694063369582498 ], [ -99.364060110312565, 18.688410660321445 ], [ -99.355412750116557, 18.698124799976647 ], [ -99.360873629630419, 18.698872380026284 ], [ -99.3589313498031, 18.703434000268835 ], [ -99.364439339678512, 18.710734219745113 ], [ -99.380904749863177, 18.719279880260832 ], [ -99.379927379792747, 18.723473420233141 ], [ -99.384798419040308, 18.729276689621727 ], [ -99.38192605284658, 18.73387595122162 ], [ -99.38559688992224, 18.739392201125181 ], [ -99.37857471993388, 18.743526080442056 ], [ -99.390996520391255, 18.752566719989137 ], [ -99.390356000070767, 18.756849080572575 ], [ -99.386350419547526, 18.754157680801207 ], [ -99.384568740034098, 18.758469711295927 ] ] ] } },
{ "type": "Feature", "properties": { "code": "17019", "stateCode": "17", "municipalityCode": "019", "name": "Tepalcingo" }, "geometry": { "type": "Polygon", "coordinates": [ [ [ -98.843408149586224, 18.681110419667259 ], [ -98.818111460133537, 18.648023019966743 ], [ -98.821971650139801, 18.64120020024594 ], [ -98.831854749678712, 18.642070049909602 ], [ -98.834664230337381, 18.632311851082914 ], [ -98.780464829747132, 18.604871149556825 ], [ -98.764865219702358, 18.592639309856988 ], [ -98.759454510379982, 18.582854739691822 ], [ -98.798643339884592, 18.579736030274795 ], [ -98.797501799828751, 18.565731709978902 ], [ -98.819236369738988, 18.570976320419732 ], [ -98.81018974026388, 18.544473199632058 ], [ -98.815796769746683, 18.533905569721988 ], [ -98.807870920163481, 18.520469449918156 ], [ -98.816408620035034, 18.518178080119785 ], [ -98.827766258615569, 18.523885542991223 ], [ -98.836457819821916, 18.519314119964925 ], [ -98.840344060304957, 18.512771619766557 ], [ -98.838507819798366, 18.506909490140352 ], [ -98.843413800277219, 18.505884279940414 ], [ -98.839506879740256, 18.503827600118004 ], [ -98.836450279839099, 18.494575909552086 ], [ -98.844360139847197, 18.490260889597003 ], [ -98.844508220110768, 18.48323552021494 ], [ -98.850849550189878, 18.477740800099085 ], [ -98.8705795495937, 18.479202319595071 ], [ -98.896900879937363, 18.465935680402595 ], [ -98.912220620467878, 18.462121629642926 ], [ -98.905405770309557, 18.459739709784227 ], [ -98.915214090209645, 18.457345540141485 ], [ -98.935806449964986, 18.483391179622426 ], [ -98.968419549881403, 18.496649479924187 ], [ -98.967095349977029, 18.523738690106534 ], [ -98.98542208960562, 18.525477650092338 ], [ -98.983928480103856, 18.533154419562027 ], [ -98.987721690895569, 18.538173348781854 ], [ -98.995447820355011, 18.539431399885832 ], [ -98.997204879701897, 18.569224769137818 ], [ -99.01698779926285, 18.577258780971494 ], [ -99.013457579949986, 18.588515710608917 ], [ -99.006420688937695, 18.592056400348561 ], [ -98.984361768836877, 18.591094370428539 ], [ -98.972101890133246, 18.595914880445029 ], [ -98.972197579018641, 18.61593843005258 ], [ -98.979869579582015, 18.628277480291622 ], [ -98.972259940098638, 18.640607420670026 ], [ -98.95972510927129, 18.648085750919673 ], [ -98.95920970917642, 18.655948220508598 ], [ -98.961933800291391, 18.659199599674377 ], [ -98.968125349611441, 18.655657550342749 ], [ -98.967593629586176, 18.660447800917026 ], [ -98.957321859561915, 18.661047980429196 ], [ -98.95431087953277, 18.666071090051705 ], [ -98.950450249685701, 18.666172911247017 ], [ -98.949741320165813, 18.631494430592362 ], [ -98.954257660248487, 18.626102230747318 ], [ -98.924576448555626, 18.620079551168619 ], [ -98.942736090298752, 18.660025769628763 ], [ -98.937278219938534, 18.671093970779342 ], [ -98.928760679608359, 18.676872569697288 ], [ -98.923766518830945, 18.674027080390811 ], [ -98.91233562041252, 18.679068780054511 ], [ -98.8986522802564, 18.674925750387487 ], [ -98.884389140379412, 18.675867510321098 ], [ -98.876091060108706, 18.672072631036706 ], [ -98.857852349610781, 18.674470780042039 ], [ -98.852487419709234, 18.672080819934632 ], [ -98.843408149586224, 18.681110419667259 ] ] ] } },
{ "type": "Feature", "properties": { "code": "17006", "stateCode": "17", "municipalityCode": "006", "name": "Cuautla" }, "geometry": { "type": "Polygon", "coordinates": [ [ [ -98.941093690222658, 18.890406983472623 ], [ -98.911894228869585, 18.873151539802844 ], [ -98.925181056097429, 18.860704460786568 ], [ -98.928419196857973, 18.85249160017263 ], [ -98.924256677640201, 18.850039340257503 ], [ -98.906780245847855, 18.85150894276326 ], [ -98.908879289747517, 18.834824599927977 ], [ -98.913496769028072, 18.83151188069365 ], [ -98.920381849112289, 18.834528281690616 ], [ -98.925921597947308, 18.831285261409114 ], [ -98.923926719062223, 18.822310710693927 ], [ -98.929271888295276, 18.807451582152936 ], [ -98.8876431144745, 18.798712720520012 ], [ -98.921830968203551, 18.755221880801628 ], [ -98.920413119101823, 18.747422740357255 ], [ -98.924972478315851, 18.739304111107607 ], [ -98.939584880171907, 18.751857889838561 ], [ -98.957761857712143, 18.759046280952159 ], [ -98.952114230760827, 18.767952941874086 ], [ -98.936701449987311, 18.773585581553313 ], [ -98.937184488412285, 18.785109584023186 ], [ -98.940690348859889, 18.784400602033312 ], [ -98.949841823181714, 18.791259384192198 ], [ -98.95541513485469, 18.802473262995896 ], [ -98.966231943822962, 18.796564221670426 ], [ -98.965233678027531, 18.802031140917496 ], [ -98.97728125895631, 18.799111720947391 ], [ -98.989324630434709, 18.800574719696314 ], [ -98.990029348943011, 18.803512710137298 ], [ -99.017292260043021, 18.812507971131893 ], [ -99.048430998724925, 18.830934180932026 ], [ -99.0461501077219, 18.839962779714405 ], [ -99.048945059510743, 18.844718579735609 ], [ -99.041108488005094, 18.848483149926722 ], [ -99.040769028234436, 18.857803661309738 ], [ -99.014131278292567, 18.85423953992818 ], [ -99.001874458880735, 18.859963490521494 ], [ -99.005388689501814, 18.870796370144774 ], [ -98.988571969376096, 18.866153710102502 ], [ -98.97121681703841, 18.882574370020919 ], [ -98.958453449430479, 18.881385400585096 ], [ -98.955368289044401, 18.885269431563511 ], [ -98.941093690222658, 18.890406983472623 ] ] ] } },
{ "type": "Feature", "properties": { "code": "17001", "stateCode": "17", "municipalityCode": "001", "name": "Amacuzac" }, "geometry": { "type": "Polygon", "coordinates": [ [ [ -99.399213829972837, 18.648498169777906 ], [ -99.394785430123221, 18.649423339551401 ], [ -99.384657349535161, 18.638513770234628 ], [ -99.385651399981015, 18.6281660802318 ], [ -99.355509859948128, 18.616083339941891 ], [ -99.35680454030701, 18.62027418020169 ], [ -99.354226450384203, 18.619655880370459 ], [ -99.350954489828297, 18.627628369689457 ], [ -99.353954000187059, 18.639617279585469 ], [ -99.345286379839095, 18.640555180375074 ], [ -99.346094429913961, 18.636479949632584 ], [ -99.343468090273717, 18.637471349615339 ], [ -99.337822510480805, 18.633679690208243 ], [ -99.340031180488268, 18.633492059988608 ], [ -99.338653750044813, 18.629559980147778 ], [ -99.336421110070063, 18.630456569874024 ], [ -99.334278719621011, 18.624334569499446 ], [ -99.336843851102984, 18.622613429294038 ], [ -99.333602150055171, 18.621908830185522 ], [ -99.337450859924445, 18.595213380199574 ], [ -99.333511940431848, 18.58722668041105 ], [ -99.327354089738449, 18.585431780434963 ], [ -99.330495310044483, 18.580793429599773 ], [ -99.327615425187957, 18.565772936502896 ], [ -99.355520395274326, 18.566915316566067 ], [ -99.362344994953062, 18.562851625884324 ], [ -99.358547015149753, 18.553459306730272 ], [ -99.338509799674554, 18.560033399771235 ], [ -99.344748720205075, 18.521914400165521 ], [ -99.380139879838254, 18.522731369640134 ], [ -99.379216119947884, 18.520530690143303 ], [ -99.383877320344737, 18.521152059941794 ], [ -99.385298490236934, 18.526283019736837 ], [ -99.390271180300431, 18.525682830203884 ], [ -99.400805599604396, 18.53953538000798 ], [ -99.407804429657119, 18.556066370262215 ], [ -99.422882180176757, 18.562067880222866 ], [ -99.425294450154894, 18.579127550174835 ], [ -99.419704449788071, 18.590336660103453 ], [ -99.429381019929082, 18.588920910006141 ], [ -99.435643339819862, 18.592761379950552 ], [ -99.435179419942699, 18.598067940011045 ], [ -99.440494999805964, 18.597464399934037 ], [ -99.44120145964456, 18.612574000353742 ], [ -99.446097489633161, 18.614492689542601 ], [ -99.453886320250049, 18.609902319818961 ], [ -99.458097260350442, 18.634061399638835 ], [ -99.464415890357202, 18.643669999570516 ], [ -99.45900802024444, 18.651613090402641 ], [ -99.456691579875496, 18.647746110413202 ], [ -99.451127950419732, 18.64754784955586 ], [ -99.452740179923254, 18.6409081697111 ], [ -99.448601459555945, 18.640046319800685 ], [ -99.444316750146186, 18.632888750318244 ], [ -99.435203509809526, 18.640741580332353 ], [ -99.432040679741093, 18.639009379979022 ], [ -99.426856029913608, 18.641964829751181 ], [ -99.428796949898285, 18.630815829783039 ], [ -99.423593149629625, 18.628186049546319 ], [ -99.423641219708969, 18.632255690277653 ], [ -99.420424489990864, 18.627543829572623 ], [ -99.417079820059413, 18.631704629994196 ], [ -99.422414320215523, 18.634929089820275 ], [ -99.410780629558317, 18.654856939555547 ], [ -99.399213829972837, 18.648498169777906 ] ] ] } },
{ "type": "Feature", "properties": { "code": "17025", "stateCode": "17", "municipalityCode": "025", "name": "Tlaquiltenango" }, "geometry": { "type": "Polygon", "coordinates": [ [ [ -99.160546939559325, 18.662333139563579 ], [ -99.120852650283751, 18.648321259568569 ], [ -99.117359089524527, 18.651922550261084 ], [ -99.116912539756257, 18.661490250149338 ], [ -99.107793660169463, 18.656365479684926 ], [ -99.097997289689062, 18.645339090095284 ], [ -99.093562859955426, 18.646496679632062 ], [ -99.084887740181415, 18.617734910081424 ], [ -99.079161219893237, 18.608510540202627 ], [ -99.073208979672472, 18.583506629998634 ], [ -99.052983829619393, 18.582459050413917 ], [ -99.046634429669339, 18.586325939949603 ], [ -99.0478457200946, 18.580936429868355 ], [ -99.036538798847033, 18.564167720649014 ], [ -99.01698779926285, 18.577258780971494 ], [ -98.997204879701897, 18.569224769137818 ], [ -98.995447820355011, 18.539431399885832 ], [ -98.987721690895569, 18.538173348781854 ], [ -98.983928480103856, 18.533154419562027 ], [ -98.98542208960562, 18.525477650092338 ], [ -98.967095349977029, 18.523738690106534 ], [ -98.968419549881403, 18.496649479924187 ], [ -98.935806449964986, 18.483391179622426 ], [ -98.915214090209645, 18.457345540141485 ], [ -98.914953750317522, 18.441424569964962 ], [ -98.920332520232719, 18.442299139942261 ], [ -98.919317320294127, 18.431964849976524 ], [ -98.922140769754563, 18.428455059917354 ], [ -98.944398949831779, 18.42044572011083 ], [ -98.949403149586416, 18.422608650380337 ], [ -98.950611859959622, 18.417691379696358 ], [ -98.959184050300067, 18.420329199629286 ], [ -98.973970370047411, 18.417139049841683 ], [ -98.977988979696519, 18.423988630135138 ], [ -98.985372450438788, 18.421153980366679 ], [ -98.983980090302879, 18.413755349702782 ], [ -98.987694830435458, 18.411850629605492 ], [ -98.983508550226745, 18.405421659780941 ], [ -98.986591660324549, 18.404816620238432 ], [ -98.98793867957859, 18.397063770050586 ], [ -98.99699219971663, 18.393962949909159 ], [ -99.000934919596958, 18.388257149569753 ], [ -99.005364880065983, 18.389910220125355 ], [ -99.009760079811443, 18.385970980092463 ], [ -99.018175079732686, 18.387784370194101 ], [ -99.020527740403324, 18.377019819664802 ], [ -99.023791450261655, 18.376395659609397 ], [ -99.023610139794428, 18.372453879772067 ], [ -99.031440690136876, 18.364941690131964 ], [ -99.035625429929922, 18.365479659746917 ], [ -99.038367830398542, 18.358785719871683 ], [ -99.043539579647913, 18.359448710376679 ], [ -99.048526249702221, 18.351241769758943 ], [ -99.058772520335012, 18.348855520145538 ], [ -99.057689179761809, 18.33845768970415 ], [ -99.063411429951159, 18.332655970210332 ], [ -99.071678769605114, 18.335208510400729 ], [ -99.075963570172064, 18.342379219849878 ], [ -99.069854620282342, 18.350423450202427 ], [ -99.071178510230084, 18.359480220399163 ], [ -99.066201949682451, 18.359388570444054 ], [ -99.066295720030894, 18.367780199825578 ], [ -99.07120206024301, 18.370396309789388 ], [ -99.072839260314211, 18.377312459640777 ], [ -99.081256460289595, 18.373114709611322 ], [ -99.078536450246858, 18.38706596997222 ], [ -99.089546890453576, 18.399985720292435 ], [ -99.100518320022459, 18.401189000216473 ], [ -99.110657770060982, 18.419074579711612 ], [ -99.128314859722295, 18.427308979939156 ], [ -99.130118630323153, 18.432216880113913 ], [ -99.124958799682247, 18.436275889752775 ], [ -99.124395249756887, 18.441239649769937 ], [ -99.129842979922842, 18.440927569649421 ], [ -99.136098290336164, 18.449186950389041 ], [ -99.134010580438982, 18.457962819970085 ], [ -99.139434029841553, 18.464051479697396 ], [ -99.137887680208692, 18.469568909726124 ], [ -99.140623349812174, 18.474973090285776 ], [ -99.144877459983931, 18.475549379800789 ], [ -99.141164450025315, 18.46908382029903 ], [ -99.142411220239453, 18.465285340001273 ], [ -99.15612756954647, 18.466348430196966 ], [ -99.181315079827641, 18.448417749849792 ], [ -99.182339140405119, 18.436130229631992 ], [ -99.177905370157433, 18.424745250174958 ], [ -99.206674030218096, 18.447434430423108 ], [ -99.203620690333764, 18.456486540150749 ], [ -99.20656083033802, 18.465692230409058 ], [ -99.175923059847648, 18.488453510267085 ], [ -99.229184000218538, 18.480677969714606 ], [ -99.233208550319119, 18.487098800431951 ], [ -99.235044600460398, 18.501195509686617 ], [ -99.208656710374441, 18.523000600335948 ], [ -99.203312218778876, 18.52337602099966 ], [ -99.203069449259431, 18.527438511172374 ], [ -99.196557049139912, 18.53142122103197 ], [ -99.191592658598083, 18.520409981042807 ], [ -99.189049719219952, 18.523967090689343 ], [ -99.189865289455369, 18.532273480826657 ], [ -99.179733568759275, 18.537684450549047 ], [ -99.176103908843544, 18.537710080810765 ], [ -99.174026288987491, 18.531945290511175 ], [ -99.162850909006934, 18.531404151049554 ], [ -99.152151818915485, 18.554345351169331 ], [ -99.153268679443073, 18.559620740647691 ], [ -99.147872768827895, 18.572336830669151 ], [ -99.151967999327795, 18.578502651233954 ], [ -99.151706997389113, 18.598560400471797 ], [ -99.159873229115064, 18.599748380450801 ], [ -99.165385349068814, 18.604369770647509 ], [ -99.164282309495434, 18.609975921032223 ], [ -99.167645918813946, 18.611802710991181 ], [ -99.170164549385433, 18.62099266112693 ], [ -99.17740884865843, 18.620102860664101 ], [ -99.189247769266771, 18.63505708048622 ], [ -99.187083978887074, 18.638653951291559 ], [ -99.17768434860497, 18.629701091069467 ], [ -99.170777949838651, 18.657739139944717 ], [ -99.160546939559325, 18.662333139563579 ] ] ] } },
{ "type": "Feature", "properties": { "code": "17002", "stateCode": "17", "municipalityCode": "002", "name": "Atlatlahucan" }, "geometry": { "type": "Polygon", "coordinates": [ [ [ -98.868398999760146, 18.9998957798813 ], [ -98.870005519688974, 18.990510400179968 ], [ -98.857333349555915, 18.974591910318356 ], [ -98.859479649589815, 18.964777939729778 ], [ -98.845167019548526, 18.955143369893261 ], [ -98.840719110370102, 18.955666250310848 ], [ -98.835890880258162, 18.950151770049899 ], [ -98.839876430416709, 18.935446709826941 ], [ -98.845113020100129, 18.932221340247004 ], [ -98.850421880370334, 18.918748649568187 ], [ -98.856501909965303, 18.916754859922968 ], [ -98.860612179699714, 18.909197349960625 ], [ -98.860574450221421, 18.913453119847077 ], [ -98.873399539993542, 18.906886149722339 ], [ -98.887016879283877, 18.904863921095227 ], [ -98.891314889315396, 18.907244090059812 ], [ -98.905097255878488, 18.891014520972892 ], [ -98.928417908048729, 18.882078090646282 ], [ -98.942323580299501, 18.890726310253168 ], [ -98.932994979621228, 18.897257139753386 ], [ -98.938486020205843, 18.902820350258864 ], [ -98.955152449662506, 18.905115138481154 ], [ -98.950820811216801, 18.917332220724223 ], [ -98.95285630950471, 18.927645051159338 ], [ -98.93431131, 18.941198769981604 ], [ -98.928067599597057, 18.952780170211145 ], [ -98.924093968744671, 18.949069780144242 ], [ -98.921757780386358, 18.955363309699781 ], [ -98.911002241410898, 18.95250200721647 ], [ -98.907008981306817, 18.958917890927967 ], [ -98.900050461167481, 18.958095201479743 ], [ -98.899551230859402, 18.969543411352372 ], [ -98.896652640758404, 18.972810671186675 ], [ -98.892096190701437, 18.971431261284661 ], [ -98.887982960197135, 18.97647021124504 ], [ -98.881664301405564, 18.999894210873194 ], [ -98.868398999760146, 18.9998957798813 ] ] ] } },
{ "type": "Feature", "properties": { "code": "17026", "stateCode": "17", "municipalityCode": "026", "name": "Tlayacapan" }, "geometry": { "type": "Polygon", "coordinates": [ [ [ -98.980988090419075, 18.992551629582071 ], [ -98.967877440762578, 18.988343491333183 ], [ -98.964356990938455, 18.984110340775594 ], [ -98.962234010701948, 18.988220371459814 ], [ -98.955362760890225, 18.985169811297414 ], [ -98.956450210257771, 18.979506097786338 ], [ -98.953113780511245, 18.977563271250077 ], [ -98.951212841085919, 18.983265551143219 ], [ -98.932736410793623, 18.975332901294269 ], [ -98.932352641132638, 18.965254071134503 ], [ -98.922626890451909, 18.967487740944136 ], [ -98.921085030822297, 18.95762721091188 ], [ -98.923245279622748, 18.949623819611411 ], [ -98.928067599597057, 18.952780170211145 ], [ -98.93431131, 18.941198769981604 ], [ -98.941567319871623, 18.938326769718834 ], [ -98.951120290181265, 18.927479320221245 ], [ -98.976935289936748, 18.936529619900124 ], [ -98.977699110313026, 18.931547420380451 ], [ -98.988564680362572, 18.921421890045934 ], [ -98.987869139600221, 18.91003986042692 ], [ -98.990777630315094, 18.907547859877866 ], [ -98.987994849090853, 18.901033889568161 ], [ -98.982972459030634, 18.898780550218891 ], [ -98.992453449698772, 18.893658510314339 ], [ -98.999530880156954, 18.900293119607642 ], [ -98.995445249720973, 18.910782600291828 ], [ -99.005381020037916, 18.910791119924102 ], [ -99.013988739273941, 18.933550150860057 ], [ -99.007899679869638, 18.948828219755924 ], [ -99.016182620142104, 18.959723879752797 ], [ -99.014562980041021, 18.975272939607876 ], [ -98.998830600442886, 18.987561549659944 ], [ -98.984660290275883, 18.986800770358215 ], [ -98.980988090419075, 18.992551629582071 ] ] ] } },
{ "type": "Feature", "properties": { "code": "17023", "stateCode": "17", "municipalityCode": "023", "name": "Tlalnepantla" }, "geometry": { "type": "Polygon", "coordinates": [ [ [ -98.983594490368048, 19.078763250237671 ], [ -98.969225139982541, 19.065903779957353 ], [ -98.957778550127401, 19.060294490054087 ], [ -98.94434755004437, 19.069734420066677 ], [ -98.915598170054523, 19.064057280335582 ], [ -98.917060600097543, 19.059424950255842 ], [ -98.903389780372862, 19.038482889959063 ], [ -98.917266831108492, 19.039639631347573 ], [ -98.926861920674924, 19.035822431458147 ], [ -98.925126169946594, 19.027392599537912 ], [ -98.932276441212906, 19.00298446127227 ], [ -98.943332560770088, 19.020643200947699 ], [ -98.955846290990053, 19.026796550765241 ], [ -98.958724560472902, 19.005043740667478 ], [ -98.961483320227956, 19.002143201055347 ], [ -98.962300289703464, 19.006076379670716 ], [ -98.966712930337366, 19.005582180828078 ], [ -98.965180560915812, 19.008569370720799 ], [ -98.971540879641182, 19.011414719890027 ], [ -98.97201377034844, 19.015929679591174 ], [ -98.983533259963309, 18.987550310392567 ], [ -98.998214999879437, 18.987827740149136 ], [ -99.014562980041021, 18.975272939607876 ], [ -99.018024060201569, 18.996285459870766 ], [ -99.030582339684074, 19.000175539593908 ], [ -99.030295000350307, 19.007321319816388 ], [ -99.035978340105743, 19.016819059694456 ], [ -99.062085750057747, 19.048718720121435 ], [ -99.059800230187008, 19.048236660147111 ], [ -99.043208860452623, 19.07575546008211 ], [ -99.028993679814775, 19.085368795939402 ], [ -98.983594490368048, 19.078763250237671 ] ] ] } },
{ "type": "Feature", "properties": { "code": "17004", "stateCode": "17", "municipalityCode": "004", "name": "Ayala" }, "geometry": { "type": "Polygon", "coordinates": [ [ [ -99.047676850040489, 18.830505080068921 ], [ -99.017292260043021, 18.812507971131893 ], [ -98.990029348943011, 18.803512710137298 ], [ -98.989324630434709, 18.800574719696314 ], [ -98.97728125895631, 18.799111720947391 ], [ -98.965233678027531, 18.802031140917496 ], [ -98.966231943822962, 18.796564221670426 ], [ -98.95541513485469, 18.802473262995896 ], [ -98.949841823181714, 18.791259384192198 ], [ -98.940690348859889, 18.784400602033312 ], [ -98.937184488412285, 18.785109584023186 ], [ -98.936701449987311, 18.773585581553313 ], [ -98.952114230760827, 18.767952941874086 ], [ -98.957761857712143, 18.759046280952159 ], [ -98.939584880171907, 18.751857889838561 ], [ -98.924972478315851, 18.739304111107607 ], [ -98.920413119101823, 18.747422740357255 ], [ -98.921830968203551, 18.755221880801628 ], [ -98.910140198921553, 18.773257251931543 ], [ -98.900798569095514, 18.780171830616688 ], [ -98.889746220378754, 18.795720490545616 ], [ -98.882257998714039, 18.790700371271903 ], [ -98.884944618769566, 18.78576464977456 ], [ -98.879455880160378, 18.781210889876036 ], [ -98.875825279849593, 18.78623402118664 ], [ -98.866051708832671, 18.782677710021634 ], [ -98.854226019384015, 18.771034859848111 ], [ -98.866412948987673, 18.764119920945895 ], [ -98.835775278563247, 18.763250031219599 ], [ -98.839902549186277, 18.745153891225566 ], [ -98.836693980318699, 18.743540110805696 ], [ -98.852080939222958, 18.723448250335789 ], [ -98.854635689735716, 18.721662000607505 ], [ -98.870488309234716, 18.727176400536788 ], [ -98.876369369765058, 18.705825170865836 ], [ -98.870750938679578, 18.702342049710875 ], [ -98.866053629272173, 18.688347830885181 ], [ -98.876685400399879, 18.68339065082851 ], [ -98.876091060108706, 18.672072631036706 ], [ -98.884389140379412, 18.675867510321098 ], [ -98.8986522802564, 18.674925750387487 ], [ -98.91233562041252, 18.679068780054511 ], [ -98.923766518830945, 18.674027080390811 ], [ -98.928760679608359, 18.676872569697288 ], [ -98.937278219938534, 18.671093970779342 ], [ -98.942736090298752, 18.660025769628763 ], [ -98.924576448555626, 18.620079551168619 ], [ -98.954257660248487, 18.626102230747318 ], [ -98.949741320165813, 18.631494430592362 ], [ -98.950450249685701, 18.666172911247017 ], [ -98.95431087953277, 18.666071090051705 ], [ -98.957321859561915, 18.661047980429196 ], [ -98.967593629586176, 18.660447800917026 ], [ -98.968125349611441, 18.655657550342749 ], [ -98.961933800291391, 18.659199599674377 ], [ -98.95920970917642, 18.655948220508598 ], [ -98.95972510927129, 18.648085750919673 ], [ -98.972259940098638, 18.640607420670026 ], [ -98.979869579582015, 18.628277480291622 ], [ -98.972197579018641, 18.61593843005258 ], [ -98.972101890133246, 18.595914880445029 ], [ -98.984361768836877, 18.591094370428539 ], [ -99.006420688937695, 18.592056400348561 ], [ -99.013457579949986, 18.588515710608917 ], [ -99.01698779926285, 18.577258780971494 ], [ -99.036538798847033, 18.564167720649014 ], [ -99.045267020476118, 18.578814489874944 ], [ -99.039590489134739, 18.580932630636628 ], [ -99.041701919109542, 18.585176220571892 ], [ -99.044517509430605, 18.584608540603931 ], [ -99.043368448619148, 18.588685320056925 ], [ -99.036811918600833, 18.5856335201827 ], [ -99.033776569749847, 18.587482380957507 ], [ -99.0396824903019, 18.591262121143117 ], [ -99.036203819869669, 18.59982032035596 ], [ -99.040868599154081, 18.600838550930344 ], [ -99.034898909080965, 18.603260920668685 ], [ -99.031950799145207, 18.600730199775739 ], [ -99.03649636881272, 18.610855120909036 ], [ -99.029465549012741, 18.609332421160616 ], [ -99.025360509118286, 18.617264980479973 ], [ -99.027504509378318, 18.620580720994219 ], [ -99.020077149389948, 18.623914250472009 ], [ -99.022389739334471, 18.62571126015667 ], [ -99.020423170171313, 18.631270429697988 ], [ -99.011391369253616, 18.62942772032201 ], [ -99.010600019488436, 18.632142110586891 ], [ -99.016783058557351, 18.632579430937515 ], [ -99.015242199727211, 18.635212200673461 ], [ -99.009073218626227, 18.632099891028407 ], [ -99.009713999450625, 18.635956630506946 ], [ -99.000625860068126, 18.638228740028936 ], [ -98.999861709935914, 18.644634341036852 ], [ -98.996106889365578, 18.643164741178239 ], [ -99.002666079506994, 18.649601169739828 ], [ -98.997956029639553, 18.665483280040448 ], [ -99.016630079096757, 18.667864750075363 ], [ -99.031963379614098, 18.67627440132927 ], [ -99.036106979397303, 18.66574957130722 ], [ -99.051852770322498, 18.667829079692066 ], [ -99.050842878949624, 18.673100821310779 ], [ -99.056487119965638, 18.676545261283891 ], [ -99.061168289378642, 18.675667779563636 ], [ -99.061865459207581, 18.666257800111381 ], [ -99.09094545011591, 18.661038771333434 ], [ -99.094647489289571, 18.668779920466122 ], [ -99.093511689673392, 18.6718288808975 ], [ -99.087219319571389, 18.669760580416554 ], [ -99.082107369251844, 18.684241829689892 ], [ -99.086827679216753, 18.683795690123748 ], [ -99.091422650124358, 18.691847180842284 ], [ -99.092589419759406, 18.705918201263366 ], [ -99.066778690375088, 18.711211351232933 ], [ -99.075126599512501, 18.724167940878214 ], [ -99.077619979960417, 18.759117109865855 ], [ -99.08346138016924, 18.771248631195856 ], [ -99.067729549501394, 18.781345220018189 ], [ -99.058875829889203, 18.796581060645622 ], [ -99.053944658735901, 18.795749110990414 ], [ -99.049044309013638, 18.799402740838723 ], [ -99.047676850040489, 18.830505080068921 ] ] ] } },
{ "type": "Feature", "properties": { "code": "17010", "stateCode": "17", "municipalityCode": "010", "name": "Jantetelco" }, "geometry": { "type": "Polygon", "coordinates": [ [ [ -98.83711833993334, 18.752085229630261 ], [ -98.796725079804673, 18.739462720355554 ], [ -98.794530799575043, 18.74203425964112 ], [ -98.788633280324959, 18.741303290071887 ], [ -98.788888690360309, 18.738003919608186 ], [ -98.782494820246868, 18.736196029633497 ], [ -98.777470079809191, 18.743504859857666 ], [ -98.77944051004576, 18.735382940369053 ], [ -98.774286428564665, 18.733610710501878 ], [ -98.774765310080852, 18.731072260051263 ], [ -98.772803658732514, 18.732927741135974 ], [ -98.761045690126068, 18.728690740312611 ], [ -98.753396850033923, 18.742927319764114 ], [ -98.738669540052328, 18.737165370387789 ], [ -98.728939369784385, 18.74523645957181 ], [ -98.715907089609445, 18.739189509703007 ], [ -98.723985459799934, 18.719067419782128 ], [ -98.741421549707908, 18.707494090350881 ], [ -98.73905820035715, 18.707107570269013 ], [ -98.74188227991057, 18.702177170359622 ], [ -98.732817539648764, 18.674011889638088 ], [ -98.727511939983586, 18.670055170274946 ], [ -98.724522050137892, 18.658762539995084 ], [ -98.719896079798346, 18.655953369546172 ], [ -98.718764229547546, 18.639714889902248 ], [ -98.720869350465748, 18.638903169676357 ], [ -98.717796999907904, 18.638331719693994 ], [ -98.716900370445629, 18.625750579999337 ], [ -98.711426310439279, 18.616454750069273 ], [ -98.715846340420612, 18.604740049931845 ], [ -98.721797659963187, 18.604097710136397 ], [ -98.726209619817553, 18.60941545016134 ], [ -98.726558540202987, 18.604829369775608 ], [ -98.735356349628205, 18.606385340410132 ], [ -98.734929890366871, 18.589030540248306 ], [ -98.748279690362651, 18.587831940373913 ], [ -98.747738880203428, 18.590151719953006 ], [ -98.755211940136277, 18.593637799654715 ], [ -98.756060259553479, 18.600687970125175 ], [ -98.761171289580631, 18.604823909784738 ], [ -98.752872998239553, 18.626853509797989 ], [ -98.753774050068643, 18.630278320207346 ], [ -98.76268919960448, 18.634065949755168 ], [ -98.7609355501327, 18.642789199818942 ], [ -98.766858569664379, 18.644279079886143 ], [ -98.767598489695303, 18.654511750399415 ], [ -98.759605749933769, 18.653920490265353 ], [ -98.753603619746187, 18.649575829560849 ], [ -98.754863770434568, 18.658787819660059 ], [ -98.747652719722694, 18.658219800073322 ], [ -98.747881120404074, 18.665520479934219 ], [ -98.780900630303918, 18.667495739666641 ], [ -98.787547349765447, 18.671976350046801 ], [ -98.78390982997719, 18.692957250118493 ], [ -98.789378980318787, 18.691203579995722 ], [ -98.79928541870315, 18.699970750768287 ], [ -98.803482629770173, 18.699392399786358 ], [ -98.80676017970724, 18.713293750227187 ], [ -98.835875680461101, 18.721021940045844 ], [ -98.83990091977671, 18.714430309746305 ], [ -98.854635689735716, 18.721662000607505 ], [ -98.837279879445944, 18.742411851311338 ], [ -98.839902549186277, 18.745153891225566 ], [ -98.83711833993334, 18.752085229630261 ] ] ] } },
{ "type": "Feature", "properties": { "code": "17017", "stateCode": "17", "municipalityCode": "017", "name": "Puente de Ixtla" }, "geometry": { "type": "Polygon", "coordinates": [ [ [ -99.283567073524665, 18.70546639763683 ], [ -99.277502972139303, 18.704028716918209 ], [ -99.290595234446769, 18.671120893154008 ], [ -99.291659487683987, 18.6595521662992 ], [ -99.273262292124429, 18.65440805582886 ], [ -99.260914445431951, 18.661745958448837 ], [ -99.26286328057455, 18.647071161027927 ], [ -99.25644940850836, 18.645824412530104 ], [ -99.263022582842197, 18.646853601843173 ], [ -99.265603995384041, 18.642753874242342 ], [ -99.269935747925004, 18.642821972060904 ], [ -99.285351399229867, 18.623350951028311 ], [ -99.288375059473793, 18.625727711269587 ], [ -99.301917459820856, 18.595120369807585 ], [ -99.291514429036454, 18.591072221138759 ], [ -99.290664874529909, 18.575729846281952 ], [ -99.296079549910175, 18.572667289917383 ], [ -99.296474249265543, 18.562177621333664 ], [ -99.291596509342028, 18.560405891239785 ], [ -99.289731139263623, 18.565608941114416 ], [ -99.285271978619548, 18.565612510831247 ], [ -99.274417368896934, 18.556741200909428 ], [ -99.276777859252192, 18.546558920632688 ], [ -99.273065213616519, 18.538679725369313 ], [ -99.26902502222049, 18.542036829888662 ], [ -99.263830748883066, 18.539559620926791 ], [ -99.262401150302694, 18.543001849996191 ], [ -99.26009484864241, 18.54183078075042 ], [ -99.262546779303037, 18.538436280658853 ], [ -99.248114678767351, 18.530260631166591 ], [ -99.245718259059998, 18.536779481017025 ], [ -99.241385149134004, 18.537936451165205 ], [ -99.230201690448865, 18.554468231106327 ], [ -99.228669079989643, 18.553511723039179 ], [ -99.229290889352242, 18.546550431136204 ], [ -99.219771719291884, 18.540921711004255 ], [ -99.213531339414473, 18.533521830653847 ], [ -99.211698519207403, 18.524051890564401 ], [ -99.208656710374441, 18.523000600335948 ], [ -99.235044600460398, 18.501195509686617 ], [ -99.233208550319119, 18.487098800431951 ], [ -99.229184000218538, 18.480677969714606 ], [ -99.175923059847648, 18.488453510267085 ], [ -99.20656083033802, 18.465692230409058 ], [ -99.2044293497041, 18.45528195042532 ], [ -99.246007059683478, 18.456433369748922 ], [ -99.247607340051843, 18.450999250013883 ], [ -99.304236649642732, 18.459473379931325 ], [ -99.312152259902504, 18.454787320237532 ], [ -99.328367820418947, 18.459540250322796 ], [ -99.329413249555174, 18.488927549648416 ], [ -99.335606139596493, 18.483866909859454 ], [ -99.345555540267071, 18.482296540451628 ], [ -99.35267525970751, 18.485980830397672 ], [ -99.34344565978941, 18.467127859728524 ], [ -99.35740426009265, 18.467669170169554 ], [ -99.355053369699561, 18.476737819724502 ], [ -99.364239689728649, 18.485144180263951 ], [ -99.362951920387502, 18.499026719606189 ], [ -99.372385400050518, 18.507890540359636 ], [ -99.380139879838254, 18.522731369640134 ], [ -99.344748720205075, 18.521914400165521 ], [ -99.338509799674554, 18.560033399771235 ], [ -99.358547015149753, 18.553459306730272 ], [ -99.362344994953062, 18.562851625884324 ], [ -99.355520395274326, 18.566915316566067 ], [ -99.327615425187957, 18.565772936502896 ], [ -99.330495310044483, 18.580793429599773 ], [ -99.327354089738449, 18.585431780434963 ], [ -99.333511940431848, 18.58722668041105 ], [ -99.337450859924445, 18.595213380199574 ], [ -99.333631279941102, 18.622264510355986 ], [ -99.336843851102984, 18.622613429294038 ], [ -99.334278719621011, 18.624334569499446 ], [ -99.336421110070063, 18.630456569874024 ], [ -99.340136110517463, 18.631572940088287 ], [ -99.338022879992835, 18.63393934980029 ], [ -99.346094429913961, 18.636479949632584 ], [ -99.344045170345581, 18.639345029794452 ], [ -99.348714580151778, 18.64209652031521 ], [ -99.347348460359257, 18.663144179994649 ], [ -99.355137999732221, 18.663358850064132 ], [ -99.358054150268742, 18.674542660228678 ], [ -99.350119109765913, 18.679261019590054 ], [ -99.352559921082758, 18.681218619936285 ], [ -99.341421659583204, 18.686399218983919 ], [ -99.337893570400936, 18.685217078787424 ], [ -99.337598569695771, 18.688365829890358 ], [ -99.311863478295209, 18.690028081453342 ], [ -99.283567073524665, 18.70546639763683 ] ] ] } },
{ "type": "Feature", "properties": { "code": "17015", "stateCode": "17", "municipalityCode": "015", "name": "Miacatlán" }, "geometry": { "type": "Polygon", "coordinates": [ [ [ -99.342495219280949, 18.923949750745425 ], [ -99.339936629851479, 18.922129771326574 ], [ -99.338203230340895, 18.895679661335585 ], [ -99.330066749577853, 18.869121601306105 ], [ -99.327453053881669, 18.867996905437725 ], [ -99.329961029922671, 18.866672540941313 ], [ -99.329450466552075, 18.86085480496606 ], [ -99.352307779917538, 18.842289741124191 ], [ -99.348412079847066, 18.830743520819805 ], [ -99.335433479718333, 18.822826719825276 ], [ -99.31223908996806, 18.815473830571829 ], [ -99.299706520132546, 18.8015404005357 ], [ -99.288142280761832, 18.795449980430742 ], [ -99.289634509649176, 18.787596460295678 ], [ -99.284726030153521, 18.781965399764214 ], [ -99.292655642093848, 18.785237800338489 ], [ -99.314731267047989, 18.774309515214441 ], [ -99.3111772499106, 18.7670676377031 ], [ -99.315702545301022, 18.762149286330182 ], [ -99.333230298103146, 18.764569604794726 ], [ -99.344019168343323, 18.749467936049086 ], [ -99.350461716339538, 18.755657447245621 ], [ -99.357782943332452, 18.745951254613036 ], [ -99.364561117366264, 18.755963490769748 ], [ -99.36959194996102, 18.757632020892967 ], [ -99.381782019879068, 18.756679311013169 ], [ -99.385285769953626, 18.759172921142618 ], [ -99.385375369574263, 18.754820910536182 ], [ -99.390356000070767, 18.756849080572575 ], [ -99.390996520391255, 18.752566719989137 ], [ -99.399410089553726, 18.758110000619972 ], [ -99.424350480125142, 18.807879520890399 ], [ -99.432259198754977, 18.857813691163841 ], [ -99.424434110214165, 18.860279980860241 ], [ -99.43099891040066, 18.865747121330255 ], [ -99.429354519626372, 18.87756928981878 ], [ -99.410957018580831, 18.878183861110607 ], [ -99.406653629227264, 18.895187751065819 ], [ -99.373128319499472, 18.898629801143866 ], [ -99.367036830100574, 18.893998780484822 ], [ -99.358401548651898, 18.90647602121425 ], [ -99.34420110858558, 18.91866742070804 ], [ -99.342495219280949, 18.923949750745425 ] ] ] } },
{ "type": "Feature", "properties": { "code": "17022", "stateCode": "17", "municipalityCode": "022", "name": "Tetela del Volcán" }, "geometry": { "type": "Polygon", "coordinates": [ [ [ -98.632946649563365, 19.015549520287607 ], [ -98.649611710149088, 18.999577399555871 ], [ -98.651253080005674, 18.988416999698991 ], [ -98.663320780349082, 18.962512480039955 ], [ -98.673629380213725, 18.951665170285199 ], [ -98.678091909755494, 18.923717479894968 ], [ -98.707343229883534, 18.902855510032662 ], [ -98.705680619883196, 18.890789620440639 ], [ -98.713796910007204, 18.876824549941826 ], [ -98.713471509795369, 18.867243620099877 ], [ -98.717644305283628, 18.864911288343475 ], [ -98.724096250687182, 18.82084021198698 ], [ -98.736136429646976, 18.822240029901831 ], [ -98.73287702003104, 18.83397525962161 ], [ -98.7362664202426, 18.835986000423524 ], [ -98.746299319725551, 18.837764079834471 ], [ -98.752991720408275, 18.828530309718538 ], [ -98.775392520099899, 18.832346490173055 ], [ -98.76722431983417, 18.840254880294538 ], [ -98.765886650159132, 18.854139800066431 ], [ -98.760213000479496, 18.854492169687514 ], [ -98.756821970212371, 18.86027239970981 ], [ -98.736111280325744, 18.867156780309632 ], [ -98.729417629983033, 18.872995949988795 ], [ -98.729230890325454, 18.875744519980064 ], [ -98.737439382135832, 18.879499908175035 ], [ -98.732134050386051, 18.88002554975866 ], [ -98.728389819177565, 18.881459279990072 ], [ -98.728487169456429, 18.881553829901712 ], [ -98.749684059649979, 18.885936089979737 ], [ -98.739783920136418, 18.893860340172193 ], [ -98.739117580387045, 18.899732119715864 ], [ -98.745723121100454, 18.905461260967577 ], [ -98.746377260336061, 18.914512969087369 ], [ -98.755102519963771, 18.916287981963265 ], [ -98.757347580266256, 18.921839430232971 ], [ -98.74525711040846, 18.926155139925637 ], [ -98.726269850250929, 18.944688780240536 ], [ -98.713502980038413, 18.943492449781026 ], [ -98.701453379653188, 18.954803740002305 ], [ -98.696351769668894, 18.964206909879309 ], [ -98.69020971994884, 18.966588320387103 ], [ -98.66447447958376, 19.00355686004832 ], [ -98.652202740137639, 19.005990800403183 ], [ -98.632946649563365, 19.015549520287607 ] ] ] } },
{ "type": "Feature", "properties": { "code": "17009", "stateCode": "17", "municipalityCode": "009", "name": "Huitzilac" }, "geometry": { "type": "Polygon", "coordinates": [ [ [ -99.226777780404433, 19.096060003504743 ], [ -99.135379018117078, 19.089296070896964 ], [ -99.148283780160639, 19.050332319579105 ], [ -99.165383679644677, 19.023731850083045 ], [ -99.213106719718439, 18.98400733963021 ], [ -99.228739580087776, 18.981744449910316 ], [ -99.219319829993893, 19.009386569847884 ], [ -99.255472579824115, 19.00416687973086 ], [ -99.253985030276397, 18.998594380302286 ], [ -99.254022970002822, 18.998341889883918 ], [ -99.254129369872885, 18.998303540987372 ], [ -99.269073479674816, 19.002808690411516 ], [ -99.293053709881477, 19.02395515015855 ], [ -99.311757819950458, 19.024650079751869 ], [ -99.318906369413682, 19.031068709963932 ], [ -99.317491718952425, 19.040125849732949 ], [ -99.308570248690771, 19.040301350299362 ], [ -99.316169448673804, 19.048787219598513 ], [ -99.319115688867953, 19.065713620859018 ], [ -99.318318978969529, 19.087416830045786 ], [ -99.313744118677619, 19.098218880384771 ], [ -99.295077910345171, 19.122931509812151 ], [ -99.278695219233228, 19.131701722554144 ], [ -99.226777780404433, 19.096060003504743 ] ] ] } },
{ "type": "Feature", "properties": { "code": "17011", "stateCode": "17", "municipalityCode": "011", "name": "Jiutepec" }, "geometry": { "type": "Polygon", "coordinates": [ [ [ -99.184638651069136, 18.936700791939149 ], [ -99.131666910414197, 18.896429979995702 ], [ -99.133308849558105, 18.894892380116701 ], [ -99.120212340089992, 18.880704120441923 ], [ -99.121825050368827, 18.861959619669875 ], [ -99.134360919664672, 18.864128490122177 ], [ -99.135686350368786, 18.851726879788629 ], [ -99.148382890103051, 18.835966060212812 ], [ -99.170819768567952, 18.86099318118394 ], [ -99.170971427758161, 18.855532720787863 ], [ -99.177963719718264, 18.859666890083165 ], [ -99.177883650324134, 18.853294859556406 ], [ -99.18470622042733, 18.858239120321937 ], [ -99.188636049814619, 18.867192379721587 ], [ -99.191062679552118, 18.865037259844279 ], [ -99.197449660349392, 18.870152969796479 ], [ -99.199192199716549, 18.868542630311349 ], [ -99.19883194977713, 18.875408569600488 ], [ -99.202804058932529, 18.873907550558201 ], [ -99.202414710281687, 18.876462289659354 ], [ -99.217061889160647, 18.878806479838161 ], [ -99.216205178896416, 18.887575059671359 ], [ -99.209709198928223, 18.896544601323928 ], [ -99.212964229723866, 18.904087370062935 ], [ -99.211339940167235, 18.907497150013693 ], [ -99.19811371054611, 18.900922661408 ], [ -99.196447380330554, 18.894226909994646 ], [ -99.191885419471689, 18.893295551659968 ], [ -99.19250397962972, 18.900816400242068 ], [ -99.198980919704184, 18.902994400176571 ], [ -99.200512659304806, 18.908727020618162 ], [ -99.193954579521787, 18.912209570339879 ], [ -99.193489569707211, 18.91977902978488 ], [ -99.180747859855401, 18.91153029032775 ], [ -99.181861430139861, 18.919877079598692 ], [ -99.184094401617443, 18.919527553457154 ], [ -99.181921519713043, 18.922175710091242 ], [ -99.184638651069136, 18.936700791939149 ] ] ] } },
{ "type": "Feature", "properties": { "code": "17012", "stateCode": "17", "municipalityCode": "012", "name": "Jojutla" }, "geometry": { "type": "Polygon", "coordinates": [ [ [ -99.194315018797198, 18.649523845163628 ], [ -99.175162260167042, 18.6407611999939 ], [ -99.17768434860497, 18.629701091069467 ], [ -99.187083978887074, 18.638653951291559 ], [ -99.189247769266771, 18.63505708048622 ], [ -99.17740884865843, 18.620102860664101 ], [ -99.170164549385433, 18.62099266112693 ], [ -99.167645918813946, 18.611802710991181 ], [ -99.164282309495434, 18.609975921032223 ], [ -99.165385349068814, 18.604369770647509 ], [ -99.159873229115064, 18.599748380450801 ], [ -99.151706997389113, 18.598560400471797 ], [ -99.151967999327795, 18.578502651233954 ], [ -99.147872768827895, 18.572336830669151 ], [ -99.153268679443073, 18.559620740647691 ], [ -99.152151818915485, 18.554345351169331 ], [ -99.162850909006934, 18.531404151049554 ], [ -99.174026288987491, 18.531945290511175 ], [ -99.178211179431258, 18.538235380969763 ], [ -99.189865289455369, 18.532273480826657 ], [ -99.189049719219952, 18.523967090689343 ], [ -99.191592658598083, 18.520409981042807 ], [ -99.196557049139912, 18.53142122103197 ], [ -99.203069449259431, 18.527438511172374 ], [ -99.203312218778876, 18.52337602099966 ], [ -99.210721049388198, 18.522768520782705 ], [ -99.213531339414473, 18.533521830653847 ], [ -99.229290889352242, 18.546550431136204 ], [ -99.230201690448865, 18.554468231106327 ], [ -99.248114678767351, 18.530260631166591 ], [ -99.262546779303037, 18.538436280658853 ], [ -99.26009484864241, 18.54183078075042 ], [ -99.262401150302694, 18.543001849996191 ], [ -99.263830748883066, 18.539559620926791 ], [ -99.26902502222049, 18.542036829888662 ], [ -99.273065213616519, 18.538679725369313 ], [ -99.276777859252192, 18.546558920632688 ], [ -99.274069458794955, 18.5552262911988 ], [ -99.27589714903138, 18.558579820680592 ], [ -99.287159458966542, 18.566337450734245 ], [ -99.291596509342028, 18.560405891239785 ], [ -99.296568769314788, 18.562485881278523 ], [ -99.296079549910175, 18.572667289917383 ], [ -99.290664874529909, 18.575729846281952 ], [ -99.291514429036454, 18.591072221138759 ], [ -99.301917459820856, 18.595120369807585 ], [ -99.288375059473793, 18.625727711269587 ], [ -99.285351399229867, 18.623350951028311 ], [ -99.269935747925004, 18.642821972060904 ], [ -99.245519239768313, 18.635124264021911 ], [ -99.230153518730617, 18.635046920631748 ], [ -99.229846289277958, 18.628762630996277 ], [ -99.242985448567538, 18.62506540051325 ], [ -99.242572566206164, 18.611186619059978 ], [ -99.221031567660788, 18.630400261979279 ], [ -99.206290369728563, 18.628783223730647 ], [ -99.202207878628599, 18.635188121272851 ], [ -99.195683888977825, 18.637521940457152 ], [ -99.195458888885909, 18.643459771026549 ], [ -99.192786479272073, 18.643608980566654 ], [ -99.195768078625932, 18.646301451271864 ], [ -99.194315018797198, 18.649523845163628 ] ] ] } },
{ "type": "Feature", "properties": { "code": "17024", "stateCode": "17", "municipalityCode": "024", "name": "Tlaltizapán de Zapata" }, "geometry": { "type": "Polygon", "coordinates": [ [ [ -99.131067550390384, 18.827451710180817 ], [ -99.117175180066525, 18.829651549580472 ], [ -99.105817709613603, 18.821587659722635 ], [ -99.095429519647865, 18.807465169576407 ], [ -99.090556277019559, 18.805598352286971 ], [ -99.094621150072157, 18.790877230254679 ], [ -99.086177399747569, 18.790864020166524 ], [ -99.086917550392457, 18.770976879744008 ], [ -99.08346138016924, 18.771248631195856 ], [ -99.077619979960417, 18.759117109865855 ], [ -99.075126599512501, 18.724167940878214 ], [ -99.066778690375088, 18.711211351232933 ], [ -99.092589419759406, 18.705918201263366 ], [ -99.091422650124358, 18.691847180842284 ], [ -99.086827679216753, 18.683795690123748 ], [ -99.082107369251844, 18.684241829689892 ], [ -99.087219319571389, 18.669760580416554 ], [ -99.094618138901183, 18.670710709983176 ], [ -99.091985940044978, 18.661696941021347 ], [ -99.061865459207581, 18.666257800111381 ], [ -99.061168289378642, 18.675667779563636 ], [ -99.056487119965638, 18.676545261283891 ], [ -99.050842878949624, 18.673100821310779 ], [ -99.051852770322498, 18.667829079692066 ], [ -99.045953479028242, 18.668467289579166 ], [ -99.041939548914527, 18.665100460643863 ], [ -99.036106979397303, 18.66574957130722 ], [ -99.031963379614098, 18.67627440132927 ], [ -99.016630079096757, 18.667864750075363 ], [ -98.997956029639553, 18.665483280040448 ], [ -99.002666079506994, 18.649601169739828 ], [ -98.996106889365578, 18.643164741178239 ], [ -98.999861709935914, 18.644634341036852 ], [ -99.000625860068126, 18.638228740028936 ], [ -99.009713999450625, 18.635956630506946 ], [ -99.009073218626227, 18.632099891028407 ], [ -99.015242199727211, 18.635212200673461 ], [ -99.016783058557351, 18.632579430937515 ], [ -99.010600019488436, 18.632142110586891 ], [ -99.011391369253616, 18.62942772032201 ], [ -99.020423170171313, 18.631270429697988 ], [ -99.022389739334471, 18.62571126015667 ], [ -99.020077149389948, 18.623914250472009 ], [ -99.027504509378318, 18.620580720994219 ], [ -99.025360509118286, 18.617264980479973 ], [ -99.029465549012741, 18.609332421160616 ], [ -99.03649636881272, 18.610855120909036 ], [ -99.031950799145207, 18.600730199775739 ], [ -99.034898909080965, 18.603260920668685 ], [ -99.040868599154081, 18.600838550930344 ], [ -99.036203819869669, 18.59982032035596 ], [ -99.0396824903019, 18.591262121143117 ], [ -99.033776569749847, 18.587482380957507 ], [ -99.044270428618631, 18.587837660643348 ], [ -99.044517509430605, 18.584608540603931 ], [ -99.039539058638368, 18.581460770231267 ], [ -99.0413504799956, 18.578374310222792 ], [ -99.0478457200946, 18.580936429868355 ], [ -99.046634429669339, 18.586325939949603 ], [ -99.052983829619393, 18.582459050413917 ], [ -99.06472149041538, 18.58465336993331 ], [ -99.065934459804978, 18.581212340102844 ], [ -99.073468259740395, 18.583704059737059 ], [ -99.090890140353622, 18.642276380057577 ], [ -99.093562859955426, 18.646496679632062 ], [ -99.097997289689062, 18.645339090095284 ], [ -99.107793660169463, 18.656365479684926 ], [ -99.116912539756257, 18.661490250149338 ], [ -99.117359089524527, 18.651922550261084 ], [ -99.120852650283751, 18.648321259568569 ], [ -99.158781480210394, 18.661739739876435 ], [ -99.158216170280483, 18.679499430006231 ], [ -99.176265749852874, 18.669170969707469 ], [ -99.177858459918994, 18.671263420130234 ], [ -99.181666378971741, 18.668028279923117 ], [ -99.181728139824173, 18.672510250985514 ], [ -99.193260480145881, 18.667172509695405 ], [ -99.188522879873943, 18.679250450438158 ], [ -99.189408430291181, 18.685240200442092 ], [ -99.19942913885879, 18.683825031017633 ], [ -99.196501599646624, 18.707361819761356 ], [ -99.191574538895267, 18.704035750327932 ], [ -99.188568119686011, 18.708043231069858 ], [ -99.193712028997552, 18.716484260919092 ], [ -99.193032348754855, 18.726029749861887 ], [ -99.188308630316428, 18.727235061286251 ], [ -99.19607917955949, 18.761577940264189 ], [ -99.190877448581091, 18.760564490138808 ], [ -99.190805340066291, 18.7550986303266 ], [ -99.177082350418743, 18.742039230323435 ], [ -99.175344818581678, 18.746900490037518 ], [ -99.147852644128989, 18.759047172265813 ], [ -99.148720549888864, 18.786780140237838 ], [ -99.160531740217777, 18.794050030273766 ], [ -99.160982509056254, 18.803743429607053 ], [ -99.157629860299252, 18.809931050338449 ], [ -99.154423879868546, 18.808789489545859 ], [ -99.146253570318905, 18.827762489631549 ], [ -99.131067550390384, 18.827451710180817 ] ] ] } },
{ "type": "Feature", "properties": { "code": "17030", "stateCode": "17", "municipalityCode": "030", "name": "Yecapixtla" }, "geometry": { "type": "Polygon", "coordinates": [ [ [ -98.82645055016026, 18.956690879553644 ], [ -98.8168526798042, 18.943262539711235 ], [ -98.803175379942189, 18.941565310165533 ], [ -98.792080279943647, 18.935339880099782 ], [ -98.812891859357052, 18.881272511208792 ], [ -98.824937849477948, 18.878907310570408 ], [ -98.826973059549431, 18.869500019705157 ], [ -98.823648309765943, 18.859401180176629 ], [ -98.814405910026494, 18.859611490284376 ], [ -98.812375570402878, 18.852221579595177 ], [ -98.831669719605216, 18.832792910231451 ], [ -98.815434029623262, 18.812516689547945 ], [ -98.802054089762436, 18.825244600072981 ], [ -98.802375110381135, 18.813018770119001 ], [ -98.797734249870587, 18.804989969626707 ], [ -98.804870229791291, 18.788885659723022 ], [ -98.816900179981559, 18.780423400156202 ], [ -98.823736169744606, 18.76809263028019 ], [ -98.841319509249146, 18.762415849616179 ], [ -98.864004399443758, 18.763114971148511 ], [ -98.86665784891558, 18.764922430177993 ], [ -98.854226019384015, 18.771034859848111 ], [ -98.866051708832671, 18.782677710021634 ], [ -98.875825279849593, 18.78623402118664 ], [ -98.879036778685673, 18.781446021116878 ], [ -98.88108108936315, 18.782492230066165 ], [ -98.884944618769566, 18.78576464977456 ], [ -98.882257998714039, 18.790700371271903 ], [ -98.8876431144745, 18.798712720520012 ], [ -98.929271888295276, 18.807451582152936 ], [ -98.923926719062223, 18.822310710693927 ], [ -98.925921597947308, 18.831285261409114 ], [ -98.920381849112289, 18.834528281690616 ], [ -98.913496769028072, 18.83151188069365 ], [ -98.908879289747517, 18.834824599927977 ], [ -98.906780245847855, 18.85150894276326 ], [ -98.924256677640201, 18.850039340257503 ], [ -98.928419196857973, 18.85249160017263 ], [ -98.925181056097429, 18.860704460786568 ], [ -98.911882074410315, 18.873017113526327 ], [ -98.92474499674627, 18.882981692480776 ], [ -98.928417908048729, 18.882078090646282 ], [ -98.905097255878488, 18.891014520972892 ], [ -98.891314889315396, 18.907244090059812 ], [ -98.887016879283877, 18.904863921095227 ], [ -98.873399539993542, 18.906886149722339 ], [ -98.860574450221421, 18.913453119847077 ], [ -98.860612179699714, 18.909197349960625 ], [ -98.856501909965303, 18.916754859922968 ], [ -98.850421880370334, 18.918748649568187 ], [ -98.845113020100129, 18.932221340247004 ], [ -98.839876430416709, 18.935446709826941 ], [ -98.835890880258162, 18.950151770049899 ], [ -98.82645055016026, 18.956690879553644 ] ] ] } },
{ "type": "Feature", "properties": { "code": "17013", "stateCode": "17", "municipalityCode": "013", "name": "Jonacatepec de Leandro Valle" }, "geometry": { "type": "Polygon", "coordinates": [ [ [ -98.870488309234716, 18.727176400536788 ], [ -98.83990091977671, 18.714430309746305 ], [ -98.835875680461101, 18.721021940045844 ], [ -98.80676017970724, 18.713293750227187 ], [ -98.803482629770173, 18.699392399786358 ], [ -98.79928541870315, 18.699970750768287 ], [ -98.789378980318787, 18.691203579995722 ], [ -98.78390982997719, 18.692957250118493 ], [ -98.787547349765447, 18.671976350046801 ], [ -98.780900630303918, 18.667495739666641 ], [ -98.747881120404074, 18.665520479934219 ], [ -98.747652719722694, 18.658219800073322 ], [ -98.754863770434568, 18.658787819660059 ], [ -98.753603619746187, 18.649575829560849 ], [ -98.765690420181159, 18.655556460345647 ], [ -98.76816318028601, 18.650019340001375 ], [ -98.766858569664379, 18.644279079886143 ], [ -98.7609355501327, 18.642789199818942 ], [ -98.76268919960448, 18.634065949755168 ], [ -98.753774050068643, 18.630278320207346 ], [ -98.752964579123883, 18.621378319794893 ], [ -98.756569719903425, 18.619462479800692 ], [ -98.754477047607864, 18.617092830421043 ], [ -98.757067048222751, 18.617337510400901 ], [ -98.761171289580631, 18.604823909784738 ], [ -98.756060259553479, 18.600687970125175 ], [ -98.755211940136277, 18.593637799654715 ], [ -98.748050140404104, 18.588073420041312 ], [ -98.760594000084581, 18.586316199817681 ], [ -98.780464829747132, 18.604871149556825 ], [ -98.834664230337381, 18.632311851082914 ], [ -98.831854749678712, 18.642070049909602 ], [ -98.821971650139801, 18.64120020024594 ], [ -98.818111460133537, 18.648023019966743 ], [ -98.841558830385225, 18.681087680419115 ], [ -98.844924249904508, 18.681353080111052 ], [ -98.852487419709234, 18.672080819934632 ], [ -98.857852349610781, 18.674470780042039 ], [ -98.876091060108706, 18.672072631036706 ], [ -98.876685400399879, 18.68339065082851 ], [ -98.866053629272173, 18.688347830885181 ], [ -98.870750938679578, 18.702342049710875 ], [ -98.876369369765058, 18.705825170865836 ], [ -98.870488309234716, 18.727176400536788 ] ] ] } },
{ "type": "Feature", "properties": { "code": "17034", "stateCode": "17", "municipalityCode": "034", "name": "Coatetelco" }, "geometry": { "type": "Polygon", "coordinates": [ [ [ -99.292655642093848, 18.785237800338489 ], [ -99.280521067410675, 18.771621020959063 ], [ -99.276798691724863, 18.757887617808372 ], [ -99.292220349953311, 18.754850430386035 ], [ -99.297967991701753, 18.739360099113451 ], [ -99.281108290537077, 18.736867118891922 ], [ -99.282281952069908, 18.710074546174408 ], [ -99.290616823307545, 18.700157727489469 ], [ -99.300657867141709, 18.694728222952833 ], [ -99.315981602248002, 18.689053187268826 ], [ -99.333430172453674, 18.688238837012694 ], [ -99.328084138028501, 18.715769081107958 ], [ -99.356220345052876, 18.739417437222563 ], [ -99.357782943332452, 18.745951254613036 ], [ -99.350461716339538, 18.755657447245621 ], [ -99.344019168343323, 18.749467936049086 ], [ -99.333230298103146, 18.764569604794726 ], [ -99.315702545301022, 18.762149286330182 ], [ -99.3111772499106, 18.7670676377031 ], [ -99.314731267047989, 18.774309515214441 ], [ -99.292655642093848, 18.785237800338489 ] ] ] } },
{ "type": "Feature", "properties": { "code": "17020", "stateCode": "17", "municipalityCode": "020", "name": "Tepoztlán" }, "geometry": { "type": "Polygon", "coordinates": [ [ [ -99.135379018117078, 19.089296070896964 ], [ -99.0598002320327, 19.048236662900454 ], [ -99.062085750057747, 19.048718720121435 ], [ -99.035978340105743, 19.016819059694456 ], [ -99.030295000350307, 19.007321319816388 ], [ -99.030582339684074, 19.000175539593908 ], [ -99.018024060201569, 18.996285459870766 ], [ -99.014577290328702, 18.979685780337512 ], [ -99.016005290034229, 18.960679060434789 ], [ -99.019503380305508, 18.948119970427435 ], [ -99.027129228018126, 18.941692181279603 ], [ -99.028396488576178, 18.925545511062651 ], [ -99.052854399635109, 18.926206690133732 ], [ -99.095745779837728, 18.915624680447944 ], [ -99.109156660447383, 18.908096769782343 ], [ -99.10196759956338, 18.905915979948904 ], [ -99.102600630049906, 18.90395513983637 ], [ -99.106960570042943, 18.904645479556976 ], [ -99.119064450209592, 18.896975150899443 ], [ -99.126659618688933, 18.898468149648263 ], [ -99.130569520062039, 18.896088140118142 ], [ -99.184378848682925, 18.936672050646294 ], [ -99.181161931179687, 18.972418900809519 ], [ -99.183035089663832, 18.982038941122671 ], [ -99.193346920245588, 19.000740780124403 ], [ -99.165383679644677, 19.023731850083045 ], [ -99.148283780160639, 19.050332319579105 ], [ -99.135379018117078, 19.089296070896964 ] ] ] } },
{ "type": "Feature", "properties": { "code": "17031", "stateCode": "17", "municipalityCode": "031", "name": "Zacatepec" }, "geometry": { "type": "Polygon", "coordinates": [ [ [ -99.18941316492247, 18.685242605672581 ], [ -99.188522879873943, 18.679250450438158 ], [ -99.193260480145881, 18.667172509695405 ], [ -99.181728139824173, 18.672510250985514 ], [ -99.181666378971741, 18.668028279923117 ], [ -99.177858459918994, 18.671263420130234 ], [ -99.176265749852874, 18.669170969707469 ], [ -99.158216170280483, 18.679499430006231 ], [ -99.158781480210394, 18.661739739876435 ], [ -99.170777949838651, 18.657739139944717 ], [ -99.175162260167042, 18.6407611999939 ], [ -99.194380487649582, 18.649545031790201 ], [ -99.195768078625932, 18.646301451271864 ], [ -99.192786479272073, 18.643608980566654 ], [ -99.195458888885909, 18.643459771026549 ], [ -99.195683888977825, 18.637521940457152 ], [ -99.202207878628599, 18.635188121272851 ], [ -99.206290369728563, 18.628783223730647 ], [ -99.221031567660788, 18.630400261979279 ], [ -99.226037829040521, 18.62746223068125 ], [ -99.22418035365142, 18.625106307707419 ], [ -99.244316338350487, 18.611164883158398 ], [ -99.242985448567538, 18.62506540051325 ], [ -99.229846289277958, 18.628762630996277 ], [ -99.231143430274543, 18.63163046038899 ], [ -99.226423659809257, 18.637741580336275 ], [ -99.227570479592913, 18.64998240001032 ], [ -99.224391310018106, 18.658694230348441 ], [ -99.227823830171218, 18.66956637964309 ], [ -99.227332701794055, 18.672413682971932 ], [ -99.217296150235072, 18.676262550020194 ], [ -99.21851940016434, 18.68542745982441 ], [ -99.18941316492247, 18.685242605672581 ] ] ] } },
{ "type": "Feature", "properties": { "code": "17021", "stateCode": "17", "municipalityCode": "021", "name": "Tetecala" }, "geometry": { "type": "Polygon", "coordinates": [ [ [ -99.400887749870847, 18.746675659929071 ], [ -99.393543550274984, 18.739097829564859 ], [ -99.392005119692698, 18.739913690402144 ], [ -99.384348740147516, 18.739924309898168 ], [ -99.383869479596584, 18.739560420110625 ], [ -99.38192605284658, 18.73387595122162 ], [ -99.384798419040308, 18.729276689621727 ], [ -99.379927379792747, 18.723473420233141 ], [ -99.380904749863177, 18.719279880260832 ], [ -99.364439339678512, 18.710734219745113 ], [ -99.3589313498031, 18.703434000268835 ], [ -99.360873629630419, 18.698872380026284 ], [ -99.355412750116557, 18.698124799976647 ], [ -99.364060110312565, 18.688410660321445 ], [ -99.374670880040128, 18.694672890245776 ], [ -99.37945531957989, 18.688938459617834 ], [ -99.37824625990217, 18.680807170109841 ], [ -99.392957549631873, 18.679264480033797 ], [ -99.393129119567064, 18.665581649729987 ], [ -99.39894358021931, 18.666098219705582 ], [ -99.39919217031364, 18.661922229631315 ], [ -99.409262979913379, 18.657256310167075 ], [ -99.417917619842498, 18.646506020142876 ], [ -99.422414320215523, 18.634929089820275 ], [ -99.417079820059413, 18.631704629994196 ], [ -99.419096800068957, 18.627829619839499 ], [ -99.423641219708969, 18.632255690277653 ], [ -99.423593149629625, 18.628186049546319 ], [ -99.428796949898285, 18.630815829783039 ], [ -99.427323580353743, 18.64221657038528 ], [ -99.432040679741093, 18.639009379979022 ], [ -99.435203509809526, 18.640741580332353 ], [ -99.444316750146186, 18.632888750318244 ], [ -99.453101259841233, 18.643272449589045 ], [ -99.437954579871842, 18.64809104983021 ], [ -99.44352971010224, 18.654737770291831 ], [ -99.446636980069812, 18.65430745973967 ], [ -99.448446649958413, 18.659763320053457 ], [ -99.435695510112552, 18.675301260442719 ], [ -99.442005880332047, 18.683921800079688 ], [ -99.468183048768992, 18.695942170800592 ], [ -99.458286569874033, 18.706628029756818 ], [ -99.444269630315375, 18.70576181974867 ], [ -99.447313340078381, 18.704356980088619 ], [ -99.439157630302205, 18.700709059910949 ], [ -99.42503618023872, 18.730192799668107 ], [ -99.413407310439695, 18.745110540426616 ], [ -99.400887749870847, 18.746675659929071 ] ] ] } },
{ "type": "Feature", "properties": { "code": "17027", "stateCode": "17", "municipalityCode": "027", "name": "Totolapan" }, "geometry": { "type": "Polygon", "coordinates": [ [ [ -98.91718116595905, 19.039619850923817 ], [ -98.888166799568239, 19.036919889545569 ], [ -98.878955630042768, 19.028108340142772 ], [ -98.871026429908937, 19.025393149944836 ], [ -98.874059170376981, 19.010403849767346 ], [ -98.868092349698571, 19.002390540178396 ], [ -98.868102230325846, 18.999697140222196 ], [ -98.881664301405564, 18.999894210873194 ], [ -98.887982960197135, 18.97647021124504 ], [ -98.892096190701437, 18.971431261284661 ], [ -98.896652640758404, 18.972810671186675 ], [ -98.899551230859402, 18.969543411352372 ], [ -98.900050461167481, 18.958095201479743 ], [ -98.907008981306817, 18.958917890927967 ], [ -98.911002241410898, 18.95250200721647 ], [ -98.921757780386358, 18.955363309699781 ], [ -98.923735610917802, 18.968186661418446 ], [ -98.932352641132638, 18.965254071134503 ], [ -98.932736410793623, 18.975332901294269 ], [ -98.951212841085919, 18.983265551143219 ], [ -98.953942320665462, 18.97786369118964 ], [ -98.956450210257771, 18.979506097786338 ], [ -98.955362760890225, 18.985169811297414 ], [ -98.962234010701948, 18.988220371459814 ], [ -98.964356990938455, 18.984110340775594 ], [ -98.967877440762578, 18.988343491333183 ], [ -98.979378210346752, 18.99060337096973 ], [ -98.980969172489949, 18.99753306574576 ], [ -98.97619914016299, 19.001205479670567 ], [ -98.97201377034844, 19.015929679591174 ], [ -98.971540879641182, 19.011414719890027 ], [ -98.965180560915812, 19.008569370720799 ], [ -98.966712930337366, 19.005582180828078 ], [ -98.962300289703464, 19.006076379670716 ], [ -98.961988811005938, 19.001979781271729 ], [ -98.958975690254249, 19.004641500979165 ], [ -98.955846290990053, 19.026796550765241 ], [ -98.943332560770088, 19.020643200947699 ], [ -98.932276441212906, 19.00298446127227 ], [ -98.925126169946594, 19.027392599537912 ], [ -98.926861920674924, 19.035822431458147 ], [ -98.91718116595905, 19.039619850923817 ] ] ] } },
{ "type": "Feature", "properties": { "code": "17016", "stateCode": "17", "municipalityCode": "016", "name": "Ocuituco" }, "geometry": { "type": "Polygon", "coordinates": [ [ [ -98.763059691396492, 18.940397820007373 ], [ -98.726269850250873, 18.944688780240558 ], [ -98.745257110408502, 18.926155139925637 ], [ -98.757347580266298, 18.921839430233021 ], [ -98.755102519963714, 18.916287981963215 ], [ -98.746377260336104, 18.914512969087387 ], [ -98.745723121100497, 18.905461260967595 ], [ -98.739117580387003, 18.899732119715896 ], [ -98.739783920136446, 18.89386034017221 ], [ -98.749684059650022, 18.885936089979754 ], [ -98.728487169456471, 18.88155382990173 ], [ -98.737439382135875, 18.879499908175053 ], [ -98.729230890325496, 18.875744519980099 ], [ -98.729417629983004, 18.872995949988749 ], [ -98.736111280325702, 18.867156780309685 ], [ -98.756821970212314, 18.860272399709778 ], [ -98.760213000479524, 18.854492169687465 ], [ -98.765886650159089, 18.854139800066463 ], [ -98.767224319834114, 18.840254880294488 ], [ -98.782345660453373, 18.829127230065442 ], [ -98.783792079622444, 18.819195340002086 ], [ -98.798038919677182, 18.82568888975225 ], [ -98.799976369726664, 18.829841690103351 ], [ -98.815608980290946, 18.812595509588924 ], [ -98.831669719605216, 18.832792910231451 ], [ -98.812322230322678, 18.852380050063406 ], [ -98.814405910026494, 18.859611490284376 ], [ -98.823648309765943, 18.859401180176629 ], [ -98.826988030380235, 18.870046599687303 ], [ -98.824937849477948, 18.878907310570408 ], [ -98.813081709303759, 18.88104583018044 ], [ -98.808917350402709, 18.888472721326963 ], [ -98.805940150070199, 18.904795680083577 ], [ -98.802034020011362, 18.907339430364981 ], [ -98.802724619916773, 18.912602029670623 ], [ -98.797412369566615, 18.919481229772565 ], [ -98.793386136115998, 18.933771908359198 ], [ -98.786114949727747, 18.942900950031202 ], [ -98.781314969334645, 18.939860419475711 ], [ -98.774984506950815, 18.943537690784662 ], [ -98.763059691396492, 18.940397820007373 ] ] ] } },
{ "type": "Feature", "properties": { "code": "17032", "stateCode": "17", "municipalityCode": "032", "name": "Zacualpan de Amilpas" }, "geometry": { "type": "Polygon", "coordinates": [ [ [ -98.700028450261684, 18.861523719886133 ], [ -98.68866467957362, 18.857958540367154 ], [ -98.694911119546219, 18.851224109659302 ], [ -98.695063030402153, 18.845072749860059 ], [ -98.70271028009779, 18.839452479783727 ], [ -98.707146249820127, 18.821800970197266 ], [ -98.716278630166585, 18.810930579657935 ], [ -98.721562509892863, 18.813396090067741 ], [ -98.723586600355233, 18.806952020347346 ], [ -98.727945709906265, 18.805509000196256 ], [ -98.733791659883849, 18.778251569955071 ], [ -98.745084770279391, 18.759594020271368 ], [ -98.76342905971913, 18.76696095004618 ], [ -98.767335140139792, 18.774270169624234 ], [ -98.769612339062135, 18.772389351293594 ], [ -98.769080479032226, 18.775127860945641 ], [ -98.779100140286587, 18.781084879891488 ], [ -98.782085970213132, 18.779513719848431 ], [ -98.784619950110667, 18.783341819973973 ], [ -98.80368631978962, 18.791197120366242 ], [ -98.797734249870558, 18.804989969626693 ], [ -98.802375110381178, 18.813018770119054 ], [ -98.799976369726707, 18.8298416901034 ], [ -98.798038919677239, 18.825688889752215 ], [ -98.783792079622401, 18.819195340002047 ], [ -98.78234566045343, 18.829127230065428 ], [ -98.776186170077281, 18.833502680382328 ], [ -98.752991720408275, 18.828530309718538 ], [ -98.746299319725551, 18.837764079834471 ], [ -98.732899449836978, 18.835036200145012 ], [ -98.736136429646976, 18.822240029901831 ], [ -98.722566980260368, 18.820597550332504 ], [ -98.715377629825056, 18.842298290309515 ], [ -98.700028450261684, 18.861523719886133 ] ] ] } },
{ "type": "Feature", "properties": { "code": "17033", "stateCode": "17", "municipalityCode": "033", "name": "Temoac" }, "geometry": { "type": "Polygon", "coordinates": [ [ [ -98.803006220407809, 18.791061720024199 ], [ -98.784619950110638, 18.783341819974048 ], [ -98.782085970213089, 18.779513719848431 ], [ -98.779100140286545, 18.781084879891523 ], [ -98.769080479032169, 18.775127860945677 ], [ -98.769612339062078, 18.772389351293629 ], [ -98.767335140139735, 18.774270169624252 ], [ -98.763429059719158, 18.76696095004613 ], [ -98.748162879883736, 18.76202095004377 ], [ -98.746424320325218, 18.757406059754008 ], [ -98.748919770425957, 18.75163559959234 ], [ -98.746708860237618, 18.750358340021968 ], [ -98.756416170106036, 18.73848803003844 ], [ -98.759978450324766, 18.728899029650975 ], [ -98.772803658732514, 18.732927741135974 ], [ -98.774765310080852, 18.731072260051263 ], [ -98.774286428564665, 18.733610710501878 ], [ -98.77944051004576, 18.735382940369053 ], [ -98.777470079809191, 18.743504859857666 ], [ -98.782494820246868, 18.736196029633497 ], [ -98.788888690360309, 18.738003919608186 ], [ -98.788633280324959, 18.741303290071887 ], [ -98.794530799575043, 18.74203425964112 ], [ -98.796725079804673, 18.739462720355554 ], [ -98.837590150152593, 18.752288350033503 ], [ -98.836683029952169, 18.764998170016156 ], [ -98.832364249749631, 18.763592140358398 ], [ -98.823736169744606, 18.76809263028019 ], [ -98.816900179981559, 18.780423400156202 ], [ -98.803006220407809, 18.791061720024199 ] ] ] } },
{ "type": "Feature", "properties": { "code": "17035", "stateCode": "17", "municipalityCode": "035", "name": "Xoxocotla" }, "geometry": { "type": "Polygon", "coordinates": [ [ [ -99.279993962244831, 18.724359947744347 ], [ -99.248624000247091, 18.717266179794528 ], [ -99.224494459336341, 18.716296750209896 ], [ -99.221831799663036, 18.712040290736731 ], [ -99.193646338810012, 18.715693110333444 ], [ -99.19942913885879, 18.683825031017633 ], [ -99.21851940016434, 18.68542745982441 ], [ -99.217296150235072, 18.676262550020194 ], [ -99.227332701794055, 18.672413682971932 ], [ -99.224673816843634, 18.65465627987702 ], [ -99.227570479592913, 18.64998240001032 ], [ -99.226423659809257, 18.637741580336275 ], [ -99.231143430274543, 18.63163046038899 ], [ -99.230153518730617, 18.635046920631748 ], [ -99.245519239768313, 18.635124264021911 ], [ -99.26660068024853, 18.641795552497619 ], [ -99.263022582842197, 18.646853601843173 ], [ -99.256473988054154, 18.64564396299518 ], [ -99.26286328057455, 18.647071161027927 ], [ -99.260914445431951, 18.661745958448837 ], [ -99.273262292124429, 18.65440805582886 ], [ -99.291659487683987, 18.6595521662992 ], [ -99.290595234446769, 18.671120893154008 ], [ -99.277502972139303, 18.704028716918209 ], [ -99.28485402945671, 18.70610205450815 ], [ -99.279993962244831, 18.724359947744347 ] ] ] } },
{ "type": "Feature", "properties": { "code": "17007", "stateCode": "17", "municipalityCode": "007", "name": "Cuernavaca" }, "geometry": { "type": "Polygon", "coordinates": [ [ [ -99.293053709881463, 19.02395515015855 ], [ -99.269073479674802, 19.002808690411516 ], [ -99.254129369872871, 18.998303540987372 ], [ -99.255472579824101, 19.00416687973086 ], [ -99.219319829993879, 19.009386569847884 ], [ -99.228739580087776, 18.981744449910316 ], [ -99.214940519591963, 18.982953770177897 ], [ -99.193346920245588, 19.000740780124403 ], [ -99.183035089663917, 18.982038941122671 ], [ -99.181161931179673, 18.972418900809519 ], [ -99.184906910207133, 18.930970179678297 ], [ -99.180747859855401, 18.91153029032775 ], [ -99.193489569707211, 18.91977902978488 ], [ -99.193954579521787, 18.912209570339879 ], [ -99.200512659304806, 18.908727020618162 ], [ -99.198980919704184, 18.902994400176571 ], [ -99.19250397962972, 18.900816400242068 ], [ -99.191885419471689, 18.893295551659968 ], [ -99.195926829879085, 18.893677619907162 ], [ -99.195790150368623, 18.897833290005526 ], [ -99.201843476873762, 18.903446073119998 ], [ -99.212288550292456, 18.906374999645337 ], [ -99.209709198928223, 18.896544601323928 ], [ -99.216205178896416, 18.887575059671359 ], [ -99.217061889160647, 18.878806479838161 ], [ -99.20578413972504, 18.875823850536015 ], [ -99.217862749671866, 18.872691570928094 ], [ -99.22269154030532, 18.876932180243337 ], [ -99.221010139971241, 18.862193739826434 ], [ -99.226838079223427, 18.867179449867958 ], [ -99.237023449772934, 18.897994520606417 ], [ -99.256586089978896, 18.890681909613516 ], [ -99.260974769912011, 18.903932119862151 ], [ -99.270869030369568, 18.902615879625365 ], [ -99.281819400273562, 18.915251879782232 ], [ -99.29065804982082, 18.92177211964059 ], [ -99.291651710169148, 18.921491780399112 ], [ -99.287118920194629, 18.9146805102719 ], [ -99.288933820005781, 18.909654739976588 ], [ -99.285759659720384, 18.901125319637433 ], [ -99.301365089900074, 18.900986520255394 ], [ -99.294095380057925, 18.893186999842261 ], [ -99.283669339546861, 18.894572519596657 ], [ -99.280813400223238, 18.88307174970716 ], [ -99.28877227964368, 18.87913265017702 ], [ -99.281621969828734, 18.866870420180891 ], [ -99.27893197040369, 18.866994829837477 ], [ -99.277394779719941, 18.857725310007545 ], [ -99.271439060318514, 18.853033199879953 ], [ -99.270822750169955, 18.849039859967135 ], [ -99.276498949799134, 18.841982739543653 ], [ -99.295184770289453, 18.842875449581619 ], [ -99.308693740113327, 18.851782059893853 ], [ -99.319390249813111, 18.866594829626724 ], [ -99.330066749577853, 18.869121601306105 ], [ -99.338203230340895, 18.895679661335585 ], [ -99.339936629851479, 18.922129771326574 ], [ -99.342011770188918, 18.922517849821656 ], [ -99.33790484899869, 18.932399090352948 ], [ -99.324619849388384, 18.93740636978173 ], [ -99.320995768755068, 18.943224720132598 ], [ -99.317162799235163, 18.940000140389866 ], [ -99.308716398943361, 18.958797741321316 ], [ -99.311053829446934, 18.991653691202075 ], [ -99.30846782907004, 18.994005491316113 ], [ -99.319670448705978, 19.011271689954 ], [ -99.318746168671254, 19.019973520097068 ], [ -99.311757819950458, 19.024650079751869 ], [ -99.293053709881463, 19.02395515015855 ] ] ] } },
{ "type": "Feature", "properties": { "code": "17005", "stateCode": "17", "municipalityCode": "005", "name": "Coatlán del Río" }, "geometry": { "type": "Polygon", "coordinates": [ [ [ -99.424437859643277, 18.80893357109926 ], [ -99.399410089553726, 18.758110000619972 ], [ -99.37857471993388, 18.743526080442056 ], [ -99.383869479596584, 18.739560420110625 ], [ -99.393543550274984, 18.739097829564859 ], [ -99.403453750366069, 18.748255080265213 ], [ -99.413407310439695, 18.745110540426616 ], [ -99.42503618023872, 18.730192799668107 ], [ -99.439157630302205, 18.700709059910949 ], [ -99.447313340078381, 18.704356980088619 ], [ -99.444269630315375, 18.70576181974867 ], [ -99.458228569812306, 18.706635620166271 ], [ -99.464297629783829, 18.700559850146476 ], [ -99.468183048768992, 18.695942170800592 ], [ -99.442005880332047, 18.683921800079688 ], [ -99.435695510112552, 18.675301260442719 ], [ -99.448446649958413, 18.659763320053457 ], [ -99.446636980069812, 18.65430745973967 ], [ -99.44352971010224, 18.654737770291831 ], [ -99.437954579871842, 18.64809104983021 ], [ -99.453101259841233, 18.643272449589045 ], [ -99.451127950419732, 18.64754784955586 ], [ -99.456691579875496, 18.647746110413202 ], [ -99.45900802024444, 18.651613090402641 ], [ -99.464415890357202, 18.643669999570516 ], [ -99.477576050017447, 18.673565259830522 ], [ -99.482913429766398, 18.692655020446956 ], [ -99.480167119710444, 18.694813400403167 ], [ -99.485562890373174, 18.695033680150466 ], [ -99.484535950441995, 18.699440169699042 ], [ -99.494414149993602, 18.720544799832545 ], [ -99.488259459601323, 18.731133879679781 ], [ -99.467244200320437, 18.751892880354934 ], [ -99.463318738710313, 18.767186540478079 ], [ -99.450971738638856, 18.772519950263867 ], [ -99.426701369676422, 18.824686940403133 ], [ -99.424437859643277, 18.80893357109926 ] ] ] } },
{ "type": "Feature", "properties": { "code": "17028", "stateCode": "17", "municipalityCode": "028", "name": "Xochitepec" }, "geometry": { "type": "Polygon", "coordinates": [ [ [ -99.246458382621128, 18.82679555513608 ], [ -99.235152378690742, 18.809740550900305 ], [ -99.22872994015934, 18.811552860094888 ], [ -99.21312868931858, 18.807066200768148 ], [ -99.20648561929967, 18.802883351124819 ], [ -99.207375579818944, 18.796667019610403 ], [ -99.193891140050582, 18.799193291306153 ], [ -99.186816049646851, 18.794246169626263 ], [ -99.192445618289184, 18.784289120456233 ], [ -99.1897089382297, 18.764041110492467 ], [ -99.190877448581091, 18.760564490138808 ], [ -99.196692769601015, 18.760189620416561 ], [ -99.192500020405433, 18.752200081256145 ], [ -99.188308630316428, 18.727235061286251 ], [ -99.193032348754855, 18.726029749861887 ], [ -99.193712028997552, 18.716484260919092 ], [ -99.188568119686011, 18.708043231069858 ], [ -99.191574538895267, 18.704035750327932 ], [ -99.196501599646624, 18.707361819761356 ], [ -99.193646338810012, 18.715693110333444 ], [ -99.221831799663036, 18.712040290736731 ], [ -99.224494459336341, 18.716296750209896 ], [ -99.257124678637098, 18.718916911277706 ], [ -99.279994264325339, 18.724360000283809 ], [ -99.281108290537077, 18.736867118891922 ], [ -99.297967991701753, 18.739360099113451 ], [ -99.292220349953311, 18.754850430386035 ], [ -99.276798691724863, 18.757887617808372 ], [ -99.281958077169648, 18.774169336344471 ], [ -99.276855578905042, 18.773508890190925 ], [ -99.250299460316839, 18.784101861334069 ], [ -99.258078848748852, 18.790343800744097 ], [ -99.261312999370034, 18.800378319825423 ], [ -99.269154739522179, 18.810052919787147 ], [ -99.266959429578975, 18.823418400222717 ], [ -99.246458382621128, 18.82679555513608 ] ] ] } }
]
}
