{"type":"FeatureCollection","features":[{"type":"Feature","properties":{"code":"22006","stateCode":"22","municipalityCode":"006","name":"Corregidora"},"geometry":{"type":"Polygon","coordinates":[[[-100.48685,20.59478],[-100.43328,20.58986],[-100.43061,20.57573],[-100.42479,20.57091],[-100.42369,20.55989],[-100.41723,20.56204],[-100.41697,20.55916],[-100.41039,20.56392],[-100.41083,20.55381],[-100.39182,20.55533],[-100.37632,20.4976],[-100.36781,20.48645],[-100.39276,20.48337],[-100.38406,20.45667],[-100.3882,20.45462],[-100.38523,20.44042],[-100.39075,20.43297],[-100.39147,20.42585],[-100.38518,20.4162],[-100.40129,20.40715],[-100.40163,20.3746],[-100.3848,20.36462],[-100.40328,20.36082],[-100.40967,20.3757],[-100.41356,20.37761],[-100.44351,20.38704],[-100.46778,20.38658],[-100.47618,20.38961],[-100.47827,20.41629],[-100.48848,20.42583],[-100.4895,20.43139],[-100.48838,20.47331],[-100.4925,20.48141],[-100.49238,20.49042],[-100.49766,20.49137],[-100.50031,20.50022],[-100.49736,20.50483],[-100.50976,20.50653],[-100.50111,20.5126],[-100.50316,20.51967],[-100.50775,20.51852],[-100.50852,20.52621],[-100.50477,20.55503],[-100.485,20.5538],[-100.48222,20.57636],[-100.48754,20.58795],[-100.48685,20.59478]]]}},{"type":"Feature","properties":{"code":"22011","stateCode":"22","municipalityCode":"011","name":"El Marqués"},"geometry":{"type":"Polygon","coordinates":[[[-100.26362,20.971],[-100.23933,20.9608],[-100.20089,20.93701],[-100.18781,20.93255],[-100.20406,20.93231],[-100.23352,20.91972],[-100.23202,20.91803],[-100.24267,20.90575],[-100.27157,20.85539],[-100.22763,20.86567],[-100.21083,20.83243],[-100.21353,20.8316],[-100.2122,20.82472],[-100.20956,20.82464],[-100.20724,20.79593],[-100.20609,20.79099],[-100.19932,20.78544],[-100.19938,20.7709],[-100.18917,20.77208],[-100.18473,20.77606],[-100.18691,20.77804],[-100.18009,20.78101],[-100.17976,20.76763],[-100.18609,20.7678],[-100.18681,20.76414],[-100.19415,20.76143],[-100.19024,20.75044],[-100.18124,20.74028],[-100.1825,20.73342],[-100.16261,20.7301],[-100.15928,20.72141],[-100.16683,20.7219],[-100.16935,20.7043],[-100.15491,20.69805],[-100.17765,20.69532],[-100.19705,20.64312],[-100.18984,20.636],[-100.18399,20.61183],[-100.189,20.60796],[-100.18614,20.60598],[-100.19192,20.58967],[-100.2018,20.58424],[-100.19596,20.57435],[-100.19921,20.57241],[-100.19041,20.55196],[-100.18657,20.55318],[-100.18529,20.55007],[-100.18038,20.53492],[-100.18444,20.53246],[-100.18058,20.52977],[-100.17878,20.53267],[-100.1752,20.52768],[-100.20311,20.51704],[-100.20597,20.52187],[-100.19339,20.52932],[-100.19188,20.53338],[-100.21796,20.53712],[-100.23787,20.5305],[-100.25385,20.53239],[-100.26523,20.52675],[-100.30078,20.51965],[-100.30265,20.50648],[-100.32207,20.50093],[-100.33996,20.53603],[-100.34586,20.55641],[-100.35045,20.56094],[-100.33729,20.56455],[-100.3297,20.56088],[-100.32882,20.56672],[-100.34574,20.57923],[-100.34679,20.58513],[-100.3554,20.58508],[-100.35223,20.58802],[-100.34131,20.58641],[-100.34231,20.58931],[-100.33897,20.59119],[-100.34785,20.6087],[-100.33691,20.61325],[-100.33539,20.61808],[-100.33892,20.62389],[-100.3364,20.62673],[-100.33973,20.64102],[-100.34432,20.64087],[-100.34284,20.66708],[-100.35192,20.66857],[-100.35072,20.67726],[-100.3593,20.68167],[-100.35722,20.68596],[-100.36276,20.68636],[-100.36022,20.69068],[-100.38771,20.69614],[-100.38377,20.7456],[-100.38878,20.75414],[-100.38253,20.77278],[-100.40247,20.78008],[-100.40302,20.79852],[-100.40724,20.8048],[-100.38431,20.81743],[-100.38253,20.82287],[-100.37014,20.83307],[-100.37012,20.83851],[-100.3481,20.84751],[-100.34584,20.8551],[-100.34911,20.85952],[-100.34601,20.85954],[-100.33729,20.87087],[-100.33225,20.88248],[-100.33359,20.89073],[-100.29839,20.91529],[-100.30517,20.92197],[-100.3042,20.92832],[-100.29921,20.93133],[-100.26554,20.92925],[-100.26265,20.93349],[-100.2618,20.95337],[-100.27206,20.96303],[-100.26362,20.971]]]}},{"type":"Feature","properties":{"code":"22012","stateCode":"22","municipalityCode":"012","name":"Pedro Escobedo"},"geometry":{"type":"Polygon","coordinates":[[[-100.09514,20.57925],[-100.07521,20.57731],[-100.07909,20.54915],[-100.08459,20.54921],[-100.08496,20.53873],[-100.07066,20.53168],[-100.06585,20.52435],[-100.06167,20.50204],[-100.06883,20.49422],[-100.0519,20.48816],[-100.04096,20.49126],[-100.04246,20.48304],[-100.04742,20.48022],[-100.05096,20.48341],[-100.06725,20.48287],[-100.07593,20.46715],[-100.08393,20.47426],[-100.08526,20.46808],[-100.09308,20.47327],[-100.09287,20.45618],[-100.08922,20.45296],[-100.09256,20.44599],[-100.10162,20.43971],[-100.12541,20.44563],[-100.13321,20.43962],[-100.12687,20.43212],[-100.12592,20.43925],[-100.12137,20.44109],[-100.12893,20.41974],[-100.13233,20.42368],[-100.12896,20.4321],[-100.13433,20.43766],[-100.14143,20.41481],[-100.15699,20.41699],[-100.18749,20.37398],[-100.19436,20.37003],[-100.19752,20.36042],[-100.253,20.35849],[-100.255,20.36186],[-100.25289,20.36388],[-100.25823,20.37072],[-100.2503,20.37448],[-100.25149,20.38458],[-100.23364,20.38371],[-100.2301,20.38753],[-100.23418,20.39353],[-100.24605,20.39201],[-100.25232,20.4017],[-100.25313,20.39774],[-100.2705,20.39343],[-100.27239,20.39751],[-100.27772,20.3981],[-100.28123,20.4062],[-100.27788,20.41743],[-100.28557,20.43465],[-100.29844,20.4498],[-100.27283,20.45041],[-100.25891,20.45719],[-100.26351,20.4608],[-100.25974,20.46189],[-100.24748,20.4588],[-100.2528,20.47801],[-100.2487,20.48801],[-100.24013,20.50371],[-100.23138,20.50435],[-100.21946,20.51916],[-100.22347,20.52646],[-100.22944,20.52472],[-100.23234,20.53238],[-100.21796,20.53712],[-100.19188,20.53338],[-100.19339,20.52932],[-100.20597,20.52187],[-100.20311,20.51704],[-100.1752,20.52768],[-100.17878,20.53267],[-100.18058,20.52977],[-100.18444,20.53246],[-100.18038,20.53492],[-100.18529,20.55007],[-100.18657,20.55318],[-100.19041,20.55196],[-100.19921,20.57241],[-100.19596,20.57435],[-100.19012,20.56198],[-100.15485,20.56778],[-100.14405,20.56585],[-100.10558,20.56882],[-100.10563,20.56597],[-100.09503,20.56477],[-100.09514,20.57925]]]}},{"type":"Feature","properties":{"code":"22001","stateCode":"22","municipalityCode":"001","name":"Amealco de Bonfil"},"geometry":{"type":"Polygon","coordinates":[[[-100.18323,20.3593],[-100.17689,20.35721],[-100.17013,20.34946],[-100.17311,20.34793],[-100.17473,20.33832],[-100.14862,20.32186],[-100.14329,20.32323],[-100.13772,20.3179],[-100.13538,20.32019],[-100.1127,20.3144],[-100.09542,20.31428],[-100.10083,20.30242],[-100.09093,20.29889],[-100.08762,20.30162],[-100.08733,20.3172],[-100.08198,20.31728],[-100.08293,20.30839],[-100.07564,20.29904],[-100.08204,20.2965],[-100.08276,20.29015],[-100.07629,20.28617],[-100.09493,20.26118],[-100.08394,20.25712],[-100.07646,20.2482],[-100.05737,20.24369],[-100.06882,20.22717],[-100.05638,20.22071],[-100.04867,20.22494],[-100.05207,20.23019],[-100.04755,20.22647],[-100.04387,20.22948],[-100.035,20.22485],[-100.04072,20.21884],[-100.02645,20.20671],[-100.02118,20.20743],[-99.9883,20.23493],[-99.98084,20.23448],[-99.97521,20.23905],[-99.97323,20.23565],[-99.9757,20.23233],[-99.96867,20.22146],[-99.96989,20.21845],[-99.9645,20.2163],[-99.96698,20.20796],[-99.96523,20.20116],[-99.96067,20.20168],[-99.95371,20.19274],[-99.94634,20.18924],[-99.94707,20.18451],[-99.93714,20.18173],[-99.94118,20.17902],[-99.93235,20.17401],[-99.93521,20.16525],[-99.9219,20.15874],[-99.92718,20.15714],[-99.92975,20.16171],[-99.93621,20.16252],[-99.93758,20.15297],[-99.93075,20.14313],[-99.93917,20.13529],[-99.94221,20.1201],[-99.93719,20.11334],[-99.93605,20.09906],[-99.92377,20.08413],[-99.92634,20.06433],[-99.98019,20.05915],[-99.97847,20.07405],[-100.00035,20.07748],[-100.00564,20.0642],[-100.02762,20.05658],[-100.0438,20.03657],[-100.06173,20.03879],[-100.0662,20.03624],[-100.06563,20.03136],[-100.08134,20.02885],[-100.08882,20.01502],[-100.09134,20.02426],[-100.09709,20.02731],[-100.097,20.02333],[-100.1055,20.02674],[-100.11133,20.03397],[-100.11848,20.03382],[-100.12025,20.03891],[-100.1327,20.04058],[-100.14683,20.05747],[-100.16219,20.06254],[-100.15884,20.0658],[-100.16226,20.0673],[-100.15726,20.07111],[-100.16446,20.07835],[-100.16684,20.07484],[-100.1717,20.07822],[-100.17674,20.07091],[-100.18309,20.07386],[-100.17983,20.083],[-100.19322,20.07483],[-100.20294,20.07665],[-100.19739,20.12989],[-100.2356,20.14346],[-100.21332,20.15683],[-100.20378,20.16702],[-100.20333,20.17178],[-100.19186,20.176],[-100.18841,20.19422],[-100.18534,20.19427],[-100.18419,20.18942],[-100.18114,20.2088],[-100.20715,20.22942],[-100.22162,20.23458],[-100.24513,20.25036],[-100.26046,20.26751],[-100.30958,20.28248],[-100.30748,20.28547],[-100.25889,20.29018],[-100.25019,20.30954],[-100.24865,20.3168],[-100.25103,20.31984],[-100.24769,20.32195],[-100.21718,20.31891],[-100.20827,20.32418],[-100.20805,20.32719],[-100.1953,20.32939],[-100.18933,20.33808],[-100.18323,20.3593]]]}},{"type":"Feature","properties":{"code":"22005","stateCode":"22","municipalityCode":"005","name":"Colón"},"geometry":{"type":"Polygon","coordinates":[[[-100.13531,20.93726],[-100.12879,20.93442],[-100.12696,20.92807],[-100.11783,20.92216],[-100.09234,20.93174],[-100.09001,20.90554],[-100.08147,20.88859],[-100.06098,20.89155],[-100.05283,20.88787],[-100.05143,20.88147],[-100.0444,20.87972],[-100.03646,20.87092],[-100.02783,20.87368],[-100.02683,20.86781],[-100.0316,20.86236],[-100.03155,20.85604],[-100.02477,20.8484],[-100.01758,20.85043],[-100.01101,20.84514],[-100.00678,20.84555],[-100.01589,20.82777],[-99.94752,20.8142],[-99.94649,20.79354],[-99.95226,20.79442],[-99.96417,20.77899],[-99.96318,20.77339],[-99.95923,20.77179],[-99.96613,20.76088],[-99.96535,20.75484],[-99.9698,20.75197],[-99.96851,20.7258],[-99.96339,20.72021],[-99.95045,20.71965],[-99.95447,20.70967],[-99.95065,20.7093],[-99.94399,20.71877],[-99.93859,20.699],[-99.92802,20.69926],[-99.92753,20.69668],[-99.93818,20.69663],[-99.9362,20.68607],[-99.94282,20.68562],[-99.94684,20.68073],[-99.94724,20.68497],[-99.94283,20.68572],[-99.94339,20.69913],[-99.94723,20.69911],[-99.95243,20.68751],[-99.95348,20.65963],[-99.96517,20.66186],[-99.9739,20.65892],[-99.9689,20.64966],[-99.98915,20.65221],[-99.99157,20.63599],[-100.0158,20.63696],[-100.01652,20.6417],[-100.00424,20.65293],[-100.06121,20.64932],[-100.07982,20.64208],[-100.07749,20.62519],[-100.06332,20.62126],[-100.06555,20.58999],[-100.06366,20.57538],[-100.09514,20.57925],[-100.09503,20.56477],[-100.10563,20.56597],[-100.10558,20.56882],[-100.14405,20.56585],[-100.15485,20.56778],[-100.19012,20.56198],[-100.2018,20.58424],[-100.19192,20.58967],[-100.18614,20.60598],[-100.189,20.60796],[-100.18399,20.61183],[-100.18984,20.636],[-100.19705,20.64312],[-100.17765,20.69532],[-100.15491,20.69805],[-100.16935,20.7043],[-100.16683,20.7219],[-100.15928,20.72141],[-100.16261,20.7301],[-100.1825,20.73342],[-100.18124,20.74028],[-100.19024,20.75044],[-100.19415,20.76143],[-100.18681,20.76414],[-100.18609,20.7678],[-100.17976,20.76763],[-100.18009,20.78101],[-100.18691,20.77804],[-100.18473,20.77606],[-100.18917,20.77208],[-100.19938,20.7709],[-100.19932,20.78544],[-100.20609,20.79099],[-100.20724,20.79593],[-100.20956,20.82464],[-100.2122,20.82472],[-100.21353,20.8316],[-100.21083,20.83243],[-100.22763,20.86567],[-100.27157,20.85539],[-100.24267,20.90575],[-100.23202,20.91803],[-100.23352,20.91972],[-100.20406,20.93231],[-100.1842,20.93318],[-100.18153,20.9304],[-100.17837,20.93867],[-100.13531,20.93726]]]}},{"type":"Feature","properties":{"code":"22004","stateCode":"22","municipalityCode":"004","name":"Cadereyta de Montes"},"geometry":{"type":"Polygon","coordinates":[[[-99.45916,21.01843],[-99.39986,21.01423],[-99.38395,21.00972],[-99.38995,21.00414],[-99.39366,20.99036],[-99.39126,20.98668],[-99.39633,20.98109],[-99.39474,20.97308],[-99.38827,20.96582],[-99.39275,20.95827],[-99.39103,20.95164],[-99.40747,20.93661],[-99.40633,20.93398],[-99.4034,20.93565],[-99.40239,20.93113],[-99.41567,20.92471],[-99.41217,20.90596],[-99.43533,20.89921],[-99.43501,20.89075],[-99.44201,20.88129],[-99.44068,20.87179],[-99.44858,20.85853],[-99.44579,20.8534],[-99.45443,20.85798],[-99.45654,20.84902],[-99.46548,20.8492],[-99.48873,20.83293],[-99.48469,20.82637],[-99.48529,20.81783],[-99.49413,20.80678],[-99.49973,20.80427],[-99.48926,20.80224],[-99.48871,20.79937],[-99.49725,20.79094],[-99.50377,20.79483],[-99.50218,20.78719],[-99.49631,20.78235],[-99.50645,20.77172],[-99.50382,20.76579],[-99.50973,20.76572],[-99.52174,20.75447],[-99.52553,20.75623],[-99.52868,20.752],[-99.54278,20.74621],[-99.54847,20.7372],[-99.54367,20.71841],[-99.53567,20.71166],[-99.53427,20.70597],[-99.52272,20.70166],[-99.50554,20.6847],[-99.50494,20.68082],[-99.51104,20.67839],[-99.50384,20.67184],[-99.50064,20.67304],[-99.5043,20.6687],[-99.50192,20.65896],[-99.52704,20.65663],[-99.53596,20.65061],[-99.53881,20.64367],[-99.55688,20.64359],[-99.56534,20.64039],[-99.57865,20.6285],[-99.57895,20.61883],[-99.58971,20.6204],[-99.59379,20.61605],[-99.59274,20.61083],[-99.60741,20.6064],[-99.61291,20.59497],[-99.61951,20.59141],[-99.62417,20.59397],[-99.62422,20.60062],[-99.63512,20.60567],[-99.64774,20.60146],[-99.65801,20.60176],[-99.66331,20.59408],[-99.67414,20.58857],[-99.68025,20.58887],[-99.67874,20.58533],[-99.6844,20.57915],[-99.69494,20.58102],[-99.69641,20.57445],[-99.71195,20.58127],[-99.71445,20.57691],[-99.72786,20.57535],[-99.73138,20.56794],[-99.74039,20.5639],[-99.74633,20.57045],[-99.76057,20.57189],[-99.76114,20.58582],[-99.76633,20.59276],[-99.7435,20.59793],[-99.74842,20.60173],[-99.76453,20.63915],[-99.78882,20.63855],[-99.78754,20.66312],[-99.79049,20.65971],[-99.80825,20.65731],[-99.81411,20.66671],[-99.82028,20.66333],[-99.82872,20.67007],[-99.84658,20.65272],[-99.85383,20.65432],[-99.8513,20.67384],[-99.86046,20.68085],[-99.85621,20.69207],[-99.86543,20.69298],[-99.86141,20.69566],[-99.86108,20.7047],[-99.86782,20.70828],[-99.84305,20.70885],[-99.84963,20.71831],[-99.8671,20.72577],[-99.86566,20.74204],[-99.84524,20.751],[-99.84366,20.76059],[-99.85213,20.76339],[-99.86257,20.75841],[-99.86659,20.76271],[-99.87397,20.76411],[-99.86706,20.77134],[-99.85886,20.78831],[-99.83319,20.78822],[-99.81725,20.80103],[-99.80633,20.80351],[-99.79813,20.81404],[-99.80558,20.83273],[-99.82236,20.84156],[-99.80624,20.86487],[-99.82463,20.87443],[-99.84371,20.87213],[-99.88173,20.90502],[-99.86944,20.90576],[-99.87391,20.92375],[-99.83212,20.92497],[-99.79028,20.91772],[-99.80589,20.94979],[-99.78909,20.95474],[-99.72212,20.9443],[-99.71173,20.96617],[-99.69872,20.96681],[-99.69217,20.99027],[-99.68113,20.98502],[-99.66695,21.00262],[-99.6446,20.97797],[-99.65183,20.97922],[-99.68584,20.96849],[-99.68083,20.95581],[-99.68129,20.94133],[-99.67075,20.94087],[-99.64867,20.90706],[-99.63978,20.91042],[-99.60839,20.90805],[-99.59487,20.90334],[-99.58797,20.90482],[-99.58478,20.90334],[-99.58444,20.88423],[-99.57432,20.88191],[-99.56746,20.88483],[-99.55854,20.882],[-99.54952,20.89514],[-99.54464,20.8974],[-99.54387,20.90215],[-99.53699,20.89945],[-99.5362,20.89628],[-99.52171,20.90297],[-99.52717,20.90908],[-99.52522,20.91228],[-99.52853,20.9185],[-99.5155,20.93128],[-99.50739,20.93507],[-99.48344,20.93027],[-99.47504,20.9333],[-99.46908,20.95186],[-99.47133,20.96267],[-99.46617,20.97172],[-99.4684,20.97289],[-99.46678,20.98129],[-99.47181,20.98981],[-99.45853,21.01155],[-99.46199,21.0165],[-99.45916,21.01843]]]}},{"type":"Feature","properties":{"code":"22017","stateCode":"22","municipalityCode":"017","name":"Tequisquiapan"},"geometry":{"type":"Polygon","coordinates":[[[-100.00424,20.65293],[-100.01652,20.6417],[-100.0158,20.63696],[-99.97583,20.6333],[-99.97473,20.63637],[-99.94831,20.63497],[-99.94666,20.62504],[-99.93885,20.61921],[-99.93353,20.62732],[-99.93231,20.62457],[-99.92805,20.6255],[-99.9302,20.63136],[-99.91868,20.63233],[-99.90628,20.61224],[-99.90055,20.60952],[-99.90163,20.6049],[-99.89432,20.60178],[-99.89628,20.58271],[-99.88652,20.58595],[-99.88259,20.59644],[-99.87605,20.59444],[-99.8751,20.59],[-99.8561,20.58979],[-99.85116,20.58448],[-99.8448,20.57373],[-99.85262,20.57366],[-99.86063,20.56659],[-99.86927,20.5685],[-99.87065,20.55681],[-99.85594,20.55027],[-99.85097,20.55256],[-99.85445,20.54388],[-99.86145,20.5424],[-99.8608,20.53861],[-99.85426,20.54279],[-99.84839,20.5393],[-99.84166,20.54548],[-99.82812,20.54254],[-99.83544,20.47783],[-99.84652,20.46734],[-99.85293,20.46601],[-99.8584,20.45898],[-99.86377,20.45996],[-99.86798,20.46524],[-99.87766,20.46658],[-99.88665,20.46158],[-99.9117,20.46441],[-99.91323,20.44446],[-99.93907,20.43158],[-99.94761,20.43934],[-99.95005,20.4385],[-99.94832,20.43998],[-99.95688,20.45817],[-99.96827,20.45048],[-99.96484,20.46502],[-99.95956,20.46622],[-99.9667,20.47667],[-99.97017,20.491],[-99.99809,20.49521],[-99.98735,20.51851],[-99.98982,20.51966],[-99.9953,20.51486],[-100.00696,20.53644],[-100.0138,20.53532],[-100.01252,20.53283],[-100.0326,20.52388],[-100.03461,20.54625],[-100.04552,20.54572],[-100.06703,20.54078],[-100.06331,20.5325],[-100.05759,20.53357],[-100.06499,20.52467],[-100.07066,20.53168],[-100.08496,20.53873],[-100.08459,20.54921],[-100.07909,20.54915],[-100.07521,20.57731],[-100.06366,20.57538],[-100.06555,20.58999],[-100.06332,20.62126],[-100.07749,20.62519],[-100.07982,20.64208],[-100.06121,20.64932],[-100.00424,20.65293]]]}},{"type":"Feature","properties":{"code":"22003","stateCode":"22","municipalityCode":"003","name":"Arroyo Seco"},"geometry":{"type":"Polygon","coordinates":[[[-99.74674,21.57836],[-99.70553,21.57073],[-99.69473,21.5726],[-99.65954,21.56795],[-99.64408,21.54265],[-99.64338,21.53454],[-99.63039,21.51978],[-99.6258,21.5073],[-99.60989,21.49386],[-99.59198,21.48626],[-99.59028,21.4777],[-99.57318,21.46628],[-99.56435,21.45366],[-99.54935,21.44707],[-99.5566,21.43661],[-99.5529,21.42907],[-99.53712,21.43145],[-99.52226,21.42829],[-99.50131,21.41854],[-99.48894,21.42151],[-99.48435,21.43251],[-99.4718,21.43602],[-99.45944,21.42504],[-99.43738,21.38704],[-99.42016,21.38791],[-99.41116,21.34715],[-99.42432,21.33997],[-99.45475,21.33565],[-99.46133,21.3321],[-99.45594,21.32095],[-99.49767,21.32608],[-99.494,21.31833],[-99.4915,21.32025],[-99.47454,21.30256],[-99.47663,21.30047],[-99.48878,21.30843],[-99.49988,21.29918],[-99.49493,21.2956],[-99.49631,21.29199],[-99.51388,21.2924],[-99.51345,21.28763],[-99.51827,21.28614],[-99.53961,21.28697],[-99.54204,21.28988],[-99.54655,21.28685],[-99.55236,21.29141],[-99.57429,21.28651],[-99.58516,21.29267],[-99.59007,21.29736],[-99.57964,21.30486],[-99.60062,21.33059],[-99.58224,21.34531],[-99.59925,21.35811],[-99.60752,21.35022],[-99.64108,21.3379],[-99.63298,21.32848],[-99.63528,21.31873],[-99.63201,21.31781],[-99.63958,21.31581],[-99.64034,21.30755],[-99.64683,21.29928],[-99.65089,21.29997],[-99.65291,21.29556],[-99.66781,21.2919],[-99.67049,21.2881],[-99.6736,21.29695],[-99.6713,21.30119],[-99.71073,21.31505],[-99.73725,21.31288],[-99.73416,21.30144],[-99.75242,21.29178],[-99.75789,21.29214],[-99.784,21.32015],[-99.78779,21.32962],[-99.78488,21.32787],[-99.77757,21.34324],[-99.79213,21.34391],[-99.79452,21.3574],[-99.7755,21.37497],[-99.77616,21.38335],[-99.78026,21.38936],[-99.77206,21.40638],[-99.7763,21.4076],[-99.78035,21.41422],[-99.77593,21.42703],[-99.78059,21.43481],[-99.77616,21.44252],[-99.77816,21.44651],[-99.7743,21.45628],[-99.77703,21.46001],[-99.77178,21.46631],[-99.77727,21.47022],[-99.77311,21.47634],[-99.77285,21.48591],[-99.77735,21.49596],[-99.77099,21.50684],[-99.75668,21.51417],[-99.755,21.52079],[-99.74929,21.52317],[-99.74863,21.52949],[-99.7526,21.53266],[-99.74674,21.53149],[-99.74644,21.53636],[-99.75094,21.53563],[-99.75271,21.54492],[-99.74674,21.57836]]]}},{"type":"Feature","properties":{"code":"22013","stateCode":"22","municipalityCode":"013","name":"Peñamiller"},"geometry":{"type":"Polygon","coordinates":[[[-99.69341,21.2359],[-99.68349,21.22191],[-99.68601,21.19825],[-99.71585,21.18276],[-99.71434,21.17465],[-99.69408,21.13795],[-99.70123,21.11859],[-99.68774,21.11715],[-99.69204,21.08065],[-99.67644,21.07508],[-99.6853,21.0691],[-99.6937,21.02211],[-99.65684,21.01516],[-99.68113,20.98502],[-99.69217,20.99027],[-99.69872,20.96681],[-99.71173,20.96617],[-99.72212,20.9443],[-99.78909,20.95474],[-99.81802,21.02359],[-99.81757,21.02811],[-99.83391,21.0008],[-99.85715,21.02553],[-99.86204,21.04041],[-99.86346,21.03589],[-99.87189,21.02997],[-99.87787,21.03175],[-99.88247,21.03579],[-99.87849,21.04365],[-99.8905,21.04609],[-99.9028,21.05677],[-99.90181,21.0529],[-99.90805,21.05042],[-99.9114,21.05989],[-99.9225,21.06919],[-99.92124,21.05693],[-99.9251,21.05148],[-99.93527,21.04669],[-99.94078,21.07218],[-99.95702,21.05402],[-99.97669,21.04397],[-100.01127,21.04082],[-100.00666,21.04639],[-100.01977,21.05513],[-100.02031,21.064],[-100.02642,21.07356],[-100.02332,21.07805],[-100.02188,21.10008],[-100.02754,21.10025],[-100.01677,21.12303],[-100.0071,21.15668],[-100.00299,21.15742],[-100.00591,21.16111],[-100.00239,21.1687],[-100.00411,21.17366],[-99.99642,21.18259],[-100.00122,21.18852],[-100.01109,21.18946],[-99.98637,21.21831],[-99.94786,21.21237],[-99.95471,21.20567],[-99.94536,21.20989],[-99.94265,21.19442],[-99.89935,21.1839],[-99.88861,21.17379],[-99.88825,21.1696],[-99.87165,21.16971],[-99.83126,21.15732],[-99.77697,21.19594],[-99.77583,21.20728],[-99.75811,21.2164],[-99.73848,21.23582],[-99.68785,21.22578],[-99.69341,21.2359]]]}},{"type":"Feature","properties":{"code":"22007","stateCode":"22","municipalityCode":"007","name":"Ezequiel Montes"},"geometry":{"type":"Polygon","coordinates":[[[-99.91409,20.75848],[-99.89415,20.76536],[-99.90026,20.7581],[-99.89773,20.75315],[-99.87954,20.76336],[-99.86659,20.76271],[-99.86257,20.75841],[-99.85213,20.76339],[-99.84366,20.76059],[-99.84524,20.751],[-99.86566,20.74204],[-99.8671,20.72577],[-99.84963,20.71831],[-99.84305,20.70885],[-99.86782,20.70828],[-99.86108,20.7047],[-99.86141,20.69566],[-99.86543,20.69298],[-99.85621,20.69207],[-99.86046,20.68085],[-99.8513,20.67384],[-99.85383,20.65432],[-99.84658,20.65272],[-99.82872,20.67007],[-99.82028,20.66333],[-99.81411,20.66671],[-99.80825,20.65731],[-99.79049,20.65971],[-99.78754,20.66312],[-99.78882,20.63855],[-99.76453,20.63915],[-99.74842,20.60173],[-99.7435,20.59793],[-99.76633,20.59276],[-99.76114,20.58582],[-99.7612,20.57297],[-99.74633,20.57045],[-99.74039,20.5639],[-99.73527,20.56486],[-99.73841,20.56065],[-99.7459,20.55927],[-99.75343,20.56304],[-99.76966,20.55755],[-99.77933,20.5593],[-99.78676,20.55264],[-99.81484,20.54176],[-99.82178,20.54066],[-99.84166,20.54548],[-99.84839,20.5393],[-99.85426,20.54279],[-99.8608,20.53861],[-99.86145,20.5424],[-99.85445,20.54388],[-99.85097,20.55256],[-99.85594,20.55027],[-99.87065,20.55681],[-99.86927,20.5685],[-99.86063,20.56659],[-99.85262,20.57366],[-99.8448,20.57373],[-99.8561,20.58979],[-99.8751,20.59],[-99.87605,20.59444],[-99.88259,20.59644],[-99.88652,20.58595],[-99.897,20.58315],[-99.89432,20.60178],[-99.90163,20.6049],[-99.90055,20.60952],[-99.90628,20.61224],[-99.91868,20.63233],[-99.9302,20.63136],[-99.92805,20.6255],[-99.93231,20.62457],[-99.93353,20.62732],[-99.93885,20.61921],[-99.94666,20.62504],[-99.94831,20.63497],[-99.97473,20.63637],[-99.97583,20.6333],[-99.99157,20.63599],[-99.98915,20.65221],[-99.9689,20.64966],[-99.9739,20.65892],[-99.96517,20.66186],[-99.95348,20.65963],[-99.95243,20.68751],[-99.94723,20.69911],[-99.94339,20.69913],[-99.94283,20.68572],[-99.94724,20.68497],[-99.94684,20.68073],[-99.94282,20.68562],[-99.9362,20.68607],[-99.93818,20.69663],[-99.92753,20.69668],[-99.92802,20.69926],[-99.93859,20.699],[-99.94399,20.71877],[-99.95065,20.7093],[-99.95447,20.70967],[-99.95045,20.71965],[-99.96339,20.72021],[-99.96842,20.72563],[-99.9698,20.75197],[-99.96535,20.75484],[-99.96624,20.75739],[-99.93089,20.75568],[-99.91409,20.75848]]]}},{"type":"Feature","properties":{"code":"22015","stateCode":"22","municipalityCode":"015","name":"San Joaquín"},"geometry":{"type":"Polygon","coordinates":[[[-99.3972,21.11462],[-99.39597,21.10773],[-99.38989,21.10242],[-99.39751,21.1018],[-99.39867,21.08901],[-99.39449,21.08525],[-99.39433,21.07938],[-99.38882,21.07927],[-99.38782,21.06801],[-99.37295,21.07348],[-99.36627,21.06665],[-99.36879,21.06112],[-99.37335,21.06224],[-99.37709,21.05816],[-99.3639,21.04851],[-99.36836,21.02477],[-99.37516,21.02433],[-99.38457,21.01809],[-99.38395,21.00972],[-99.39986,21.01423],[-99.46076,21.01857],[-99.45853,21.01155],[-99.47181,20.98981],[-99.46678,20.98129],[-99.4684,20.97289],[-99.46617,20.97172],[-99.47133,20.96267],[-99.46908,20.95186],[-99.47496,20.93346],[-99.48344,20.93027],[-99.50739,20.93507],[-99.5155,20.93128],[-99.52853,20.9185],[-99.52522,20.91228],[-99.52717,20.90908],[-99.52171,20.90297],[-99.5362,20.89628],[-99.53699,20.89945],[-99.54387,20.90215],[-99.54464,20.8974],[-99.54952,20.89514],[-99.55854,20.882],[-99.56746,20.88483],[-99.57432,20.88191],[-99.58319,20.88338],[-99.58577,20.88669],[-99.58478,20.90334],[-99.63978,20.91042],[-99.64867,20.90706],[-99.67075,20.94087],[-99.68129,20.94133],[-99.68083,20.95581],[-99.68584,20.96849],[-99.65183,20.97922],[-99.6446,20.97797],[-99.64965,20.98492],[-99.63946,20.98524],[-99.62308,20.98037],[-99.61636,20.98329],[-99.60913,20.9797],[-99.58586,20.98294],[-99.56487,20.9785],[-99.56197,20.97489],[-99.53267,20.98538],[-99.52693,20.99335],[-99.51588,20.99943],[-99.51591,21.00802],[-99.50806,21.01934],[-99.50961,21.02385],[-99.50221,21.02477],[-99.50828,21.02611],[-99.50388,21.03408],[-99.4902,21.03129],[-99.48906,21.03989],[-99.48202,21.03858],[-99.48606,21.04289],[-99.47714,21.04612],[-99.48295,21.05179],[-99.47347,21.05165],[-99.47485,21.0556],[-99.46907,21.05606],[-99.45717,21.06399],[-99.44786,21.06479],[-99.44506,21.06952],[-99.43967,21.06891],[-99.44065,21.07505],[-99.43557,21.08175],[-99.43875,21.0849],[-99.43786,21.0898],[-99.43328,21.08901],[-99.43019,21.10317],[-99.41917,21.10307],[-99.4027,21.1164],[-99.3972,21.11462]]]}},{"type":"Feature","properties":{"code":"22018","stateCode":"22","municipalityCode":"018","name":"Tolimán"},"geometry":{"type":"Polygon","coordinates":[[[-99.93981,21.07105],[-99.93527,21.04669],[-99.9251,21.05148],[-99.92124,21.05693],[-99.9225,21.06919],[-99.91742,21.06705],[-99.90805,21.05042],[-99.90181,21.0529],[-99.9028,21.05677],[-99.8905,21.04609],[-99.87849,21.04365],[-99.88247,21.03579],[-99.87787,21.03175],[-99.87189,21.02997],[-99.86346,21.03589],[-99.86204,21.04041],[-99.85715,21.02553],[-99.83391,21.0008],[-99.81757,21.02811],[-99.81802,21.02359],[-99.78909,20.95474],[-99.80589,20.94979],[-99.79028,20.91772],[-99.83212,20.92497],[-99.87391,20.92375],[-99.86944,20.90576],[-99.88173,20.90502],[-99.84371,20.87213],[-99.82463,20.87443],[-99.80624,20.86487],[-99.82236,20.84156],[-99.80558,20.83273],[-99.79818,20.81353],[-99.80633,20.80351],[-99.81725,20.80103],[-99.83319,20.78822],[-99.85886,20.78831],[-99.86706,20.77134],[-99.87397,20.76411],[-99.89773,20.75315],[-99.90017,20.75856],[-99.89415,20.76536],[-99.89801,20.76715],[-99.89933,20.76398],[-99.91409,20.75848],[-99.92945,20.75587],[-99.96624,20.75739],[-99.95923,20.77179],[-99.96318,20.77339],[-99.96417,20.77899],[-99.95226,20.79442],[-99.94649,20.79354],[-99.94752,20.8142],[-100.01589,20.82777],[-100.00678,20.84555],[-100.01101,20.84514],[-100.01758,20.85043],[-100.02477,20.8484],[-100.03155,20.85604],[-100.0316,20.86236],[-100.02683,20.86781],[-100.02783,20.87368],[-100.03646,20.87092],[-100.0444,20.87972],[-100.05143,20.88147],[-100.05283,20.88787],[-100.06098,20.89155],[-100.08147,20.88859],[-100.09001,20.90554],[-100.09234,20.93174],[-100.06417,20.93629],[-100.0669,20.9422],[-100.08074,20.94986],[-100.0688,20.95791],[-100.06981,20.96479],[-100.07804,20.97266],[-100.06985,20.98349],[-100.07376,20.99176],[-100.06075,21.00582],[-100.06824,21.02366],[-100.06123,21.02852],[-100.05448,21.02779],[-100.02906,21.01506],[-100.02256,21.01462],[-100.01107,21.0285],[-100.01127,21.04082],[-99.97669,21.04397],[-99.96709,21.04786],[-99.93981,21.07105]]]}},{"type":"Feature","properties":{"code":"22002","stateCode":"22","municipalityCode":"002","name":"Pinal de Amoles"},"geometry":{"type":"Polygon","coordinates":[[[-99.59878,21.35783],[-99.58224,21.34531],[-99.60062,21.33059],[-99.57964,21.30486],[-99.59007,21.29736],[-99.57543,21.28668],[-99.55236,21.29141],[-99.54655,21.28685],[-99.54204,21.28988],[-99.53645,21.28665],[-99.52008,21.25386],[-99.52304,21.25093],[-99.5251,21.25399],[-99.5299,21.25105],[-99.52209,21.23153],[-99.52331,21.22276],[-99.50788,21.21522],[-99.51637,21.19599],[-99.50947,21.18894],[-99.51474,21.19025],[-99.51518,21.18711],[-99.53275,21.17707],[-99.53958,21.18745],[-99.5495,21.18019],[-99.53372,21.161],[-99.52728,21.16715],[-99.52339,21.16397],[-99.52115,21.16598],[-99.52329,21.16085],[-99.51453,21.16417],[-99.51359,21.16078],[-99.51034,21.16144],[-99.50794,21.17275],[-99.50082,21.17107],[-99.5104,21.15815],[-99.49756,21.15834],[-99.49872,21.15241],[-99.49264,21.15493],[-99.49454,21.14928],[-99.49879,21.1508],[-99.49336,21.14215],[-99.49212,21.14549],[-99.48942,21.1436],[-99.49393,21.13826],[-99.49075,21.13935],[-99.48613,21.13529],[-99.48689,21.12825],[-99.48345,21.1305],[-99.47346,21.12336],[-99.47048,21.12699],[-99.46364,21.12448],[-99.46237,21.12059],[-99.46796,21.12067],[-99.46601,21.11435],[-99.45308,21.10598],[-99.44025,21.11469],[-99.42919,21.09846],[-99.43452,21.08742],[-99.43786,21.0898],[-99.43875,21.0849],[-99.43557,21.08175],[-99.44065,21.07505],[-99.43967,21.06891],[-99.44506,21.06952],[-99.44786,21.06479],[-99.45717,21.06399],[-99.46907,21.05606],[-99.47485,21.0556],[-99.47347,21.05165],[-99.48295,21.05179],[-99.47714,21.04612],[-99.48606,21.04289],[-99.48202,21.03858],[-99.48906,21.03989],[-99.4902,21.03129],[-99.50388,21.03408],[-99.50828,21.02611],[-99.50221,21.02477],[-99.50961,21.02385],[-99.50806,21.01934],[-99.51591,21.00802],[-99.51588,20.99943],[-99.52693,20.99335],[-99.53267,20.98538],[-99.56197,20.97489],[-99.56487,20.9785],[-99.58586,20.98294],[-99.60913,20.9797],[-99.61636,20.98329],[-99.62308,20.98037],[-99.63946,20.98524],[-99.64965,20.98492],[-99.66695,21.00262],[-99.65684,21.01516],[-99.6937,21.02211],[-99.6853,21.0691],[-99.67644,21.07508],[-99.69204,21.08065],[-99.68774,21.11715],[-99.70123,21.11859],[-99.69408,21.13795],[-99.71434,21.17465],[-99.71585,21.18276],[-99.68601,21.19825],[-99.68349,21.22191],[-99.69871,21.24075],[-99.69882,21.26752],[-99.6736,21.29695],[-99.67049,21.2881],[-99.66781,21.2919],[-99.65291,21.29556],[-99.64175,21.30533],[-99.63958,21.31581],[-99.63201,21.31781],[-99.63528,21.31873],[-99.63298,21.32848],[-99.64108,21.3379],[-99.60752,21.35022],[-99.59878,21.35783]]]}},{"type":"Feature","properties":{"code":"22008","stateCode":"22","municipalityCode":"008","name":"Huimilpan"},"geometry":{"type":"Polygon","coordinates":[[[-100.34516,20.55304],[-100.33996,20.53603],[-100.32207,20.50093],[-100.30265,20.50648],[-100.30078,20.51965],[-100.26523,20.52675],[-100.25385,20.53239],[-100.23234,20.53238],[-100.22944,20.52472],[-100.22347,20.52646],[-100.21946,20.51916],[-100.23138,20.50435],[-100.24013,20.50371],[-100.2487,20.48801],[-100.2528,20.47801],[-100.24748,20.4588],[-100.25974,20.46189],[-100.26351,20.4608],[-100.25891,20.45719],[-100.27283,20.45041],[-100.29667,20.45044],[-100.29865,20.44872],[-100.2966,20.44948],[-100.28557,20.43465],[-100.27788,20.41743],[-100.28123,20.4062],[-100.27772,20.3981],[-100.27239,20.39751],[-100.2705,20.39343],[-100.25313,20.39774],[-100.25232,20.4017],[-100.24605,20.39201],[-100.23418,20.39353],[-100.2301,20.38753],[-100.23364,20.38371],[-100.25149,20.38458],[-100.2503,20.37448],[-100.25823,20.37072],[-100.25289,20.36388],[-100.255,20.36186],[-100.253,20.35849],[-100.19752,20.36042],[-100.19603,20.36658],[-100.1912,20.36146],[-100.18336,20.3594],[-100.18933,20.33808],[-100.1953,20.32939],[-100.20805,20.32719],[-100.20827,20.32418],[-100.21718,20.31891],[-100.24769,20.32195],[-100.25103,20.31984],[-100.24865,20.3168],[-100.25019,20.30954],[-100.25889,20.29018],[-100.30748,20.28547],[-100.34583,20.298],[-100.35066,20.28841],[-100.36946,20.30252],[-100.3824,20.30375],[-100.39202,20.31433],[-100.39079,20.33641],[-100.39336,20.34787],[-100.40328,20.36082],[-100.3848,20.36462],[-100.40163,20.3746],[-100.40129,20.40715],[-100.38518,20.4162],[-100.39147,20.42585],[-100.39075,20.43297],[-100.38523,20.44042],[-100.3882,20.45462],[-100.38406,20.45667],[-100.39276,20.48337],[-100.36781,20.48645],[-100.37632,20.4976],[-100.38259,20.52353],[-100.36416,20.52668],[-100.3581,20.53053],[-100.35942,20.55047],[-100.34516,20.55304]]]}},{"type":"Feature","properties":{"code":"22016","stateCode":"22","municipalityCode":"016","name":"San Juan del Río"},"geometry":{"type":"Polygon","coordinates":[[[-100.03647,20.54721],[-100.0326,20.52388],[-100.01252,20.53283],[-100.0138,20.53532],[-100.00696,20.53644],[-99.9953,20.51486],[-99.98982,20.51966],[-99.98735,20.51851],[-99.99809,20.49521],[-99.97017,20.491],[-99.9667,20.47667],[-99.95956,20.46622],[-99.96484,20.46502],[-99.96827,20.45048],[-99.95688,20.45817],[-99.94832,20.43998],[-99.95005,20.4385],[-99.94761,20.43934],[-99.93907,20.43158],[-99.91323,20.44446],[-99.9117,20.46441],[-99.88665,20.46158],[-99.87766,20.46658],[-99.86798,20.46524],[-99.86377,20.45996],[-99.8584,20.45898],[-99.83544,20.47783],[-99.85911,20.26847],[-99.87741,20.2714],[-99.91139,20.28559],[-99.9195,20.28167],[-99.92955,20.26846],[-99.92847,20.25022],[-99.93408,20.24977],[-99.9284,20.23269],[-99.92238,20.23114],[-99.91841,20.21179],[-99.95093,20.2159],[-99.95274,20.24044],[-99.95626,20.24842],[-99.9742,20.2628],[-99.97729,20.27245],[-99.98118,20.27137],[-99.98646,20.25707],[-99.98087,20.25307],[-99.97865,20.23615],[-99.9883,20.23493],[-100.02118,20.20743],[-100.02645,20.20671],[-100.04072,20.21884],[-100.035,20.22485],[-100.04387,20.22948],[-100.04755,20.22647],[-100.05207,20.23019],[-100.04867,20.22494],[-100.05638,20.22071],[-100.06882,20.22717],[-100.05737,20.24369],[-100.07646,20.2482],[-100.08394,20.25712],[-100.09493,20.26118],[-100.07629,20.28617],[-100.08276,20.29015],[-100.08204,20.2965],[-100.07564,20.29904],[-100.08293,20.30839],[-100.08198,20.31728],[-100.08733,20.3172],[-100.08762,20.30162],[-100.09093,20.29889],[-100.10083,20.30242],[-100.09542,20.31428],[-100.1127,20.3144],[-100.13538,20.32019],[-100.13772,20.3179],[-100.14329,20.32323],[-100.14862,20.32186],[-100.17473,20.33832],[-100.17311,20.34793],[-100.17013,20.34946],[-100.17689,20.35721],[-100.1912,20.36146],[-100.19603,20.36658],[-100.18749,20.37398],[-100.15699,20.41699],[-100.14143,20.41481],[-100.13433,20.43766],[-100.12896,20.4321],[-100.13233,20.42368],[-100.12893,20.41974],[-100.12137,20.44109],[-100.12592,20.43925],[-100.12687,20.43212],[-100.13017,20.43804],[-100.13389,20.43843],[-100.12604,20.44519],[-100.10162,20.43971],[-100.09256,20.44599],[-100.08922,20.45296],[-100.09287,20.45618],[-100.09308,20.47327],[-100.08526,20.46808],[-100.08393,20.47426],[-100.07593,20.46715],[-100.06725,20.48287],[-100.05096,20.48341],[-100.04742,20.48022],[-100.04246,20.48304],[-100.04096,20.49126],[-100.0519,20.48816],[-100.06883,20.49422],[-100.06167,20.50204],[-100.06671,20.52636],[-100.06499,20.52467],[-100.05759,20.53357],[-100.06331,20.5325],[-100.06703,20.54078],[-100.03647,20.54721]]]}},{"type":"Feature","properties":{"code":"22014","stateCode":"22","municipalityCode":"014","name":"Querétaro"},"geometry":{"type":"Polygon","coordinates":[[[-100.47091,20.92789],[-100.45318,20.9232],[-100.45396,20.90018],[-100.4134,20.88743],[-100.39442,20.89217],[-100.33359,20.89073],[-100.33225,20.88248],[-100.33729,20.87087],[-100.34601,20.85954],[-100.34911,20.85952],[-100.34584,20.8551],[-100.3481,20.84751],[-100.37012,20.83851],[-100.37014,20.83307],[-100.38253,20.82287],[-100.38431,20.81743],[-100.40724,20.8048],[-100.40302,20.79852],[-100.40247,20.78008],[-100.38253,20.77278],[-100.38878,20.75414],[-100.38377,20.7456],[-100.38771,20.69614],[-100.36022,20.69068],[-100.36276,20.68636],[-100.35722,20.68596],[-100.3593,20.68167],[-100.35072,20.67726],[-100.35192,20.66857],[-100.34284,20.66708],[-100.34432,20.64087],[-100.33973,20.64102],[-100.3364,20.62673],[-100.33892,20.62389],[-100.33591,20.61465],[-100.34785,20.6087],[-100.33917,20.58994],[-100.34231,20.58931],[-100.34131,20.58641],[-100.35223,20.58802],[-100.3554,20.58508],[-100.3453,20.584],[-100.34574,20.57923],[-100.32882,20.56672],[-100.3297,20.56088],[-100.33729,20.56455],[-100.35045,20.56094],[-100.34516,20.55304],[-100.35942,20.55047],[-100.3581,20.53053],[-100.36416,20.52668],[-100.38259,20.52353],[-100.39182,20.55533],[-100.41083,20.55381],[-100.41039,20.56392],[-100.41697,20.55916],[-100.41723,20.56204],[-100.42369,20.55989],[-100.42479,20.57091],[-100.43061,20.57573],[-100.43328,20.58986],[-100.48884,20.5944],[-100.49618,20.61619],[-100.52149,20.62486],[-100.52707,20.62982],[-100.52894,20.63833],[-100.55113,20.63377],[-100.56193,20.67143],[-100.57396,20.67207],[-100.5836,20.67842],[-100.58128,20.69293],[-100.59654,20.71726],[-100.58828,20.72241],[-100.58441,20.72894],[-100.54891,20.73638],[-100.54812,20.74956],[-100.55947,20.76259],[-100.56408,20.7747],[-100.55833,20.80457],[-100.57071,20.80586],[-100.57336,20.80367],[-100.57781,20.80844],[-100.57759,20.81667],[-100.56628,20.82081],[-100.55933,20.82991],[-100.50205,20.85292],[-100.50902,20.87071],[-100.50274,20.87552],[-100.49159,20.89619],[-100.485,20.90078],[-100.48537,20.9088],[-100.46996,20.90704],[-100.47091,20.92789]]]}},{"type":"Feature","properties":{"code":"22009","stateCode":"22","municipalityCode":"009","name":"Jalpan de Serra"},"geometry":{"type":"Polygon","coordinates":[[[-99.18811,21.66992],[-99.18167,21.6614],[-99.16889,21.63098],[-99.1719,21.62703],[-99.13872,21.60375],[-99.13509,21.59734],[-99.13061,21.59665],[-99.1283,21.58982],[-99.12829,21.58167],[-99.14228,21.53544],[-99.13692,21.51408],[-99.12977,21.5017],[-99.12907,21.47126],[-99.1224,21.45342],[-99.13673,21.46283],[-99.15822,21.42985],[-99.1658,21.42984],[-99.17096,21.43592],[-99.17839,21.43772],[-99.18255,21.44404],[-99.19249,21.4471],[-99.19704,21.45414],[-99.20427,21.44871],[-99.22531,21.44968],[-99.22936,21.44516],[-99.22529,21.43468],[-99.22468,21.41715],[-99.21878,21.40587],[-99.22002,21.39475],[-99.22213,21.38906],[-99.23351,21.3848],[-99.23729,21.37191],[-99.24477,21.36483],[-99.24745,21.35002],[-99.23915,21.33928],[-99.24493,21.33086],[-99.24934,21.33249],[-99.25871,21.32803],[-99.25542,21.31906],[-99.26687,21.31213],[-99.26405,21.30506],[-99.27108,21.29457],[-99.27139,21.284],[-99.27928,21.27797],[-99.28659,21.28436],[-99.2903,21.2817],[-99.28506,21.26342],[-99.29251,21.27317],[-99.2978,21.26882],[-99.29451,21.26476],[-99.30126,21.26638],[-99.30433,21.25797],[-99.29753,21.25119],[-99.29607,21.24026],[-99.30003,21.23301],[-99.29702,21.22733],[-99.30624,21.22778],[-99.32255,21.21372],[-99.32691,21.22303],[-99.32171,21.22666],[-99.32156,21.23302],[-99.33712,21.24078],[-99.34367,21.2331],[-99.34041,21.2311],[-99.34437,21.23205],[-99.34665,21.22822],[-99.34783,21.23307],[-99.35287,21.21608],[-99.34709,21.21587],[-99.33643,21.18765],[-99.34143,21.18403],[-99.34414,21.19261],[-99.35657,21.20315],[-99.35541,21.21014],[-99.36939,21.19639],[-99.36264,21.19302],[-99.36262,21.18534],[-99.3501,21.18582],[-99.34575,21.18027],[-99.34563,21.17002],[-99.35103,21.17181],[-99.36112,21.16276],[-99.35003,21.15374],[-99.35134,21.14019],[-99.33605,21.1301],[-99.34225,21.12282],[-99.34387,21.11455],[-99.34116,21.11011],[-99.34595,21.10123],[-99.35351,21.10289],[-99.35876,21.09966],[-99.36099,21.10478],[-99.37727,21.09823],[-99.37931,21.10177],[-99.38989,21.10242],[-99.39597,21.10773],[-99.3972,21.11462],[-99.4027,21.1164],[-99.41917,21.10307],[-99.43019,21.10317],[-99.44025,21.11469],[-99.45308,21.10598],[-99.45636,21.10733],[-99.4663,21.11489],[-99.46796,21.12067],[-99.46237,21.12059],[-99.46364,21.12448],[-99.47048,21.12699],[-99.47346,21.12336],[-99.48345,21.1305],[-99.48689,21.12825],[-99.48613,21.13529],[-99.49075,21.13935],[-99.49393,21.13826],[-99.48942,21.1436],[-99.49212,21.14549],[-99.49336,21.14215],[-99.49879,21.1508],[-99.49454,21.14928],[-99.49264,21.15493],[-99.49872,21.15241],[-99.49756,21.15834],[-99.5104,21.15815],[-99.50042,21.17076],[-99.50794,21.17275],[-99.51236,21.16085],[-99.51453,21.16417],[-99.52329,21.16085],[-99.52115,21.16598],[-99.52339,21.16397],[-99.52728,21.16715],[-99.53372,21.161],[-99.5495,21.18019],[-99.53958,21.18745],[-99.53275,21.17707],[-99.51518,21.18711],[-99.51474,21.19025],[-99.50947,21.18894],[-99.51637,21.19599],[-99.50788,21.21522],[-99.52331,21.22276],[-99.52209,21.23153],[-99.5299,21.25105],[-99.5251,21.25399],[-99.52304,21.25093],[-99.52008,21.25386],[-99.53645,21.28665],[-99.51827,21.28614],[-99.51345,21.28763],[-99.51388,21.2924],[-99.49631,21.29199],[-99.49493,21.2956],[-99.49988,21.29918],[-99.48878,21.30843],[-99.47609,21.30057],[-99.47454,21.30256],[-99.4915,21.32025],[-99.494,21.31833],[-99.49767,21.32608],[-99.45594,21.32095],[-99.46133,21.3321],[-99.45475,21.33565],[-99.42432,21.33997],[-99.41116,21.34715],[-99.42016,21.38791],[-99.43738,21.38704],[-99.45944,21.42504],[-99.47114,21.4348],[-99.47333,21.4419],[-99.46913,21.44676],[-99.44735,21.44348],[-99.43571,21.44983],[-99.41552,21.42913],[-99.40465,21.42893],[-99.40246,21.4416],[-99.3969,21.44509],[-99.3956,21.45421],[-99.39856,21.46343],[-99.38888,21.4649],[-99.3823,21.48121],[-99.38671,21.50037],[-99.37886,21.50046],[-99.37198,21.5071],[-99.37011,21.52214],[-99.37866,21.52963],[-99.37591,21.54793],[-99.36369,21.55329],[-99.34986,21.55236],[-99.32729,21.53517],[-99.30549,21.53291],[-99.2893,21.55036],[-99.2907,21.55801],[-99.27932,21.56014],[-99.2744,21.56532],[-99.28166,21.58496],[-99.28072,21.6079],[-99.27393,21.60621],[-99.2435,21.61506],[-99.24064,21.62379],[-99.22512,21.63329],[-99.22544,21.64027],[-99.21673,21.65337],[-99.2177,21.66665],[-99.19829,21.66501],[-99.18811,21.66992]]]}},{"type":"Feature","properties":{"code":"22010","stateCode":"22","municipalityCode":"010","name":"Landa de Matamoros"},"geometry":{"type":"Polygon","coordinates":[[[-99.13565,21.46209],[-99.1224,21.45342],[-99.10516,21.42048],[-99.10592,21.41156],[-99.09813,21.40841],[-99.09284,21.3817],[-99.09788,21.37764],[-99.09262,21.36336],[-99.12946,21.36205],[-99.13783,21.32979],[-99.10295,21.32119],[-99.10284,21.31788],[-99.12756,21.31834],[-99.12104,21.30968],[-99.10579,21.30204],[-99.10435,21.2896],[-99.08299,21.29635],[-99.06143,21.27947],[-99.05792,21.2847],[-99.05324,21.28163],[-99.05063,21.2747],[-99.05118,21.25343],[-99.0568,21.24697],[-99.06994,21.24306],[-99.07373,21.23578],[-99.07353,21.23043],[-99.06835,21.22392],[-99.05607,21.22236],[-99.05194,21.21845],[-99.04308,21.17868],[-99.04793,21.17793],[-99.04667,21.17411],[-99.05411,21.16554],[-99.05453,21.15978],[-99.06133,21.15421],[-99.07225,21.15702],[-99.06567,21.16591],[-99.05969,21.16827],[-99.06331,21.1749],[-99.07648,21.17346],[-99.07777,21.17075],[-99.07118,21.16603],[-99.07705,21.15914],[-99.08399,21.15959],[-99.09063,21.1531],[-99.1104,21.15661],[-99.112,21.14835],[-99.12679,21.1467],[-99.13256,21.15303],[-99.14425,21.14514],[-99.15052,21.14775],[-99.16346,21.13986],[-99.17622,21.13784],[-99.1846,21.12226],[-99.20623,21.11869],[-99.2141,21.10678],[-99.23056,21.10755],[-99.23422,21.1128],[-99.24768,21.10127],[-99.27129,21.11307],[-99.2719,21.12129],[-99.28229,21.12206],[-99.28325,21.1318],[-99.28687,21.13098],[-99.29584,21.14176],[-99.30266,21.13942],[-99.30757,21.14704],[-99.32329,21.13958],[-99.33046,21.13042],[-99.34034,21.13163],[-99.3418,21.13569],[-99.35134,21.14019],[-99.35003,21.15374],[-99.36112,21.16276],[-99.35103,21.17181],[-99.34563,21.17002],[-99.34575,21.18027],[-99.3501,21.18582],[-99.36262,21.18534],[-99.36264,21.19302],[-99.36939,21.19639],[-99.35541,21.21014],[-99.35657,21.20315],[-99.34414,21.19261],[-99.34143,21.18403],[-99.33643,21.18765],[-99.34709,21.21587],[-99.35287,21.21608],[-99.34783,21.23307],[-99.34665,21.22822],[-99.34437,21.23205],[-99.34041,21.2311],[-99.34367,21.2331],[-99.33712,21.24078],[-99.32156,21.23302],[-99.32171,21.22666],[-99.32691,21.22303],[-99.32255,21.21372],[-99.30624,21.22778],[-99.29702,21.22733],[-99.30003,21.23301],[-99.29607,21.24026],[-99.29753,21.25119],[-99.30433,21.25797],[-99.30126,21.26638],[-99.29451,21.26476],[-99.2978,21.26882],[-99.29251,21.27317],[-99.28506,21.26342],[-99.2903,21.2817],[-99.28659,21.28436],[-99.27928,21.27797],[-99.27139,21.284],[-99.27108,21.29457],[-99.26405,21.30506],[-99.26687,21.31213],[-99.25542,21.31906],[-99.25871,21.32803],[-99.24934,21.33249],[-99.24493,21.33086],[-99.23915,21.33928],[-99.24745,21.35002],[-99.24477,21.36483],[-99.23729,21.37191],[-99.23351,21.3848],[-99.22213,21.38906],[-99.22002,21.39475],[-99.21878,21.40587],[-99.22468,21.41715],[-99.22529,21.43468],[-99.22936,21.44516],[-99.22531,21.44968],[-99.20427,21.44871],[-99.19704,21.45414],[-99.19249,21.4471],[-99.18255,21.44404],[-99.17839,21.43772],[-99.17096,21.43592],[-99.1658,21.42984],[-99.15822,21.42985],[-99.13565,21.46209]]]}}]}