{
"type": "FeatureCollection",
"name": "23",
"crs": { "type": "name", "properties": { "name": "urn:ogc:def:crs:OGC:1.3:CRS84" } },
"features": [
{ "type": "Feature", "properties": { "code": "23007", "stateCode": "23", "municipalityCode": "007", "name": "Lázaro Cárdenas" }, "geometry": { "type": "MultiPolygon", "coordinates": [ [ [ [ -87.106873779552899, 21.526057830136065 ], [ -87.105769408137917, 21.362474574654673 ], [ -87.097158089947484, 21.362032635234179 ], [ -87.09716011255793, 21.098680066636348 ], [ -87.320377092843657, 21.101169287572112 ], [ -87.323352941142673, 20.872042573350349 ], [ -87.191950079180685, 20.870993620477478 ], [ -87.191949607833408, 20.762829608302891 ], [ -87.24579437143035, 20.7058800621082 ], [ -87.238334897873926, 20.700202454836518 ], [ -87.268384906650212, 20.668683032584408 ], [ -87.252443184061221, 20.658223030390324 ], [ -87.52381227394315, 20.660628249025184 ], [ -87.522023847548979, 20.592809546234079 ], [ -87.613571802750926, 20.599874546744164 ], [ -87.611280918086663, 20.652667959452337 ], [ -87.743651382907728, 20.654785110733094 ], [ -87.533145279908481, 20.999602139939157 ], [ -87.534912909530121, 21.490222449965476 ], [ -87.488333230266889, 21.485183140341693 ], [ -87.485686029834781, 21.481230879851577 ], [ -87.486582180346062, 21.46525536976991 ], [ -87.473243820433595, 21.457225880211592 ], [ -87.464180830370736, 21.457113020404147 ], [ -87.455225060150084, 21.463412539970584 ], [ -87.431086450041406, 21.468571939614566 ], [ -87.402816630481553, 21.457203739615007 ], [ -87.379212200280421, 21.454805520054364 ], [ -87.369384999955372, 21.448771049878246 ], [ -87.355448980189195, 21.44676809046225 ], [ -87.347102149972187, 21.435132019592224 ], [ -87.341095969611814, 21.432266350383081 ], [ -87.33695113067715, 21.434705143580565 ], [ -87.327383489990481, 21.432482450398378 ], [ -87.315756690332094, 21.441374719743266 ], [ -87.295678349825423, 21.434613049932992 ], [ -87.292714459520028, 21.439949680278968 ], [ -87.272129769613102, 21.432341119810079 ], [ -87.273864320169821, 21.4432842203646 ], [ -87.268109286692678, 21.434103484367864 ], [ -87.265739339542989, 21.439145419908876 ], [ -87.26450820735819, 21.43546726034009 ], [ -87.258527179724311, 21.437788460352984 ], [ -87.258270030370966, 21.434910829715623 ], [ -87.256660279514392, 21.436942080259961 ], [ -87.25589791983144, 21.4334518601095 ], [ -87.250106710212066, 21.434079179835265 ], [ -87.244279999877108, 21.42545618036154 ], [ -87.240569380138666, 21.422955770169743 ], [ -87.238975849550343, 21.425159769942869 ], [ -87.236648419900561, 21.419925979612234 ], [ -87.23246218026695, 21.418610779779492 ], [ -87.228975919774442, 21.432716119712659 ], [ -87.222454080347802, 21.431327570231669 ], [ -87.22170227951915, 21.43851000040619 ], [ -87.215639819612392, 21.443261570337977 ], [ -87.205850379848357, 21.444997090017367 ], [ -87.188374520065423, 21.43970676960905 ], [ -87.166610739776331, 21.449713399980691 ], [ -87.158375180433296, 21.463253000230029 ], [ -87.149552259588503, 21.464912450148695 ], [ -87.133150920246663, 21.459509620053883 ], [ -87.124198119882962, 21.464281490274935 ], [ -87.121983780072298, 21.469614569779871 ], [ -87.115325380022867, 21.467307419768591 ], [ -87.110576520155121, 21.477166619816003 ], [ -87.11350679966273, 21.483958690110963 ], [ -87.109900180332943, 21.485939380174568 ], [ -87.109683460364721, 21.50553242999678 ], [ -87.106758149495334, 21.505911770399859 ], [ -87.110954849948726, 21.519166820015013 ], [ -87.108130179751385, 21.519593290125364 ], [ -87.106873779552899, 21.526057830136065 ] ] ], [ [ [ -87.105812054835411, 21.577963213084292 ], [ -87.105805919838573, 21.546958662369939 ], [ -87.12864293764666, 21.553758557380956 ], [ -87.112808830168717, 21.571570719774726 ], [ -87.106550879608776, 21.573394170026688 ], [ -87.105812054835411, 21.577963213084292 ] ] ], [ [ [ -87.105817381551049, 21.604879170995332 ], [ -87.105815993139771, 21.597858494866401 ], [ -87.106771280179444, 21.596888860046239 ], [ -87.107985140349712, 21.600285059706426 ], [ -87.111466569876981, 21.598631450325254 ], [ -87.109660690412397, 21.594062850302635 ], [ -87.120463060076787, 21.589187690303493 ], [ -87.123525050146171, 21.57615151998716 ], [ -87.129533229598096, 21.568364089814391 ], [ -87.138834830054918, 21.562435889555612 ], [ -87.14685942955353, 21.563797260245298 ], [ -87.148073619628065, 21.566862890272791 ], [ -87.148411936506662, 21.560336675801366 ], [ -87.151367624441519, 21.561921309526852 ], [ -87.151831220934625, 21.560440895768888 ], [ -87.153990819586511, 21.559363951726571 ], [ -87.152574564613204, 21.560919644309848 ], [ -87.157909386367578, 21.562169057696103 ], [ -87.162345030026444, 21.558451520119149 ], [ -87.156854026266217, 21.56110904946518 ], [ -87.151311910068586, 21.557107849614763 ], [ -87.166530719946579, 21.556324279943187 ], [ -87.170383709580562, 21.550295999602724 ], [ -87.183599250422247, 21.543468000419406 ], [ -87.178720454779551, 21.545502919747452 ], [ -87.180792965701556, 21.542542870036602 ], [ -87.202390779782974, 21.530628480414229 ], [ -87.209942259788917, 21.51964460035666 ], [ -87.225632850022535, 21.516446489731361 ], [ -87.209884829907878, 21.521049219609704 ], [ -87.207037758595916, 21.525965352213046 ], [ -87.211180995646927, 21.524002296757825 ], [ -87.211826424315149, 21.524162910129608 ], [ -87.208377753449881, 21.527445972233089 ], [ -87.214644301042341, 21.521544908136622 ], [ -87.219302334148466, 21.523142003048722 ], [ -87.217459203267282, 21.52648930902993 ], [ -87.230383544099041, 21.521675668887458 ], [ -87.228205861209844, 21.522861592253992 ], [ -87.231698909546751, 21.522859688048801 ], [ -87.232544094005533, 21.524464397248806 ], [ -87.228396218507001, 21.526019612695958 ], [ -87.231026950473989, 21.52345931277609 ], [ -87.228984421485578, 21.524791811011145 ], [ -87.225426651197935, 21.525952987814879 ], [ -87.224168392382097, 21.526824821703112 ], [ -87.229100180870944, 21.527360081683209 ], [ -87.238751369709178, 21.52279941730518 ], [ -87.235037507702103, 21.526397162283178 ], [ -87.259088148308962, 21.523257700821596 ], [ -87.263837552044905, 21.525166028693029 ], [ -87.261604189643947, 21.529834530804916 ], [ -87.266186080139335, 21.525007081232861 ], [ -87.2734184520328, 21.525685584230125 ], [ -87.280904235877941, 21.516027351987507 ], [ -87.289846419714706, 21.511123309942544 ], [ -87.292329920350198, 21.518155170476398 ], [ -87.287237645532898, 21.52245066216619 ], [ -87.296768681611653, 21.519273246322985 ], [ -87.290826692452455, 21.523729024996005 ], [ -87.296572257411739, 21.521328743194758 ], [ -87.293576516008699, 21.524598123323823 ], [ -87.299940384040781, 21.523799218803294 ], [ -87.306112348713654, 21.527954114367866 ], [ -87.300075790973906, 21.529334922969234 ], [ -87.315879170225301, 21.525835829689225 ], [ -87.317821830093607, 21.529453889640099 ], [ -87.315241339823586, 21.533996000280219 ], [ -87.318801141685142, 21.533205783363609 ], [ -87.324689407791752, 21.539087893957902 ], [ -87.318836120975504, 21.539639500299895 ], [ -87.326929939746293, 21.54113582011022 ], [ -87.325947667382891, 21.547379838849686 ], [ -87.3306494816092, 21.54236869430466 ], [ -87.328522864430326, 21.549157509541782 ], [ -87.335430229596426, 21.546530084017576 ], [ -87.337684859629988, 21.540540150365871 ], [ -87.344815520096006, 21.540981319773678 ], [ -87.352846291100647, 21.535241984343781 ], [ -87.358711949602281, 21.53520360000282 ], [ -87.359737939993906, 21.528656829788478 ], [ -87.364399519901454, 21.529859950430605 ], [ -87.360791089776583, 21.522396220133821 ], [ -87.365190733072922, 21.521321073990137 ], [ -87.364594860338713, 21.518837369851223 ], [ -87.376025888625023, 21.519384651775187 ], [ -87.371829904614231, 21.509781858167226 ], [ -87.375288509524253, 21.514675780379733 ], [ -87.378350449640507, 21.510752630360241 ], [ -87.380541709590631, 21.514613999776447 ], [ -87.38530662031684, 21.505141779722997 ], [ -87.390313050020154, 21.503092580183647 ], [ -87.397251074589477, 21.511242609233051 ], [ -87.387706419796061, 21.520702880152136 ], [ -87.368829380147972, 21.531780829596094 ], [ -87.345000019684178, 21.560501979800815 ], [ -87.334921949642336, 21.566179919800177 ], [ -87.311399510442484, 21.549761019827574 ], [ -87.297714030437689, 21.544847890118575 ], [ -87.270312510491522, 21.540280569787011 ], [ -87.228152219776319, 21.542588259831415 ], [ -87.198625880458735, 21.550321199780925 ], [ -87.147123859562072, 21.571359349931292 ], [ -87.129347569928044, 21.583045539828785 ], [ -87.121836780469252, 21.593403459619239 ], [ -87.105817381551049, 21.604879170995332 ] ] ] ] } },
{ "type": "Feature", "properties": { "code": "23009", "stateCode": "23", "municipalityCode": "009", "name": "Tulum" }, "geometry": { "type": "Polygon", "coordinates": [ [ [ -87.589460110226469, 20.469184489912319 ], [ -87.581022349820401, 20.4419518599118 ], [ -87.525302859865903, 20.374142149753709 ], [ -87.448397769842572, 20.39408424988061 ], [ -87.377835089677959, 20.356864819537623 ], [ -87.364785030362498, 20.381492320319332 ], [ -87.408138769960104, 20.404508220021562 ], [ -87.381599080024486, 20.446711319992676 ], [ -87.363691229843042, 20.438354630096267 ], [ -87.357321509580117, 20.448481580025277 ], [ -87.348259550137868, 20.442016030250194 ], [ -87.329570079608004, 20.412274349637098 ], [ -87.32171417000994, 20.416702449603243 ], [ -87.302711586709762, 20.408642805608284 ], [ -87.30858927908001, 20.4055672195089 ], [ -87.307467979139219, 20.400658510114944 ], [ -87.310960544249355, 20.394575531224191 ], [ -87.314216850245884, 20.395754780456588 ], [ -87.322924516041454, 20.386515467521779 ], [ -87.322269873543789, 20.377038239207707 ], [ -87.331735380206467, 20.366518920089014 ], [ -87.332523108616016, 20.357713929269185 ], [ -87.337916514524764, 20.356555389345271 ], [ -87.335522062588154, 20.353029860749054 ], [ -87.3395038526142, 20.351393742835896 ], [ -87.341402504321181, 20.34164311107466 ], [ -87.347027886065987, 20.339237438262671 ], [ -87.353979574076448, 20.329403235153965 ], [ -87.351795001334693, 20.322244309780967 ], [ -87.357875506270162, 20.324723634041174 ], [ -87.363157510000249, 20.314526402041462 ], [ -87.355937403234179, 20.311518717106274 ], [ -87.360598600210935, 20.299850013038803 ], [ -87.364159107349721, 20.293270423269774 ], [ -87.370024656616508, 20.295718591051997 ], [ -87.374533338581969, 20.290609888372142 ], [ -87.373389495567963, 20.286818772313318 ], [ -87.367573613684044, 20.285954075785664 ], [ -87.378945890416858, 20.283557219929836 ], [ -87.381228810477168, 20.277757158178279 ], [ -87.378174512598534, 20.274018579769393 ], [ -87.381995414443736, 20.267211274212478 ], [ -87.385956263658059, 20.26939847436967 ], [ -87.390900421525274, 20.266018997180613 ], [ -87.42335389231684, 20.226016170959159 ], [ -87.431017216154927, 20.20381961514207 ], [ -87.439625368945968, 20.19261117044308 ], [ -87.454119441250981, 20.159553228422531 ], [ -87.47277694406155, 20.102341811911739 ], [ -87.478031983554743, 20.076008910863855 ], [ -87.478886633830257, 20.04137556001935 ], [ -87.475892463242133, 20.020685479670668 ], [ -87.4782485497891, 20.007226149628707 ], [ -87.472730549991965, 19.99322118031667 ], [ -87.464326323272559, 19.994507402577085 ], [ -87.463815809861984, 19.985974060588561 ], [ -87.467952692898919, 19.980362340231352 ], [ -87.465041292017048, 19.958631120166331 ], [ -87.452471479994571, 19.933239649836967 ], [ -87.448091819750843, 19.92916897032212 ], [ -87.440163312851126, 19.930753355095128 ], [ -87.435980221348387, 19.927031877868352 ], [ -87.432138819038087, 19.908241115335763 ], [ -87.429926453311523, 19.885021862224797 ], [ -87.43620839730545, 19.872414478396109 ], [ -87.435418416364911, 19.865201855667173 ], [ -87.444105709316062, 19.853154922595863 ], [ -87.448558401932416, 19.839048280703896 ], [ -87.452048784986346, 19.834395768344987 ], [ -87.467574292658057, 19.828022620122603 ], [ -87.473867080173775, 19.818753490076684 ], [ -87.476753794669833, 19.803296012529589 ], [ -87.468274863128542, 19.783477880289031 ], [ -87.474721649701266, 19.777551999643446 ], [ -87.481091399701413, 19.781192119522149 ], [ -87.475656140119241, 19.781536980217002 ], [ -87.4756136000792, 19.784014509635181 ], [ -87.486470399812049, 19.786958200404488 ], [ -87.487191029754328, 19.801296030304833 ], [ -87.481062289644754, 19.803483320123807 ], [ -87.483280259541047, 19.811223710196931 ], [ -87.477105740176071, 19.814921200056752 ], [ -87.472501473949492, 19.826021880519022 ], [ -87.476899080066303, 19.828395479594342 ], [ -87.472497999660533, 19.835836460106247 ], [ -87.469447289755124, 19.835614799918748 ], [ -87.472626230030016, 19.832621890439917 ], [ -87.472620280216162, 19.83060714980418 ], [ -87.466845489782983, 19.838386770211024 ], [ -87.451280510393246, 19.838133550367846 ], [ -87.448808339892878, 19.851373970362765 ], [ -87.438510710268829, 19.866422429778261 ], [ -87.441954419869276, 19.875411850089517 ], [ -87.43351319121571, 19.885947856432971 ], [ -87.438534630425437, 19.887394539975034 ], [ -87.431287920178775, 19.887080579650522 ], [ -87.431276180206524, 19.895326769893249 ], [ -87.435313680465285, 19.915231939593447 ], [ -87.436157520196303, 19.912075939837937 ], [ -87.438266760871372, 19.913166231663734 ], [ -87.4364947699071, 19.910157749705778 ], [ -87.439749800063325, 19.910952430205374 ], [ -87.450212650354715, 19.921562060052427 ], [ -87.458906800077045, 19.924810430043507 ], [ -87.460843030361616, 19.927254380025282 ], [ -87.455908220335346, 19.929889739978368 ], [ -87.457734780146637, 19.938289690205387 ], [ -87.467272599877944, 19.945055909810961 ], [ -87.471695854921606, 19.943823387592374 ], [ -87.473246350871477, 19.938963356560372 ], [ -87.464933704371049, 19.928585337708391 ], [ -87.462782089299125, 19.91663385307929 ], [ -87.457284925614999, 19.917080049032581 ], [ -87.464012196507667, 19.905470244207258 ], [ -87.463356518076921, 19.893401041251533 ], [ -87.459166699282264, 19.887694002129756 ], [ -87.447490802904028, 19.88989435841269 ], [ -87.456461371123225, 19.881294985934524 ], [ -87.455178320335349, 19.874743710299832 ], [ -87.459777309357762, 19.866695969090205 ], [ -87.459373940165591, 19.858391050335378 ], [ -87.46412517935299, 19.861291381417256 ], [ -87.473614469350096, 19.856180298374333 ], [ -87.479912902323292, 19.839609732226876 ], [ -87.487732023989921, 19.832589852849321 ], [ -87.486250720301072, 19.82689108983827 ], [ -87.490881420897466, 19.824038153633026 ], [ -87.493812580235229, 19.810889509838308 ], [ -87.499998800075986, 19.807103080191666 ], [ -87.499999939740675, 20.134542860160849 ], [ -87.627954399699533, 20.134605309841248 ], [ -87.627970380442534, 20.206498490333207 ], [ -87.973546119727473, 20.209551819631645 ], [ -87.995065450625233, 20.447316431246698 ], [ -87.879254949946215, 20.44468277036183 ], [ -87.846341849739204, 20.441330249874607 ], [ -87.770477380156535, 20.516089859872537 ], [ -87.63563096956409, 20.515821709826206 ], [ -87.589460110226469, 20.469184489912319 ] ] ] } },
{ "type": "Feature", "properties": { "code": "23010", "stateCode": "23", "municipalityCode": "010", "name": "Bacalar" }, "geometry": { "type": "Polygon", "coordinates": [ [ [ -88.717483460083059, 19.2182360902104 ], [ -88.598393280823757, 19.218243089400385 ], [ -88.589889627820966, 19.212320557892244 ], [ -88.589854659854439, 19.189470186899914 ], [ -88.555269831860173, 19.189499724573082 ], [ -88.555524352615649, 19.201648195600409 ], [ -88.484857918631434, 19.202471275768545 ], [ -88.48254993562611, 19.195885475386003 ], [ -88.473762591615824, 19.193875247286915 ], [ -88.38524257368681, 19.198186825710053 ], [ -88.398922524701732, 19.172748218061905 ], [ -88.423574974257193, 19.096891345139319 ], [ -88.387873366975839, 19.094013336934406 ], [ -88.242453178870548, 19.051804270226686 ], [ -88.220040272834524, 19.107154995694753 ], [ -88.220737595658775, 19.11572775271593 ], [ -88.208424346859772, 19.15660259806172 ], [ -88.173020579759068, 19.15017585887097 ], [ -88.17292719196179, 19.140336470189329 ], [ -88.144514622357818, 19.141168232543183 ], [ -88.079229510648545, 19.126361621246094 ], [ -88.017043819138507, 19.11660832067242 ], [ -87.549950855566365, 19.118596875012745 ], [ -87.552228170193274, 19.093731460226429 ], [ -87.549035991539398, 19.086222339028136 ], [ -87.556289183988369, 19.068590129803233 ], [ -87.561994179861188, 19.068637720389525 ], [ -87.566826539369259, 19.062298528361659 ], [ -87.590305138882357, 19.006618495111098 ], [ -87.605330289618209, 18.987667709692957 ], [ -87.614238480426835, 18.962531119654606 ], [ -87.648258969784038, 18.976463580338219 ], [ -88.048715120429264, 18.980481140040066 ], [ -88.061575999767101, 18.977130950271771 ], [ -88.062483579757327, 18.980457579999154 ], [ -88.064398429700475, 18.976984079527767 ], [ -88.087289520477924, 18.977092719850923 ], [ -88.08492579986769, 18.927783689753838 ], [ -88.138854219515991, 18.927594250247118 ], [ -88.143985779676768, 18.900253970395227 ], [ -88.171136600004161, 18.900564800170205 ], [ -88.188652829895872, 18.866073049757077 ], [ -88.204167449840014, 18.867448030328386 ], [ -88.223447970166504, 18.877844029897137 ], [ -88.231218020192941, 18.87506785045036 ], [ -88.2316596004069, 18.869477019742892 ], [ -88.263226459991088, 18.826929819901089 ], [ -88.276326179995934, 18.799531749567556 ], [ -88.29839097019358, 18.783428540218981 ], [ -88.30665645971618, 18.769176570291506 ], [ -88.30616542051294, 18.756569449630426 ], [ -88.345900289649066, 18.722322889869709 ], [ -88.36437003024875, 18.715394179861082 ], [ -88.376083370321012, 18.704683860270723 ], [ -88.380362520045324, 18.698225369895187 ], [ -88.380875710242108, 18.678286779578908 ], [ -88.390084319804501, 18.665462879997225 ], [ -88.388601800274031, 18.66248230970918 ], [ -88.405502860433998, 18.647570509966751 ], [ -88.40636245999454, 18.643040090081332 ], [ -88.41149745047656, 18.642679849725486 ], [ -88.413781380275054, 18.627707650262447 ], [ -88.560412689757413, 18.649050769855201 ], [ -88.585325799829306, 18.658158399846993 ], [ -88.587020379704086, 18.627420519990245 ], [ -88.753210799845149, 18.626099579981179 ], [ -88.753750120074287, 18.759542249869263 ], [ -88.824891909882808, 18.759247149825445 ], [ -88.826790139871136, 18.819887939600569 ], [ -88.922987079797494, 18.81863576979287 ], [ -88.923712510042037, 18.795624689923077 ], [ -88.966185200159543, 18.797563460039971 ], [ -88.965055630043764, 18.816768050154302 ], [ -89.006660000084779, 18.816852060249708 ], [ -89.006548709983051, 18.865265819977846 ], [ -89.061793910280059, 18.857400880063992 ], [ -89.066256680311966, 18.88755491990484 ], [ -89.148601549794265, 18.8773070597409 ], [ -89.147121750324672, 18.995045579877448 ], [ -89.135819780114616, 19.132372659872836 ], [ -89.146951430212098, 19.133156660062369 ], [ -89.146981850298204, 19.226608229614403 ], [ -88.717430489651804, 19.231075000039549 ], [ -88.717483460083059, 19.2182360902104 ] ] ] } },
{ "type": "Feature", "properties": { "code": "23008", "stateCode": "23", "municipalityCode": "008", "name": "Playa del Carmen" }, "geometry": { "type": "Polygon", "coordinates": [ [ [ -86.920949870590405, 20.807363164929722 ], [ -86.940453230461145, 20.782329219721031 ], [ -86.947627229512705, 20.766597630225625 ], [ -86.957142350246883, 20.758967950388918 ], [ -86.964158719567138, 20.747800370287749 ], [ -86.962731600437735, 20.730089999888598 ], [ -87.010242579704027, 20.702374110303062 ], [ -87.018403400015103, 20.690737319783306 ], [ -87.021801838403221, 20.674255546248702 ], [ -87.031681985005918, 20.662078114074472 ], [ -87.047414220240682, 20.647695719908835 ], [ -87.053455386624236, 20.646844892808595 ], [ -87.065696379945308, 20.629955170421621 ], [ -87.06482029427643, 20.626555676730366 ], [ -87.071431388955418, 20.62544970344053 ], [ -87.074682684123744, 20.621221876726363 ], [ -87.07277425235452, 20.619069655097835 ], [ -87.075187630171968, 20.620756599920018 ], [ -87.10194874237429, 20.589856608982743 ], [ -87.120378877637165, 20.577095773202892 ], [ -87.13889387822519, 20.588555799830829 ], [ -87.179337503879239, 20.597929645044818 ], [ -87.192440168244161, 20.58508554341828 ], [ -87.157477458444561, 20.569742090466171 ], [ -87.141718721575756, 20.581840863946343 ], [ -87.129170203661857, 20.568546237745679 ], [ -87.134025303569672, 20.563860383363288 ], [ -87.142807860157589, 20.562412780064555 ], [ -87.153285255567795, 20.548542007703944 ], [ -87.168982665455005, 20.535812819856471 ], [ -87.18381265050688, 20.531299259653455 ], [ -87.195699370522533, 20.517285844350955 ], [ -87.218643449832825, 20.503841000318065 ], [ -87.223643888521309, 20.496954970317262 ], [ -87.231308228578371, 20.497370821057189 ], [ -87.232590591705161, 20.493265498602383 ], [ -87.230347949747625, 20.492888259027627 ], [ -87.234629850230391, 20.492577481812372 ], [ -87.236716887332861, 20.488120037320659 ], [ -87.246348580325574, 20.484854080400417 ], [ -87.245042119620763, 20.479719319733004 ], [ -87.252883079737884, 20.477520739765627 ], [ -87.266865699520153, 20.457180907607892 ], [ -87.284573430299403, 20.443074320239358 ], [ -87.284140800104709, 20.437585970403994 ], [ -87.292880787985297, 20.428895918697393 ], [ -87.291367332137369, 20.426720402446296 ], [ -87.3018766002495, 20.414136710115688 ], [ -87.301566593787783, 20.410417232747147 ], [ -87.32171417000994, 20.416702449603243 ], [ -87.329570079608004, 20.412274349637098 ], [ -87.348259550137868, 20.442016030250194 ], [ -87.357321509580117, 20.448481580025277 ], [ -87.363691229843042, 20.438354630096267 ], [ -87.381599080024486, 20.446711319992676 ], [ -87.408138769960104, 20.404508220021562 ], [ -87.364785030362498, 20.381492320319332 ], [ -87.377835089677959, 20.356864819537623 ], [ -87.448397769842572, 20.39408424988061 ], [ -87.525302859865903, 20.374142149753709 ], [ -87.581022349820401, 20.4419518599118 ], [ -87.589460110226469, 20.469184489912319 ], [ -87.63563096956409, 20.515821709826206 ], [ -87.770477380156535, 20.516089859872537 ], [ -87.846341849739204, 20.441330249874607 ], [ -87.9627420500439, 20.446706030192409 ], [ -87.743651382907714, 20.654785110733108 ], [ -87.611280918086592, 20.652667959452284 ], [ -87.61357180275084, 20.599874546744164 ], [ -87.522023847548965, 20.592809546234005 ], [ -87.523812273943065, 20.660628249025095 ], [ -87.252443184061221, 20.658223030390293 ], [ -87.268384906650127, 20.668683032584358 ], [ -87.238334897873926, 20.700202454836472 ], [ -87.24579437143035, 20.705880062108129 ], [ -87.191948455905916, 20.762830251151769 ], [ -87.079651742085915, 20.811420549362705 ], [ -86.92073498100919, 20.812064125645048 ], [ -86.920949870590405, 20.807363164929722 ] ] ] } },
{ "type": "Feature", "properties": { "code": "23002", "stateCode": "23", "municipalityCode": "002", "name": "Felipe Carrillo Puerto" }, "geometry": { "type": "MultiPolygon", "coordinates": [ [ [ [ -87.641145480192876, 19.187995579649353 ], [ -87.640289290251005, 19.184541060211217 ], [ -87.647083850332081, 19.186393880264291 ], [ -87.645663430309838, 19.187980019865314 ], [ -87.641145480192876, 19.187995579649353 ] ] ], [ [ [ -87.627535139766934, 19.196700200382374 ], [ -87.628616349961405, 19.190976980219968 ], [ -87.634017739956832, 19.193063850069841 ], [ -87.627535139766934, 19.196700200382374 ] ] ], [ [ [ -87.628668690344924, 19.204467249839396 ], [ -87.628529320129999, 19.202554750211004 ], [ -87.631040020378521, 19.202715030375675 ], [ -87.628668690344924, 19.204467249839396 ] ] ], [ [ [ -87.640947850353854, 19.217051150333791 ], [ -87.652024250030607, 19.215542029699694 ], [ -87.640238550142072, 19.218523689982216 ], [ -87.614563679983902, 19.236026089618129 ], [ -87.631312429623421, 19.221494770323499 ], [ -87.640947850353854, 19.217051150333791 ] ] ], [ [ [ -87.603220919933406, 19.236920830320937 ], [ -87.605400909655074, 19.234113719745888 ], [ -87.606027539782545, 19.235056140240452 ], [ -87.603220919933406, 19.236920830320937 ] ] ], [ [ [ -87.467495200035813, 19.33390760011072 ], [ -87.46427019999004, 19.328953859660253 ], [ -87.465541820238968, 19.32655422047122 ], [ -87.467224819863148, 19.332921540411082 ], [ -87.471243999699652, 19.334828309573954 ], [ -87.467495200035813, 19.33390760011072 ] ] ], [ [ [ -87.518427910250949, 19.370812650446883 ], [ -87.501052919916233, 19.361579199918538 ], [ -87.483443860122719, 19.344475049914745 ], [ -87.478426980147518, 19.339040080000078 ], [ -87.479267600161762, 19.335405720204644 ], [ -87.494623310234971, 19.3467655797017 ], [ -87.494847980283936, 19.350699780373436 ], [ -87.505489720229647, 19.350973250172714 ], [ -87.506257919600301, 19.358538049672308 ], [ -87.509982079888005, 19.358426749868897 ], [ -87.509016519578395, 19.355907150012975 ], [ -87.514980000223829, 19.357302880396645 ], [ -87.518427910250949, 19.370812650446883 ] ] ], [ [ [ -87.573528570339917, 19.397343180329823 ], [ -87.565448679525971, 19.397258720195481 ], [ -87.565546890301121, 19.393705320429657 ], [ -87.571613180426937, 19.394345649989326 ], [ -87.573528570339917, 19.397343180329823 ] ] ], [ [ [ -87.55443865011982, 19.413714780151636 ], [ -87.549395489665912, 19.412374550086117 ], [ -87.549458030278913, 19.40838068016301 ], [ -87.555504519768121, 19.410702749754737 ], [ -87.55443865011982, 19.413714780151636 ] ] ], [ [ [ -87.65851780027198, 19.505607249818539 ], [ -87.661849510042018, 19.504691750003044 ], [ -87.659632490262126, 19.507862139658535 ], [ -87.65851780027198, 19.505607249818539 ] ] ], [ [ [ -87.657192849622277, 19.512542230243813 ], [ -87.661870539814416, 19.509814829861249 ], [ -87.65728779960277, 19.517131949908435 ], [ -87.657192849622277, 19.512542230243813 ] ] ], [ [ [ -87.576901780255724, 19.566034139965179 ], [ -87.576960000337451, 19.564747980292321 ], [ -87.577419430321257, 19.565195940179812 ], [ -87.576901780255724, 19.566034139965179 ] ] ], [ [ [ -87.566166719566539, 19.577384489779384 ], [ -87.567496000211449, 19.57716314044783 ], [ -87.56633933970916, 19.577661549973229 ], [ -87.566166719566539, 19.577384489779384 ] ] ], [ [ [ -87.659445660398418, 19.588015180078809 ], [ -87.65998345992864, 19.587475579576385 ], [ -87.66005122023644, 19.587809140278708 ], [ -87.659445660398418, 19.588015180078809 ] ] ], [ [ [ -87.699929950048514, 19.590990230199882 ], [ -87.690584489778118, 19.587930539900743 ], [ -87.675456689710956, 19.587406510394867 ], [ -87.69466529040092, 19.587234150126196 ], [ -87.713045850137405, 19.589746279934396 ], [ -87.699929950048514, 19.590990230199882 ] ] ], [ [ [ -87.647197710176343, 19.586853860053452 ], [ -87.648425079704325, 19.587249630342995 ], [ -87.647030880226993, 19.587414709853462 ], [ -87.647197710176343, 19.586853860053452 ] ] ], [ [ [ -87.561446310139203, 19.580870459694545 ], [ -87.562572350093689, 19.580447340395985 ], [ -87.561509850336037, 19.581157769613775 ], [ -87.561446310139203, 19.580870459694545 ] ] ], [ [ [ -87.636283430006699, 19.587951580115387 ], [ -87.639067830128837, 19.587986859627897 ], [ -87.63595032023099, 19.588908879904491 ], [ -87.636283430006699, 19.587951580115387 ] ] ], [ [ [ -87.55771236959292, 19.583565430196806 ], [ -87.558208579986783, 19.583149520452519 ], [ -87.558501140306987, 19.583661260264595 ], [ -87.55771236959292, 19.583565430196806 ] ] ], [ [ [ -87.49649483033977, 19.589948630484674 ], [ -87.499254969704367, 19.591270890041276 ], [ -87.499331889528293, 19.592617970027693 ], [ -87.497718309824165, 19.5925847996584 ], [ -87.49649483033977, 19.589948630484674 ] ] ], [ [ [ -87.490819060345913, 19.598880569744296 ], [ -87.491760449985961, 19.594920429695907 ], [ -87.493906550000631, 19.595140600287106 ], [ -87.490819060345913, 19.598880569744296 ] ] ], [ [ [ -87.462116910286525, 19.59435234976651 ], [ -87.464650349660019, 19.597701459942222 ], [ -87.463517620069084, 19.598381979669504 ], [ -87.462320800110447, 19.596695319644319 ], [ -87.462116910286525, 19.59435234976651 ] ] ], [ [ [ -87.455411910344495, 19.598176289827848 ], [ -87.455565999925298, 19.595803140202847 ], [ -87.458266679592086, 19.59613617996456 ], [ -87.458690949603451, 19.597779629768617 ], [ -87.455411910344495, 19.598176289827848 ] ] ], [ [ [ -87.494169320239223, 19.603046119972205 ], [ -87.483207460018036, 19.604430520080168 ], [ -87.478358550137571, 19.602314980233484 ], [ -87.478902540442306, 19.599815480119354 ], [ -87.484620030011996, 19.598553620402981 ], [ -87.483917519939979, 19.602738980306587 ], [ -87.494169320239223, 19.603046119972205 ] ] ], [ [ [ -87.464847939839231, 19.603348259839283 ], [ -87.462689339739981, 19.598835849938975 ], [ -87.472583220392835, 19.600735350466771 ], [ -87.464847939839231, 19.603348259839283 ] ] ], [ [ [ -87.519027280100801, 19.61274088996052 ], [ -87.520876580325975, 19.60624838038699 ], [ -87.523423649822377, 19.604745180085107 ], [ -87.523403349916023, 19.612902549754139 ], [ -87.519027280100801, 19.61274088996052 ] ] ], [ [ [ -87.492286510444998, 19.610957379955128 ], [ -87.494296290104231, 19.607111849561438 ], [ -87.495135120084797, 19.607001150272456 ], [ -87.495621000340918, 19.609936460158139 ], [ -87.492286510444998, 19.610957379955128 ] ] ], [ [ [ -87.464018629947802, 19.606738740142369 ], [ -87.466403249838763, 19.606958619928104 ], [ -87.4660688502114, 19.613284450284556 ], [ -87.465115220086474, 19.613286859955686 ], [ -87.464018629947802, 19.606738740142369 ] ] ], [ [ [ -87.696740649775933, 19.645454569727228 ], [ -87.699365090228881, 19.642644879604724 ], [ -87.699380690023403, 19.646235800394468 ], [ -87.696740649775933, 19.645454569727228 ] ] ], [ [ [ -87.51503185971859, 19.628930430400555 ], [ -87.517485490034304, 19.627806140328961 ], [ -87.520667140443919, 19.62318747963581 ], [ -87.51905787974674, 19.628573080062711 ], [ -87.51503185971859, 19.628930430400555 ] ] ], [ [ [ -87.674086220291386, 19.641217690120978 ], [ -87.680070020009268, 19.641986879925565 ], [ -87.681436149659106, 19.64569449016302 ], [ -87.675774540054704, 19.64510675038478 ], [ -87.674086220291386, 19.641217690120978 ] ] ], [ [ [ -87.709563080048355, 19.650105690322192 ], [ -87.703986280391916, 19.646304710316222 ], [ -87.713454149565038, 19.648786020120035 ], [ -87.709563080048355, 19.650105690322192 ] ] ], [ [ [ -87.4616599204533, 19.695808279846759 ], [ -87.458236979865774, 19.690846420301412 ], [ -87.464271380379557, 19.694702539881131 ], [ -87.4616599204533, 19.695808279846759 ] ] ], [ [ [ -87.466273059651414, 19.698541829861075 ], [ -87.464334170462379, 19.696193449864772 ], [ -87.464252679762012, 19.693765920090794 ], [ -87.468517229962686, 19.695330429983212 ], [ -87.466273059651414, 19.698541829861075 ] ] ], [ [ [ -87.478186379498013, 19.704271570197658 ], [ -87.469932890285406, 19.703172679982369 ], [ -87.468314149732763, 19.699173739573283 ], [ -87.478186379498013, 19.704271570197658 ] ] ], [ [ [ -87.478451549871664, 19.704628479742286 ], [ -87.479531110133294, 19.703957820188865 ], [ -87.479080340398752, 19.705254649949882 ], [ -87.478451549871664, 19.704628479742286 ] ] ], [ [ [ -87.505874220326447, 19.710012710413714 ], [ -87.485301170299465, 19.70754063022126 ], [ -87.479742479566198, 19.704631620055483 ], [ -87.505874220326447, 19.710012710413714 ] ] ], [ [ [ -87.992958111183924, 20.424067709925424 ], [ -87.973546119727445, 20.209551819631628 ], [ -87.627970380442491, 20.206498490333153 ], [ -87.627954399699505, 20.134605309841213 ], [ -87.499999939740647, 20.134542860160799 ], [ -87.499998800075971, 19.807103080191617 ], [ -87.515039706574413, 19.798971721783886 ], [ -87.521601259936091, 19.800871350408389 ], [ -87.525742539793399, 19.796667740150578 ], [ -87.533251490369352, 19.795553659729151 ], [ -87.544159429945864, 19.799391279649239 ], [ -87.545241343062784, 19.795726279765226 ], [ -87.552307619843688, 19.800308110173184 ], [ -87.5545986652251, 19.808471956806461 ], [ -87.578656204878513, 19.790261108757111 ], [ -87.587010731233491, 19.774332401785657 ], [ -87.585237539857673, 19.771925290239771 ], [ -87.594811886370323, 19.763691864693431 ], [ -87.615610741893818, 19.724619155884135 ], [ -87.628734719568286, 19.710364650166493 ], [ -87.642809480175842, 19.688030730801369 ], [ -87.652858864907998, 19.649998384265114 ], [ -87.667544350412768, 19.615735080461896 ], [ -87.679337690071463, 19.614577890322643 ], [ -87.683990510349204, 19.621471140322953 ], [ -87.67641377039557, 19.621318029838562 ], [ -87.689395679827555, 19.626224690058876 ], [ -87.672447599591479, 19.625674979949494 ], [ -87.669022720083476, 19.627483709873307 ], [ -87.679781720308966, 19.628852879695216 ], [ -87.667611000147744, 19.628557419976815 ], [ -87.660685020384193, 19.634262710048226 ], [ -87.667279509540606, 19.638489550255731 ], [ -87.659496889887919, 19.637222450253461 ], [ -87.658740739981852, 19.640157829681385 ], [ -87.661620880387801, 19.64005633973218 ], [ -87.661672059851313, 19.640829089814531 ], [ -87.658627200034914, 19.641749600352522 ], [ -87.663372919547484, 19.647430740228309 ], [ -87.657033369738741, 19.646931140139145 ], [ -87.660499999683495, 19.651299999585998 ], [ -87.655999999745006, 19.65599999970086 ], [ -87.650799999844665, 19.675600000105288 ], [ -87.653354022866367, 19.679579339689521 ], [ -87.64910000037564, 19.688100000011904 ], [ -87.656692349828816, 19.681351450323323 ], [ -87.693428429955205, 19.681078169848206 ], [ -87.725940003116463, 19.668587433659237 ], [ -87.732189490020048, 19.669071180142957 ], [ -87.731240610198483, 19.664828005463004 ], [ -87.740456376015075, 19.666170399281498 ], [ -87.743370019976823, 19.656650250043903 ], [ -87.74268845015942, 19.64717777003824 ], [ -87.738406919807886, 19.641690019814771 ], [ -87.742106607700777, 19.6249927635298 ], [ -87.740711600018827, 19.617871430108675 ], [ -87.748608702731616, 19.599907475079302 ], [ -87.738894819636059, 19.586519750204459 ], [ -87.723448219885412, 19.587486599751706 ], [ -87.726905921277591, 19.582704111182689 ], [ -87.734910780244078, 19.583942629995239 ], [ -87.728511104586715, 19.576426736316336 ], [ -87.72372803045026, 19.574989419607462 ], [ -87.720677918711658, 19.577906760224298 ], [ -87.707580660227919, 19.573060029962015 ], [ -87.713127492621595, 19.568395459751287 ], [ -87.71387107489879, 19.561224358567156 ], [ -87.701992136346007, 19.550209403917407 ], [ -87.681631279638964, 19.558104999907201 ], [ -87.67640000039161, 19.563800000456524 ], [ -87.682137060397693, 19.566656450336481 ], [ -87.689679779588289, 19.564751780105329 ], [ -87.692452769891972, 19.561847649580557 ], [ -87.693190090266086, 19.561622229695466 ], [ -87.689219029527038, 19.566883920071721 ], [ -87.676879882004869, 19.569474519233985 ], [ -87.667046719593969, 19.549221280190885 ], [ -87.673869020431653, 19.543663280414119 ], [ -87.669357089573865, 19.537550719763846 ], [ -87.677725225972608, 19.537866075912007 ], [ -87.686444759808069, 19.533043503995124 ], [ -87.687240304964007, 19.530473383657686 ], [ -87.676383710249553, 19.534687430351827 ], [ -87.670300000340262, 19.528600000042843 ], [ -87.663799999657016, 19.529399999666978 ], [ -87.66414854021167, 19.521119169731541 ], [ -87.672977339548723, 19.519014419776216 ], [ -87.668834510143782, 19.516174750446922 ], [ -87.669000000292144, 19.512599999834155 ], [ -87.663529849993537, 19.513190940301072 ], [ -87.671700000008471, 19.507500000361691 ], [ -87.668718340126233, 19.505849020065739 ], [ -87.669500000245804, 19.500999999603302 ], [ -87.662538119583118, 19.504112719744466 ], [ -87.66313008048968, 19.500723089901111 ], [ -87.659249490396746, 19.500196569924853 ], [ -87.650442940155514, 19.505166650405766 ], [ -87.637741799578563, 19.524005549833699 ], [ -87.632185860121609, 19.53908340012477 ], [ -87.614518200229682, 19.552767740031413 ], [ -87.582501650353976, 19.556452579732273 ], [ -87.550416689957672, 19.566099449769073 ], [ -87.545162170144209, 19.561156620388715 ], [ -87.540094180187523, 19.561638020083709 ], [ -87.538100000008896, 19.557699999556167 ], [ -87.531461149535176, 19.561963750105178 ], [ -87.536800000216644, 19.546599999811157 ], [ -87.525700000048147, 19.540499999872882 ], [ -87.52549999990444, 19.546400000390435 ], [ -87.514999999596071, 19.563100000383674 ], [ -87.507900000445858, 19.564099999664091 ], [ -87.50250000021984, 19.570400000154248 ], [ -87.492400000083691, 19.570699999674687 ], [ -87.509899999538405, 19.576400000188467 ], [ -87.508699999830668, 19.581799999578024 ], [ -87.502000000451361, 19.580600000059452 ], [ -87.507199999624845, 19.586699999634281 ], [ -87.504788399890259, 19.590131979611105 ], [ -87.495400000506152, 19.585799999620093 ], [ -87.490225420362876, 19.590262680455872 ], [ -87.48189999972854, 19.587899999822067 ], [ -87.451699999671732, 19.596000000185523 ], [ -87.451899999843633, 19.60069999961333 ], [ -87.457199999776648, 19.600799999788478 ], [ -87.458360470033071, 19.607330063855542 ], [ -87.462317990406518, 19.607465693124091 ], [ -87.456200000215375, 19.615800000442182 ], [ -87.450299999848056, 19.616400000065841 ], [ -87.445147880450449, 19.622767549877668 ], [ -87.453348490101632, 19.637584280436009 ], [ -87.45441129498488, 19.633857334407754 ], [ -87.456128109852472, 19.636237460017217 ], [ -87.457254520244391, 19.643020999874128 ], [ -87.454454399648625, 19.648017169882426 ], [ -87.44828164479064, 19.63211084976993 ], [ -87.428312780369239, 19.618928460105614 ], [ -87.419370661072875, 19.603387313361576 ], [ -87.410089513077821, 19.598363730168767 ], [ -87.414326979744189, 19.564065859786595 ], [ -87.416453897255494, 19.557391870338137 ], [ -87.419975022726121, 19.557615064384123 ], [ -87.423351954464664, 19.55170257868582 ], [ -87.422299280654499, 19.538812801118656 ], [ -87.427428159353525, 19.531271911676292 ], [ -87.426698630067435, 19.523472279923801 ], [ -87.430861533256049, 19.516653831590673 ], [ -87.428709110083929, 19.49862953968233 ], [ -87.440202519568587, 19.469030510079676 ], [ -87.444997489929307, 19.468655050414913 ], [ -87.47110559981553, 19.444925059539973 ], [ -87.491844017062249, 19.436428806552254 ], [ -87.525710232292127, 19.39527217881513 ], [ -87.54557724321684, 19.391349466002779 ], [ -87.549616863870853, 19.393615883098501 ], [ -87.555064910277025, 19.391441429746106 ], [ -87.564564819879109, 19.39389024957449 ], [ -87.564710380146764, 19.397124569960166 ], [ -87.553608816909787, 19.392816999684825 ], [ -87.539875090317665, 19.40309959963491 ], [ -87.539346400978431, 19.418483349852981 ], [ -87.543274319762091, 19.419624140420296 ], [ -87.54540622021608, 19.417006710172604 ], [ -87.547895508808793, 19.41857264702406 ], [ -87.541823421669235, 19.420229762699481 ], [ -87.539371784280803, 19.425808806219116 ], [ -87.538632501502505, 19.425793293918961 ], [ -87.535737157808796, 19.428188267266822 ], [ -87.535443056405114, 19.428608123266432 ], [ -87.535456380692665, 19.428996451049425 ], [ -87.551951109835215, 19.425041350086243 ], [ -87.553869220043566, 19.427011890384673 ], [ -87.588713980062494, 19.403741149831355 ], [ -87.595990805126377, 19.403121286748515 ], [ -87.618915859742813, 19.381816059899123 ], [ -87.635955480363577, 19.373433910302452 ], [ -87.650181290096512, 19.339345860271319 ], [ -87.656268539770537, 19.302797689742523 ], [ -87.669072141491341, 19.295181798392264 ], [ -87.65790000001509, 19.282099999890281 ], [ -87.661199999701182, 19.2607000000684 ], [ -87.686851120400277, 19.234752420119921 ], [ -87.686500000226062, 19.230899999600023 ], [ -87.673596570475155, 19.227952149758078 ], [ -87.673818919686298, 19.223536710134621 ], [ -87.683279950278063, 19.223335969954832 ], [ -87.686136510416304, 19.220458820149613 ], [ -87.676850349667191, 19.219096230370219 ], [ -87.682309279700206, 19.213623920110695 ], [ -87.682183618217849, 19.205801816910796 ], [ -87.673874089666668, 19.20576593960206 ], [ -87.67849147960078, 19.199906780139816 ], [ -87.669288120133686, 19.199268519812438 ], [ -87.673576856133522, 19.193969409760562 ], [ -87.670817140127781, 19.189853890045882 ], [ -87.666272659890197, 19.191118579689288 ], [ -87.664925480140255, 19.187866519724157 ], [ -87.657179400172112, 19.190135569956354 ], [ -87.658716719829869, 19.185660149652129 ], [ -87.654014450079302, 19.180714849786654 ], [ -87.641773490230662, 19.182756939801632 ], [ -87.637877904760913, 19.18186713615064 ], [ -87.640509588815576, 19.179867199048143 ], [ -87.638112769699134, 19.177249059924716 ], [ -87.633614599899332, 19.179147919556446 ], [ -87.632450354221675, 19.18372549492225 ], [ -87.632321644116303, 19.182582342364949 ], [ -87.629999999562401, 19.183400000202809 ], [ -87.633863169915614, 19.187916140252227 ], [ -87.62749999978098, 19.188199999705667 ], [ -87.62439999962676, 19.191700000114157 ], [ -87.606873537849452, 19.230238704711827 ], [ -87.598848250461231, 19.237384829717563 ], [ -87.593394170249709, 19.236854970165609 ], [ -87.58910000036748, 19.246699999680722 ], [ -87.586812560107873, 19.246129974948218 ], [ -87.583264436696965, 19.26188617116577 ], [ -87.577822720049937, 19.269844999984485 ], [ -87.589457950281357, 19.259728520349185 ], [ -87.589431379878775, 19.254646549614044 ], [ -87.597703922023939, 19.249076693781436 ], [ -87.599772847726086, 19.242674625423913 ], [ -87.602225293709893, 19.24145438360171 ], [ -87.601652962652338, 19.247879213856386 ], [ -87.611987830048321, 19.240121880220279 ], [ -87.59389597991084, 19.254818260030294 ], [ -87.587264680149673, 19.264723619788047 ], [ -87.568997479950283, 19.278193340265531 ], [ -87.563002860084225, 19.289809120225073 ], [ -87.54638489027532, 19.302940280213384 ], [ -87.537646889714424, 19.307046709892152 ], [ -87.522933170358172, 19.305822020149922 ], [ -87.516089812913734, 19.308227394315349 ], [ -87.509635450352974, 19.31978345020471 ], [ -87.489254279847188, 19.326387101037721 ], [ -87.479800000320139, 19.323700000072236 ], [ -87.476500000381861, 19.326100000132438 ], [ -87.472500000369905, 19.323300000090306 ], [ -87.46379805933509, 19.325923997729038 ], [ -87.453583580724811, 19.313055418872725 ], [ -87.445353143937396, 19.311792043569039 ], [ -87.475071279612692, 19.281127718296631 ], [ -87.489719558747169, 19.260738710652507 ], [ -87.514815520172149, 19.235298479766694 ], [ -87.519612435671974, 19.235740222660471 ], [ -87.527886120405512, 19.227196219660641 ], [ -87.539623379685054, 19.199827970056102 ], [ -87.537943889619271, 19.186272199665556 ], [ -87.542187990087584, 19.168012769677159 ], [ -87.540756910267632, 19.155073060028954 ], [ -87.548337939798571, 19.145505889598528 ], [ -87.549950855566337, 19.118596875012713 ], [ -88.017043819138465, 19.116608320672377 ], [ -88.079229510648503, 19.126361621246033 ], [ -88.144514622357789, 19.14116823254313 ], [ -88.172927191961747, 19.140336470189283 ], [ -88.173020579759026, 19.150175858870938 ], [ -88.208424346859758, 19.156602598061667 ], [ -88.220737595658747, 19.115727752715859 ], [ -88.220040272834495, 19.10715499569471 ], [ -88.24245317887052, 19.051804270226633 ], [ -88.387873366975811, 19.094013336934388 ], [ -88.423574974257164, 19.096891345139301 ], [ -88.398922524701717, 19.172748218061869 ], [ -88.385242573686781, 19.198186825710028 ], [ -88.473762591615795, 19.193875247286901 ], [ -88.482549935626082, 19.195885475385968 ], [ -88.484857918631405, 19.202471275768495 ], [ -88.555524352615635, 19.201648195600391 ], [ -88.555269831860144, 19.189499724573032 ], [ -88.589854659854424, 19.189470186899914 ], [ -88.589889627820938, 19.212320557892191 ], [ -88.598393280823728, 19.218243089400335 ], [ -88.655166441530525, 19.217694001134895 ], [ -88.655166441777055, 19.229950299370639 ], [ -88.650289520721316, 19.236014724667957 ], [ -88.649403026280993, 19.281975541639039 ], [ -88.636004884912552, 19.281907305399688 ], [ -88.635894889211741, 19.303002130667561 ], [ -88.624547514559353, 19.302449754902067 ], [ -88.625106149566307, 19.338012823762437 ], [ -88.675232049504814, 19.338554219230506 ], [ -88.668875493431628, 19.394745814417504 ], [ -88.674536698558555, 19.395183950259867 ], [ -88.674691569016417, 19.403209287391057 ], [ -88.69941775533141, 19.403870254155795 ], [ -88.695655304745458, 19.437237031647406 ], [ -88.689477754906164, 19.437534119294348 ], [ -88.689731247834345, 19.443891797194791 ], [ -88.694652268199832, 19.443600556934431 ], [ -88.692625355938958, 19.462162716638577 ], [ -88.645191126800967, 19.457151592132007 ], [ -88.6452536762406, 19.451349483053271 ], [ -88.622712916687135, 19.448708385639943 ], [ -88.618625341359291, 19.596327171739663 ], [ -88.630621564359913, 19.597509112189964 ], [ -88.653258908775172, 19.628633235124841 ], [ -88.638390875672783, 19.635144967921978 ], [ -88.639491527524484, 19.637189374970006 ], [ -88.633132317375626, 19.643388372847525 ], [ -88.590587412612464, 19.634061810402088 ], [ -88.598381477683887, 19.643315552632735 ], [ -88.57585018083266, 19.638218471895861 ], [ -88.5488506510343, 19.749276048604735 ], [ -88.528434141830303, 19.745362897569812 ], [ -88.511576316212413, 19.784554385578097 ], [ -88.486815260056801, 19.88028561958393 ], [ -88.483572371329785, 19.883631660130373 ], [ -88.484020459546187, 19.891769580002908 ], [ -88.468411020383897, 19.891384909883765 ], [ -88.468468350166319, 19.956955539633459 ], [ -88.410346029808153, 19.957296249614075 ], [ -88.410280629590616, 19.950925369654747 ], [ -88.397023679962516, 19.951329949924034 ], [ -88.397119949940091, 19.957686969562211 ], [ -88.393442510265515, 19.957685519963924 ], [ -88.392872800312972, 19.97050064961298 ], [ -88.395155689801157, 19.970245820182072 ], [ -88.395897340397141, 19.976290680191809 ], [ -88.392541000128304, 19.976729260002347 ], [ -88.391421880172615, 20.016148079760317 ], [ -88.4406092297302, 20.022604859705293 ], [ -88.443168150304302, 20.006804940256234 ], [ -88.484153249943006, 20.009875480358069 ], [ -88.483378200167508, 20.019712980056482 ], [ -88.475616849750111, 20.018357849712409 ], [ -88.475297229748833, 20.037669859855917 ], [ -88.49826004988617, 20.038226229701053 ], [ -88.497114650343804, 20.058633219648858 ], [ -88.436854860060805, 20.052348140143863 ], [ -88.422541420376547, 20.154104120311448 ], [ -88.447064370223856, 20.18200651031826 ], [ -88.519929952468644, 20.192328033353167 ], [ -88.44342618312308, 20.238149784308206 ], [ -88.415113803847177, 20.232970454384482 ], [ -88.40912240322217, 20.239728144299399 ], [ -88.402892003529345, 20.239488883991747 ], [ -88.409127742967058, 20.25209732278028 ], [ -88.35190337043106, 20.259023060266578 ], [ -88.308788430139629, 20.253510030103023 ], [ -88.272961379733687, 20.269931280183467 ], [ -88.266814949591762, 20.269120319855823 ], [ -88.264634200082469, 20.290342029584203 ], [ -88.232669479561991, 20.290178910226707 ], [ -88.232705169082649, 20.286998449809239 ], [ -88.167162448549917, 20.28541805067983 ], [ -88.136489600397724, 20.281371780308028 ], [ -88.047306600599768, 20.366308721412647 ], [ -88.04753328014074, 20.378818170890323 ], [ -88.034030061031331, 20.378940090269577 ], [ -87.992960030941006, 20.417992920304268 ], [ -87.992958111183924, 20.424067709925424 ] ] ] ] } },
{ "type": "Feature", "properties": { "code": "23006", "stateCode": "23", "municipalityCode": "006", "name": "José María Morelos" }, "geometry": { "type": "Polygon", "coordinates": [ [ [ -88.44706437022387, 20.182006510318239 ], [ -88.422541420376646, 20.154104120311516 ], [ -88.43685486006089, 20.052348140143913 ], [ -88.497114650343903, 20.058633219648911 ], [ -88.498260049886184, 20.038226229701014 ], [ -88.475297229748833, 20.037669859855967 ], [ -88.475616849750111, 20.01835784971248 ], [ -88.483378200167593, 20.019712980056557 ], [ -88.48415324994302, 20.009875480358033 ], [ -88.443168150304302, 20.006804940256291 ], [ -88.4406092297302, 20.022604859705346 ], [ -88.391421880172715, 20.016148079760317 ], [ -88.392541000128304, 19.976729260002369 ], [ -88.395897340397141, 19.976290680191877 ], [ -88.395155689801157, 19.970245820182157 ], [ -88.392872800312972, 19.970500649613047 ], [ -88.393442510265515, 19.957685519964006 ], [ -88.397119949940091, 19.957686969562179 ], [ -88.39702367996253, 19.951329949924084 ], [ -88.41028062959063, 19.950925369654797 ], [ -88.410346029808167, 19.957296249614092 ], [ -88.468468350166333, 19.956955539633459 ], [ -88.468411020383897, 19.89138490988385 ], [ -88.484020459546272, 19.891769580002975 ], [ -88.483572371329785, 19.883631660130465 ], [ -88.4868152600569, 19.880285619584008 ], [ -88.511576316212498, 19.784554385578065 ], [ -88.528434141830303, 19.745362897569862 ], [ -88.548850651034314, 19.749276048604703 ], [ -88.575850180832759, 19.638218471895861 ], [ -88.598381477683887, 19.643315552632785 ], [ -88.590587412612564, 19.634061810402073 ], [ -88.633132317375711, 19.643388372847628 ], [ -88.639491527524498, 19.637189374970056 ], [ -88.638390875672783, 19.635144967922066 ], [ -88.653258908775172, 19.628633235124926 ], [ -88.630621564359913, 19.597509112190028 ], [ -88.61862534135939, 19.596327171739773 ], [ -88.622712916687135, 19.448708385639943 ], [ -88.645253676240671, 19.451349483053324 ], [ -88.645191126800967, 19.457151592132071 ], [ -88.692625355939043, 19.462162716638627 ], [ -88.694652268199903, 19.443600556934516 ], [ -88.689731247834445, 19.443891797194777 ], [ -88.689477754906179, 19.437534119294327 ], [ -88.695655304745458, 19.437237031647467 ], [ -88.699417755331424, 19.403870254155795 ], [ -88.674691569016503, 19.403209287391089 ], [ -88.674536698558654, 19.395183950259927 ], [ -88.668875493431727, 19.39474581441749 ], [ -88.675232049504913, 19.338554219230506 ], [ -88.625106149566321, 19.338012823762487 ], [ -88.624547514559424, 19.302449754902138 ], [ -88.635894889211826, 19.303002130667611 ], [ -88.636004884912552, 19.281907305399724 ], [ -88.649403026281007, 19.281975541639021 ], [ -88.650289520721316, 19.236014724668024 ], [ -88.655166441777141, 19.229950299370692 ], [ -88.655166441530611, 19.217694001134998 ], [ -88.717483460083031, 19.218236090210418 ], [ -88.717430489651861, 19.231075000039564 ], [ -89.146981850298175, 19.226608229614417 ], [ -89.146666850265689, 19.423861650160493 ], [ -89.296561820367671, 19.551174089774779 ], [ -89.219556570378145, 19.608022249811874 ], [ -89.222868740324529, 19.636656970169483 ], [ -89.190249629706287, 19.633317739978185 ], [ -89.189203140329312, 19.644005940450157 ], [ -89.144861689907842, 19.637398719799844 ], [ -89.149520650464993, 19.581249339716955 ], [ -89.109024460257103, 19.582349380296364 ], [ -89.108391679904088, 19.612338490239392 ], [ -89.133640600383458, 19.61463202967786 ], [ -89.123398519909799, 19.703424149705711 ], [ -89.074212689862634, 19.694194110277923 ], [ -89.076030600023287, 19.685432549997781 ], [ -89.03620045960821, 19.678039520365452 ], [ -89.030523629818646, 19.708831749731996 ], [ -88.997529380192859, 19.704883890224039 ], [ -88.994741279800209, 19.727439600081169 ], [ -89.015385339563977, 19.722973380082845 ], [ -89.016951850192498, 19.726386710279513 ], [ -89.048827059716757, 19.721493320330534 ], [ -89.0251629796673, 19.776709679597754 ], [ -89.004087429919466, 19.772007400012672 ], [ -88.999467969830917, 19.797994380381009 ], [ -88.984404980423221, 19.798160260377553 ], [ -88.984439149534481, 19.805205140102622 ], [ -88.976108510007592, 19.810765830163835 ], [ -88.974451769601643, 19.818100830317125 ], [ -88.956386719719006, 19.816823549853755 ], [ -88.958076800333103, 19.810466540444899 ], [ -88.943852140061182, 19.813442779761886 ], [ -88.945433749586783, 19.791946320019722 ], [ -88.929512460381957, 19.790948549743632 ], [ -88.920294139941859, 19.803973909774406 ], [ -88.911103970423895, 19.800937579952834 ], [ -88.908209749886765, 19.820661089833443 ], [ -88.897585430208764, 19.836862539809257 ], [ -88.900488020167629, 19.86111402031716 ], [ -88.890421580151582, 19.858544540275155 ], [ -88.890568570116898, 19.860968619714978 ], [ -88.879124830390168, 19.862393230298348 ], [ -88.880191540115106, 19.878124880218223 ], [ -88.825926339722159, 19.87992557970907 ], [ -88.820414050206622, 19.890473150092266 ], [ -88.82982471975177, 19.898554450219919 ], [ -88.82736544990631, 19.904487689631267 ], [ -88.829436720268632, 19.906014600216391 ], [ -88.827282739684961, 19.910920370133343 ], [ -88.823152489897197, 19.908149139697496 ], [ -88.824425419685468, 19.904762910137364 ], [ -88.816503290336357, 19.904473520415323 ], [ -88.816142800467233, 19.915499029958944 ], [ -88.812584380236046, 19.925555030271976 ], [ -88.809744860028189, 19.925990940054952 ], [ -88.810176220466218, 19.94494667971232 ], [ -88.806040750418646, 19.944568649990419 ], [ -88.805639509974938, 19.95383073968965 ], [ -88.798377650448955, 19.952523020233606 ], [ -88.798022380417052, 19.974930079820883 ], [ -88.790770800047483, 19.972020180309883 ], [ -88.790479880201772, 19.99213350960051 ], [ -88.789212260404781, 19.995568219923349 ], [ -88.784415710286368, 19.995239629659345 ], [ -88.783502579806296, 20.008180180391093 ], [ -88.771180539543579, 20.007670379802153 ], [ -88.771465649652228, 20.013463230392194 ], [ -88.757697599818883, 20.012191920009293 ], [ -88.742472080000638, 20.01508734994087 ], [ -88.742615350403838, 20.008582779737061 ], [ -88.73624556982017, 20.009661309888976 ], [ -88.732348140411602, 20.014066200044887 ], [ -88.735978910058932, 20.017576550198729 ], [ -88.722782490280451, 20.013199750066448 ], [ -88.722148199777322, 20.00512405961431 ], [ -88.718434769586835, 20.010321249622823 ], [ -88.713041430346237, 20.009163450287161 ], [ -88.712523580355622, 20.012295580234952 ], [ -88.700176170054021, 20.01035672034147 ], [ -88.694752540229189, 20.030035659866396 ], [ -88.691796290081101, 20.029213419743051 ], [ -88.68489183008208, 20.077414320321793 ], [ -88.69080210990812, 20.077029569766971 ], [ -88.690608909623606, 20.089856119857622 ], [ -88.639866400158851, 20.120356059713036 ], [ -88.619173149652411, 20.117171540033098 ], [ -88.620808459606181, 20.131803549571394 ], [ -88.616383630106796, 20.134460819644953 ], [ -88.587973520249164, 20.131451199633318 ], [ -88.587675659697538, 20.140469680396109 ], [ -88.578150460099536, 20.139174280015233 ], [ -88.576681550005375, 20.148078309740409 ], [ -88.507621199922411, 20.143391090063027 ], [ -88.502345249822639, 20.190077949573016 ], [ -88.44706437022387, 20.182006510318239 ] ] ] } },
{ "type": "Feature", "properties": { "code": "23003", "stateCode": "23", "municipalityCode": "003", "name": "Isla Mujeres" }, "geometry": { "type": "MultiPolygon", "coordinates": [ [ [ [ -86.748697429632188, 21.26508662978328 ], [ -86.73892777022391, 21.245508679760803 ], [ -86.710405279883574, 21.201453540018722 ], [ -86.71844664966558, 21.205545220000754 ], [ -86.742552580039984, 21.234361370156762 ], [ -86.743562249951353, 21.237389509929372 ], [ -86.740134369569972, 21.239376650163404 ], [ -86.739862569567762, 21.23370072195884 ], [ -86.730135109897859, 21.221375679806481 ], [ -86.745358756155127, 21.254337094441354 ], [ -86.7530721995401, 21.257784459787036 ], [ -86.748697429632188, 21.26508662978328 ] ] ], [ [ [ -86.851708750037986, 21.435971649637459 ], [ -86.870446819660287, 21.428678799797105 ], [ -86.878517890098109, 21.420434169660044 ], [ -86.888328909704072, 21.416807520228861 ], [ -86.874821170414137, 21.426330920129011 ], [ -86.878421999769131, 21.424926520187903 ], [ -86.87898255018662, 21.428415170080182 ], [ -86.879110549559229, 21.425044260120345 ], [ -86.882647779952876, 21.424841599895494 ], [ -86.881519219970897, 21.426951339646351 ], [ -86.887806659620665, 21.430686749955207 ], [ -86.88358557037013, 21.433994150466663 ], [ -86.879067020436551, 21.434817910305419 ], [ -86.868663980421857, 21.429651680080593 ], [ -86.868693200438713, 21.432026050225748 ], [ -86.851708750037986, 21.435971649637459 ] ] ], [ [ [ -86.903170550142761, 21.465974309685812 ], [ -86.901934370099241, 21.457299049717463 ], [ -86.903937479961343, 21.451126479751483 ], [ -86.913194519641038, 21.449317489558045 ], [ -86.902322620143281, 21.457029199699829 ], [ -86.904872220444446, 21.460351029796893 ], [ -86.903170550142761, 21.465974309685812 ] ] ], [ [ [ -86.93613711972084, 21.475479619553081 ], [ -86.931797429865455, 21.474205819677639 ], [ -86.927338519585049, 21.468299260358549 ], [ -86.93401142962648, 21.466821109644727 ], [ -86.932812720084115, 21.471529219785264 ], [ -86.935490050158435, 21.470941679879488 ], [ -86.93613711972084, 21.475479619553081 ] ] ], [ [ [ -86.921916249611897, 21.477699349526532 ], [ -86.913198340469208, 21.471912850062647 ], [ -86.911786250058341, 21.466355970253101 ], [ -86.920253889524218, 21.472306509933354 ], [ -86.921916249611897, 21.477699349526532 ] ] ], [ [ [ -86.97750780034356, 21.5355056798352 ], [ -86.972029079568685, 21.530985489951018 ], [ -86.974673089624034, 21.526391719514812 ], [ -86.97750780034356, 21.5355056798352 ] ] ], [ [ [ -86.803785740425184, 21.53173298005699 ], [ -86.791523080035191, 21.494037649963975 ], [ -86.784222780033431, 21.457999369755843 ], [ -86.789419659682622, 21.463523629570403 ], [ -86.788685000184486, 21.475647780244365 ], [ -86.794841999537368, 21.484631260065054 ], [ -86.790894120155272, 21.483883710380226 ], [ -86.797017509658616, 21.50185241996487 ], [ -86.795771320209425, 21.489367199755574 ], [ -86.798849229698277, 21.490726060142975 ], [ -86.801492119723065, 21.509013310328903 ], [ -86.798078849641755, 21.512094170223911 ], [ -86.801769249824787, 21.511003370119774 ], [ -86.799495679608256, 21.517844140400207 ], [ -86.803785740425184, 21.53173298005699 ] ] ], [ [ [ -87.004152780208088, 21.567656750214642 ], [ -87.003656680248454, 21.562060149961003 ], [ -87.009340920454221, 21.559708949883959 ], [ -87.009356179774329, 21.566027290006737 ], [ -87.004152780208088, 21.567656750214642 ] ] ], [ [ [ -87.025478290235114, 21.573858890106511 ], [ -87.019967029678284, 21.572434079620471 ], [ -87.01913163008669, 21.569563380432371 ], [ -87.025478290235114, 21.573858890106511 ] ] ], [ [ [ -87.085747199687844, 21.589413689998775 ], [ -87.082749949920469, 21.584795200102974 ], [ -87.075249719828108, 21.582221110221123 ], [ -87.078697259883612, 21.578419319584814 ], [ -87.065980280122503, 21.570451580400828 ], [ -87.045502399887425, 21.562798620253059 ], [ -87.041654579687346, 21.565876969704114 ], [ -87.031499659919774, 21.558736110011832 ], [ -87.029392540285798, 21.561908139881091 ], [ -87.027329769538298, 21.557793919869638 ], [ -87.025818050048272, 21.55976571959895 ], [ -87.023205819988817, 21.557108780454353 ], [ -87.010305110404445, 21.557443310333326 ], [ -87.003969579765112, 21.544049570121189 ], [ -87.001008510404361, 21.545347290090202 ], [ -86.999354579719707, 21.535914170142586 ], [ -86.988832800007913, 21.525962979746328 ], [ -86.98167745005702, 21.524871910426224 ], [ -86.982107420283967, 21.519372449926227 ], [ -86.974827199733909, 21.510542420386749 ], [ -86.977410800218394, 21.521059919982161 ], [ -86.970204460368834, 21.53133282015175 ], [ -86.990054750007133, 21.54328178036041 ], [ -86.997659429941663, 21.541354029582557 ], [ -86.995257515670644, 21.550983478950119 ], [ -86.997229493749614, 21.551730035279533 ], [ -86.995944585307001, 21.552571768868578 ], [ -86.993358309299907, 21.549955199339596 ], [ -86.990192792732472, 21.552804960344666 ], [ -86.992476732783928, 21.555946920277588 ], [ -86.985081962709558, 21.551474246579616 ], [ -86.992788999480922, 21.562234690387363 ], [ -86.980242257602896, 21.548908769143459 ], [ -86.983653505279463, 21.545906880299885 ], [ -86.975926689733697, 21.547602309807036 ], [ -86.973320120301565, 21.539990250147895 ], [ -86.952318889999717, 21.514686739985933 ], [ -86.947571580146331, 21.495246580268741 ], [ -86.952455479606598, 21.488594919953659 ], [ -86.934995221051878, 21.469585920559577 ], [ -86.932985879655945, 21.461806620183953 ], [ -86.929803001380122, 21.456588079247503 ], [ -86.925997509929942, 21.456152879833446 ], [ -86.918961116706356, 21.440188195244584 ], [ -86.910374712986339, 21.436049599120221 ], [ -86.907159379791111, 21.42549556963894 ], [ -86.898982059592612, 21.417824280272711 ], [ -86.896711781055259, 21.410420465341328 ], [ -86.892334200323774, 21.411346630014506 ], [ -86.886736219686668, 21.403546199813828 ], [ -86.885460779663134, 21.386206220289136 ], [ -86.874478939995086, 21.344547179976935 ], [ -86.861808089741814, 21.323057509647725 ], [ -86.864272679862367, 21.303872000233142 ], [ -86.858866539697729, 21.295623079991646 ], [ -86.861425089611032, 21.287226109822853 ], [ -86.853457780380566, 21.276323230417777 ], [ -86.85586652020568, 21.271906689811413 ], [ -86.850916260015268, 21.255861849710669 ], [ -86.848500200002448, 21.251873029780324 ], [ -86.823467594149577, 21.243991579215898 ], [ -86.820604263468312, 21.245498103696008 ], [ -86.823159280228836, 21.251448199939396 ], [ -86.831563029739684, 21.253725690352567 ], [ -86.830925438148057, 21.27239181715392 ], [ -86.836884423745033, 21.272547730889489 ], [ -86.830328057167833, 21.282632362802659 ], [ -86.827343736967009, 21.27905710296049 ], [ -86.821106102644023, 21.281781601807211 ], [ -86.827449199792923, 21.296326259819139 ], [ -86.822283480311, 21.305338080070019 ], [ -86.821325118461061, 21.315974600804712 ], [ -86.802095726410698, 21.325782510171628 ], [ -86.792542729130133, 21.342364275178955 ], [ -86.796586510302916, 21.347893540370215 ], [ -86.794874029719011, 21.365515629676544 ], [ -86.80049162000158, 21.373901079553814 ], [ -86.80568658023563, 21.375239250223338 ], [ -86.804661659810876, 21.382868949992531 ], [ -86.813495807440589, 21.393036641661723 ], [ -86.810057049811093, 21.398560290104307 ], [ -86.82242187864243, 21.404745137128266 ], [ -86.82077196122394, 21.409184259074578 ], [ -86.826485049871479, 21.409706649535522 ], [ -86.827920690386136, 21.412998050424182 ], [ -86.822067940232188, 21.420090820232165 ], [ -86.80983471965294, 21.41290527966332 ], [ -86.805177319758627, 21.408943799529666 ], [ -86.799219740017378, 21.388798860149688 ], [ -86.795054080421679, 21.385918089947179 ], [ -86.79830111978103, 21.388568749878722 ], [ -86.794379719665869, 21.388152349652952 ], [ -86.799947630196499, 21.402381490301842 ], [ -86.796329153131865, 21.410986126946078 ], [ -86.801322356840458, 21.41235238330043 ], [ -86.795804793591714, 21.412256632598748 ], [ -86.78984908950288, 21.388742460350805 ], [ -86.790400029615029, 21.345640999946966 ], [ -86.811601779759755, 21.303033449915347 ], [ -86.815872600335283, 21.283257860348918 ], [ -86.807035374365938, 21.2512579268504 ], [ -86.799785001202139, 21.239198810733278 ], [ -86.801234430721991, 21.212168338925739 ], [ -86.914502577709257, 21.210135863859993 ], [ -86.978082408711288, 21.211952298390784 ], [ -86.978112986891972, 21.217154797822847 ], [ -86.997502046764239, 21.217156215886607 ], [ -86.997473737955374, 21.211952301464109 ], [ -87.097160124332007, 21.211952289444209 ], [ -87.097158089947484, 21.362032635234179 ], [ -87.105769408137917, 21.362474574654673 ], [ -87.105801638689485, 21.525332620932843 ], [ -87.100417629562088, 21.527807540334145 ], [ -87.099089195632288, 21.532603340671539 ], [ -87.105805919838573, 21.546958662369939 ], [ -87.105812054835411, 21.577963213084292 ], [ -87.101520149711746, 21.584969550160253 ], [ -87.095081020505532, 21.583264169798461 ], [ -87.094691489567751, 21.588300599724239 ], [ -87.085747199687844, 21.589413689998775 ] ] ], [ [ [ -87.033980339748936, 21.585844949650223 ], [ -86.999985819520234, 21.571380349989571 ], [ -86.992513059503096, 21.563996110170429 ], [ -87.001428400137485, 21.570414400184664 ], [ -87.014518399888786, 21.569833740023626 ], [ -87.017340679939437, 21.5734533999061 ], [ -87.014433400369953, 21.574713650175433 ], [ -87.020996890162181, 21.576292920254911 ], [ -87.023122620317736, 21.580218350138832 ], [ -87.029479799473194, 21.578336620371235 ], [ -87.030312779581848, 21.574616550009988 ], [ -87.035882879640695, 21.584418579772652 ], [ -87.04201916958371, 21.584145889961931 ], [ -87.033980339748936, 21.585844949650223 ] ] ], [ [ [ -87.105511309942415, 21.599437400046362 ], [ -87.10581634274071, 21.599624777650131 ], [ -87.105562030417175, 21.599767630061578 ], [ -87.105511309942415, 21.599437400046362 ] ] ], [ [ [ -87.105817381551049, 21.604879170995332 ], [ -87.082760940257074, 21.596910450326131 ], [ -87.057492659529657, 21.592685819969681 ], [ -87.049277399520136, 21.58962142006315 ], [ -87.046184449612284, 21.585134089817689 ], [ -87.055558579663668, 21.586514600398878 ], [ -87.058057707178747, 21.59068211570041 ], [ -87.06783032619677, 21.594320917770013 ], [ -87.072818515131999, 21.590377147909237 ], [ -87.079462570308507, 21.594774140466892 ], [ -87.079692220264249, 21.592181080022421 ], [ -87.084612020211082, 21.593523110087943 ], [ -87.087835814784398, 21.589834522116046 ], [ -87.096475149610271, 21.597319780344876 ], [ -87.101719624600051, 21.594480062512236 ], [ -87.098904528714144, 21.602346837313938 ], [ -87.102735050088185, 21.599108879563076 ], [ -87.105816688156452, 21.601371182077003 ], [ -87.105817381551049, 21.604879170995332 ] ] ] ] } },
{ "type": "Feature", "properties": { "code": "23011", "stateCode": "23", "municipalityCode": "011", "name": "Puerto Morelos" }, "geometry": { "type": "Polygon", "coordinates": [ [ [ -87.078668086234615, 21.098842727857004 ], [ -87.079736036147395, 20.931510219797968 ], [ -86.859709762373043, 20.932063792415757 ], [ -86.85927550646295, 20.934660801323087 ], [ -86.837757151007963, 20.93552519001425 ], [ -86.838064399819871, 20.928655030001568 ], [ -86.844801029590826, 20.918292250314011 ], [ -86.846468120383193, 20.90479814031379 ], [ -86.860538859621656, 20.891216149999668 ], [ -86.873961310041082, 20.846767379883449 ], [ -86.889380169598937, 20.832511150312659 ], [ -86.888056259935823, 20.830452249701565 ], [ -86.889055569587953, 20.827847490096005 ], [ -86.889996519669552, 20.831329349912362 ], [ -86.891874230182282, 20.828994949619545 ], [ -86.889828060153974, 20.828243229935023 ], [ -86.893354750136211, 20.828561980342606 ], [ -86.904735250376604, 20.812385920097579 ], [ -86.920959477617799, 20.80715297852467 ], [ -86.920734981009161, 20.812064125645101 ], [ -87.079651742085971, 20.811420549362758 ], [ -87.191949607833379, 20.762829608302873 ], [ -87.191950079180657, 20.870993620477428 ], [ -87.323352941142659, 20.872042573350292 ], [ -87.320377092843628, 21.101169287572059 ], [ -87.078668086234615, 21.098842727857004 ] ] ] } },
{ "type": "Feature", "properties": { "code": "23005", "stateCode": "23", "municipalityCode": "005", "name": "Benito Juárez" }, "geometry": { "type": "Polygon", "coordinates": [ [ [ -86.801843339800413, 21.211951229922466 ], [ -86.806753020234439, 21.189424080578604 ], [ -86.807048588229904, 21.183927846756738 ], [ -86.804431300018152, 21.184431340602313 ], [ -86.804510536135538, 21.182690526559863 ], [ -86.807004686947806, 21.183695611311403 ], [ -86.807090289578539, 21.180856179953345 ], [ -86.798176920223284, 21.155132121389524 ], [ -86.787460739730207, 21.143241151297463 ], [ -86.77998311978682, 21.146377279872791 ], [ -86.761949823022988, 21.136642725603615 ], [ -86.749634966542843, 21.139776745878873 ], [ -86.743550392757371, 21.136290374147695 ], [ -86.741007889209229, 21.138299739771533 ], [ -86.740599419562699, 21.134896449923279 ], [ -86.751073229381035, 21.125514864899454 ], [ -86.770256669465653, 21.084823852720117 ], [ -86.781501544779431, 21.049285008892461 ], [ -86.778628860404936, 21.032534980338074 ], [ -86.787655109915661, 21.029804680322137 ], [ -86.792105709624877, 21.0340215402769 ], [ -86.800467569309305, 21.035190471465434 ], [ -86.809800310388454, 21.029186140274479 ], [ -86.812968350144871, 21.023054250024927 ], [ -86.828720860329142, 20.979592020107056 ], [ -86.837757151007963, 20.93552519001425 ], [ -86.85927550646295, 20.934660801323087 ], [ -86.859709762373043, 20.932063792415757 ], [ -87.079736036147395, 20.931510219797968 ], [ -87.078668086234615, 21.098842727857004 ], [ -87.097160112557887, 21.09868006663633 ], [ -87.097160124331992, 21.211952289444135 ], [ -86.99747373795536, 21.211952301464095 ], [ -86.997502046764211, 21.217156215886554 ], [ -86.978112986891944, 21.217154797822797 ], [ -86.978082408711259, 21.211952298390766 ], [ -86.914502577709229, 21.210135863859946 ], [ -86.801843339800413, 21.211951229922466 ] ] ] } },
{ "type": "Feature", "properties": { "code": "23001", "stateCode": "23", "municipalityCode": "001", "name": "Cozumel" }, "geometry": { "type": "MultiPolygon", "coordinates": [ [ [ [ -87.351544765634685, 20.320732684932292 ], [ -87.355937403234165, 20.311518717106217 ], [ -87.363157510000207, 20.314526402041448 ], [ -87.357875506270133, 20.324723634041117 ], [ -87.351544765634685, 20.320732684932292 ] ] ], [ [ [ -86.864840289850704, 20.54821933962457 ], [ -86.862549019899589, 20.547307599673758 ], [ -86.859086599764112, 20.547185820231032 ], [ -86.862899289931065, 20.54573311989861 ], [ -86.864840289850704, 20.54821933962457 ] ] ], [ [ [ -87.179337503879225, 20.597929645044818 ], [ -87.138893878225161, 20.588555799830793 ], [ -87.120378877637137, 20.577095773202839 ], [ -87.129170203661815, 20.568546237745625 ], [ -87.141718721575728, 20.58184086394629 ], [ -87.157477458444532, 20.569742090466171 ], [ -87.192440168244133, 20.585085543418266 ], [ -87.179337503879225, 20.597929645044818 ] ] ], [ [ [ -86.723333369733822, 20.586887301401628 ], [ -86.749329438192689, 20.534393951978746 ], [ -86.757778879866635, 20.525527620064349 ], [ -86.763380220163384, 20.507081830456045 ], [ -86.793562749766537, 20.464839150179341 ], [ -86.806897260252256, 20.455921780094943 ], [ -86.818117750398045, 20.438271679910098 ], [ -86.8305869703714, 20.43806108010812 ], [ -86.878906540425774, 20.378370120055479 ], [ -86.898466539589052, 20.344187580251575 ], [ -86.902806919948276, 20.346559019901338 ], [ -86.908080980313599, 20.343302850200963 ], [ -86.93229734960957, 20.312216750189336 ], [ -86.947319850016669, 20.304317620022747 ], [ -86.957528649576673, 20.292376799947089 ], [ -86.964575649935682, 20.290501919954188 ], [ -86.988217830481815, 20.271619689803444 ], [ -86.994375749629555, 20.274540710233961 ], [ -87.003040814257972, 20.29735128097327 ], [ -87.017024859363744, 20.299398002938318 ], [ -87.009885179548434, 20.315561799750693 ], [ -87.013732229805228, 20.328741880388048 ], [ -87.021440339623027, 20.339763799646342 ], [ -87.025288946976261, 20.366975820664837 ], [ -87.017061432313952, 20.412170438720938 ], [ -87.005907945568012, 20.433180768364956 ], [ -86.99428038380843, 20.443299146221186 ], [ -86.982793370044263, 20.466563334456964 ], [ -86.98008235384161, 20.465839783906546 ], [ -86.981844639120908, 20.468023936707247 ], [ -86.97562710721003, 20.475430402946476 ], [ -86.978402511265244, 20.476139481820134 ], [ -86.978851823578751, 20.478347622229865 ], [ -86.975522180918446, 20.475552460953484 ], [ -86.974318110066775, 20.478164319556591 ], [ -86.97555182572674, 20.479406173366066 ], [ -86.975749327113476, 20.483207080744474 ], [ -86.974435580356371, 20.479128519997669 ], [ -86.955452098590882, 20.507817029057328 ], [ -86.95714554007003, 20.509361920134701 ], [ -86.956232520191378, 20.511759580109498 ], [ -86.954000922733471, 20.508194097270582 ], [ -86.947341904345407, 20.514269596842212 ], [ -86.939235457621379, 20.527631955117862 ], [ -86.937438500068779, 20.537496516275525 ], [ -86.926218724678108, 20.55252824319011 ], [ -86.908582599536871, 20.557478909973753 ], [ -86.896964020303173, 20.565580080231079 ], [ -86.88160011028026, 20.557692770176057 ], [ -86.883568178641298, 20.553352995903037 ], [ -86.880177922964847, 20.54438909071682 ], [ -86.864982926859412, 20.537199960674236 ], [ -86.857246761649279, 20.543302022961385 ], [ -86.858687740387921, 20.547917249929274 ], [ -86.854338619630141, 20.549904020353637 ], [ -86.789970837356933, 20.556301772163941 ], [ -86.767560829811345, 20.568891490262164 ], [ -86.773621909853176, 20.563236490420163 ], [ -86.768712029847322, 20.560635289994927 ], [ -86.763034419893614, 20.567467340198451 ], [ -86.767405029500367, 20.568337860404718 ], [ -86.759337229715712, 20.575370149888354 ], [ -86.747667169671701, 20.578718949728685 ], [ -86.726939199708767, 20.592156779998547 ], [ -86.723213444737709, 20.590386536038132 ], [ -86.723333369733822, 20.586887301401628 ] ] ] ] } },
{ "type": "Feature", "properties": { "code": "23004", "stateCode": "23", "municipalityCode": "004", "name": "Othón P. Blanco" }, "geometry": { "type": "MultiPolygon", "coordinates": [ [ [ [ -87.38855394974658, 18.377041919574051 ], [ -87.391978749741199, 18.374469250165316 ], [ -87.394632449937774, 18.380767220315807 ], [ -87.38855394974658, 18.377041919574051 ] ] ], [ [ [ -87.40878628029283, 18.390140400438515 ], [ -87.399507090107647, 18.379801280431721 ], [ -87.402562419969186, 18.377641419846686 ], [ -87.408394149908617, 18.380289260171239 ], [ -87.40878628029283, 18.390140400438515 ] ] ], [ [ [ -87.411550890277027, 18.392069850275671 ], [ -87.420740260127772, 18.395853859907376 ], [ -87.421333430306802, 18.399291539588262 ], [ -87.417488679785848, 18.399572779702318 ], [ -87.411550890277027, 18.392069850275671 ] ] ], [ [ [ -87.426038829675534, 18.405466709907479 ], [ -87.429154939517659, 18.404798020283977 ], [ -87.430066950126673, 18.40952114035797 ], [ -87.426038829675534, 18.405466709907479 ] ] ], [ [ [ -87.437999019699987, 18.419431849831231 ], [ -87.437565339631817, 18.423173420389396 ], [ -87.434528459632432, 18.423079980124598 ], [ -87.434143740097369, 18.420927089998084 ], [ -87.437999019699987, 18.419431849831231 ] ] ], [ [ [ -87.436991230256993, 18.430589449727488 ], [ -87.441829599953252, 18.429726060071999 ], [ -87.447398770062051, 18.460041460321509 ], [ -87.445292620133898, 18.462417450464827 ], [ -87.439186489586646, 18.452729679597066 ], [ -87.436991230256993, 18.430589449727488 ] ] ], [ [ [ -87.444562830269319, 18.475414970230293 ], [ -87.447049199958371, 18.480219660255536 ], [ -87.440579820397417, 18.518692849675261 ], [ -87.43715896976714, 18.51613455005819 ], [ -87.440637779753516, 18.507285219699668 ], [ -87.440690690399578, 18.478817320388263 ], [ -87.444562830269319, 18.475414970230293 ] ] ], [ [ [ -87.436540020166333, 18.555381819891924 ], [ -87.439209090383457, 18.560361379993832 ], [ -87.43673875014629, 18.56231839975835 ], [ -87.434605550005401, 18.55897268984176 ], [ -87.436540020166333, 18.555381819891924 ] ] ], [ [ [ -87.361919449729129, 18.385144520129259 ], [ -87.37193263004616, 18.378188349846166 ], [ -87.383338909756617, 18.37505742956051 ], [ -87.384319280154799, 18.380162800364808 ], [ -87.372460720187064, 18.384781089729938 ], [ -87.364408520314484, 18.393418150067212 ], [ -87.36100189004631, 18.406358549676263 ], [ -87.332160460045614, 18.443774630280515 ], [ -87.328208949950522, 18.476336509689055 ], [ -87.337019829769147, 18.523015089692265 ], [ -87.324296859615743, 18.549295599876384 ], [ -87.314425679560912, 18.555453169875623 ], [ -87.312016280417879, 18.550508579895101 ], [ -87.323168280314732, 18.540374380381373 ], [ -87.330983630368081, 18.526431740262257 ], [ -87.320044819655635, 18.492634090275473 ], [ -87.322931460241946, 18.456561119719975 ], [ -87.329568279520899, 18.438932740387703 ], [ -87.338001110272174, 18.429086709995708 ], [ -87.346583660465569, 18.410468630066923 ], [ -87.35651678033102, 18.400356939874737 ], [ -87.361919449729129, 18.385144520129259 ] ] ], [ [ [ -87.435688629631159, 18.582906969607549 ], [ -87.439240709770772, 18.587477400082509 ], [ -87.436877310428201, 18.589747250034534 ], [ -87.435565220092656, 18.588939399907598 ], [ -87.435688629631159, 18.582906969607549 ] ] ], [ [ [ -87.439516179779147, 18.598436800215282 ], [ -87.442463109878744, 18.600921820371731 ], [ -87.440126000033544, 18.613282399808416 ], [ -87.436603650284979, 18.609475090261711 ], [ -87.439516179779147, 18.598436800215282 ] ] ], [ [ [ -87.309449799806998, 18.60357742043135 ], [ -87.305439509889425, 18.597569680300158 ], [ -87.317792569728155, 18.577812599870011 ], [ -87.326645479544084, 18.572150280105411 ], [ -87.33977897016706, 18.575487030374696 ], [ -87.341030310494688, 18.573497879752757 ], [ -87.340942880471715, 18.575072349710016 ], [ -87.336209200291449, 18.57898029040259 ], [ -87.322973460300517, 18.585067120406709 ], [ -87.32399115027107, 18.59195796998759 ], [ -87.3205273201837, 18.598811689720087 ], [ -87.309449799806998, 18.60357742043135 ] ] ], [ [ [ -87.436375999805847, 18.623655279624163 ], [ -87.433359549927459, 18.638298850350502 ], [ -87.420278600034521, 18.66000540001939 ], [ -87.42834757022851, 18.632919259788828 ], [ -87.436375999805847, 18.623655279624163 ] ] ], [ [ [ -87.407823319556442, 18.67668838036672 ], [ -87.410619320094753, 18.679796819732577 ], [ -87.394730999967024, 18.711881599558275 ], [ -87.402539379958185, 18.681708369817677 ], [ -87.407823319556442, 18.67668838036672 ] ] ], [ [ [ -87.390992479662444, 18.720346629516992 ], [ -87.392691460390864, 18.723169020221405 ], [ -87.389520020293475, 18.725327799678212 ], [ -87.387675920296502, 18.722330820242178 ], [ -87.390992479662444, 18.720346629516992 ] ] ], [ [ [ -87.383995280227296, 18.732529859687403 ], [ -87.387515140022856, 18.732523880427376 ], [ -87.385172029601279, 18.736388379843579 ], [ -87.383995280227296, 18.732529859687403 ] ] ], [ [ [ -87.304983679585433, 18.741912619687302 ], [ -87.30326562960694, 18.73900033984027 ], [ -87.305288620001264, 18.737516250408117 ], [ -87.306897059857107, 18.73967293961104 ], [ -87.304983679585433, 18.741912619687302 ] ] ], [ [ [ -87.273826309877762, 18.739436599671517 ], [ -87.266853919563047, 18.732163149678062 ], [ -87.25213960043051, 18.690388509632168 ], [ -87.245349770023282, 18.683497150153467 ], [ -87.247395459824901, 18.645268310137386 ], [ -87.259368520478759, 18.622835199937104 ], [ -87.264536059639426, 18.618789030051829 ], [ -87.267576289835546, 18.622838089866459 ], [ -87.25709208002894, 18.642926939866886 ], [ -87.252721600020749, 18.667403829951503 ], [ -87.278627119959111, 18.735733569865136 ], [ -87.273826309877762, 18.739436599671517 ] ] ], [ [ [ -87.279378749965176, 18.74170421958824 ], [ -87.280200690128964, 18.740046980011691 ], [ -87.280718150236765, 18.743588319728769 ], [ -87.279378749965176, 18.74170421958824 ] ] ], [ [ [ -87.37785005016994, 18.739345280132426 ], [ -87.379960339754291, 18.741234969979896 ], [ -87.372378149677047, 18.753031579832243 ], [ -87.373559520274043, 18.743644489613661 ], [ -87.37785005016994, 18.739345280132426 ] ] ], [ [ [ -87.315226970339523, 18.747144630322001 ], [ -87.318015690154041, 18.746925619615403 ], [ -87.317818969924005, 18.748415030404825 ], [ -87.315226970339523, 18.747144630322001 ] ] ], [ [ [ -87.299136999717149, 18.750970290262071 ], [ -87.298335550257306, 18.74826020001122 ], [ -87.303436279910201, 18.744803199763986 ], [ -87.302871939538363, 18.749931350272455 ], [ -87.299136999717149, 18.750970290262071 ] ] ], [ [ [ -87.319021399565983, 18.753349079745711 ], [ -87.32183909026098, 18.753997049744534 ], [ -87.320318319770777, 18.755925979722985 ], [ -87.319021399565983, 18.753349079745711 ] ] ], [ [ [ -87.289016180226767, 18.754374830331553 ], [ -87.290497800237574, 18.752757919628273 ], [ -87.289785000434691, 18.754520229742496 ], [ -87.289016180226767, 18.754374830331553 ] ] ], [ [ [ -87.320372340203448, 18.762167940181349 ], [ -87.321941599764017, 18.758921749555853 ], [ -87.321616309737877, 18.762490520109392 ], [ -87.320372340203448, 18.762167940181349 ] ] ], [ [ [ -87.328513139735932, 18.753984179914625 ], [ -87.331772680222912, 18.758554089737192 ], [ -87.326728180139327, 18.764961000410416 ], [ -87.325034249824554, 18.761652599864913 ], [ -87.328513139735932, 18.753984179914625 ] ] ], [ [ [ -87.353426599637231, 18.768998880073511 ], [ -87.357773119540283, 18.766815749935134 ], [ -87.354256999719354, 18.770496749899639 ], [ -87.353426599637231, 18.768998880073511 ] ] ], [ [ [ -87.358027049941981, 18.771325479958943 ], [ -87.361101940070753, 18.771975079705722 ], [ -87.356724429851752, 18.773499199649443 ], [ -87.358027049941981, 18.771325479958943 ] ] ], [ [ [ -87.318100520059247, 18.770123820273735 ], [ -87.319342119800552, 18.766632199826965 ], [ -87.320080420388209, 18.770175290433301 ], [ -87.318100520059247, 18.770123820273735 ] ] ], [ [ [ -87.342362579792294, 18.780175880096277 ], [ -87.34938082038758, 18.778674090311867 ], [ -87.339119280137751, 18.78611282960291 ], [ -87.342362579792294, 18.780175880096277 ] ] ], [ [ [ -87.648258969784052, 18.976463580338219 ], [ -87.614238480426835, 18.962531119654674 ], [ -87.616384298874664, 18.953775909299971 ], [ -87.613769051496035, 18.953872393335303 ], [ -87.627432110037816, 18.93966074042952 ], [ -87.632277895423869, 18.922349626570512 ], [ -87.631475400402195, 18.903010920256577 ], [ -87.642030482182776, 18.884326469089185 ], [ -87.64170215013236, 18.861632630457272 ], [ -87.653923580408645, 18.846306619587605 ], [ -87.65388661980802, 18.839354630350339 ], [ -87.663050249574383, 18.826516420290609 ], [ -87.662538220414049, 18.816952749681963 ], [ -87.668937259789672, 18.801846219975072 ], [ -87.667388259567858, 18.788730279979884 ], [ -87.67143494008063, 18.775938580271191 ], [ -87.66824003010764, 18.770939399596543 ], [ -87.669349220334198, 18.763380599723984 ], [ -87.676555656649896, 18.747933655670636 ], [ -87.692101133244336, 18.733247721759309 ], [ -87.689912580180163, 18.730199438255493 ], [ -87.686643675901664, 18.731891829709248 ], [ -87.689842148241553, 18.730118656141407 ], [ -87.687978554325383, 18.727886721449085 ], [ -87.692234457800154, 18.732810778092702 ], [ -87.698838630055874, 18.728151119696335 ], [ -87.711765248512336, 18.71011205057399 ], [ -87.725230510135248, 18.668543830003696 ], [ -87.72923580620747, 18.628274417101451 ], [ -87.739367967598881, 18.582001593234391 ], [ -87.740626761918804, 18.539022540068466 ], [ -87.744812570367316, 18.528968019987126 ], [ -87.757764509777843, 18.514176020295373 ], [ -87.761908360634934, 18.497320395355491 ], [ -87.763791635866227, 18.418316773571068 ], [ -87.770238340450149, 18.401422620109212 ], [ -87.788467459811969, 18.383735920191103 ], [ -87.802093569961244, 18.352307120406774 ], [ -87.819661317211626, 18.331331737788748 ], [ -87.827875449018677, 18.310543526751477 ], [ -87.83331856961324, 18.290386090342235 ], [ -87.834785671718777, 18.274190374049468 ], [ -87.832340328032402, 18.274192113815506 ], [ -87.834800690890532, 18.273789984703519 ], [ -87.836672175844981, 18.247761258761791 ], [ -87.841643464927984, 18.229263923838342 ], [ -87.844294679550018, 18.190940050315184 ], [ -87.856308049668286, 18.181305819916076 ], [ -87.860188580453581, 18.189830319744626 ], [ -87.867511309762932, 18.188238660043009 ], [ -87.902425659708925, 18.142692249880554 ], [ -87.92545256985747, 18.160235819560473 ], [ -88.030298890266181, 18.160361089641846 ], [ -88.030365889959739, 18.414794289693841 ], [ -88.249633650420563, 18.415552450189331 ], [ -88.25009436989906, 18.473072290066181 ], [ -88.288986599663289, 18.475272949581445 ], [ -88.304499679774622, 18.478753120173344 ], [ -88.310358429733185, 18.485216450293944 ], [ -88.326852600096572, 18.490176690433032 ], [ -88.351117779644198, 18.484473680260447 ], [ -88.367234770197115, 18.486106749937008 ], [ -88.380132970036897, 18.478946350038363 ], [ -88.386997650512669, 18.481639319593423 ], [ -88.402395460153997, 18.496658480320001 ], [ -88.442489280098215, 18.481401420120008 ], [ -88.447141400452679, 18.475591570145561 ], [ -88.454228319976664, 18.488514650083427 ], [ -88.465070080310866, 18.487023079675051 ], [ -88.476423140421801, 18.49467436993152 ], [ -88.520587370463502, 18.45925001978086 ], [ -88.531935279992723, 18.408221629676344 ], [ -88.54519981979864, 18.391207339820223 ], [ -88.551637510420136, 18.376148150291939 ], [ -88.545874510331927, 18.368395220420751 ], [ -88.544384749925484, 18.360024449972606 ], [ -88.575266180049411, 18.320224709760588 ], [ -88.578835920402383, 18.320413399718149 ], [ -88.605831599607171, 18.291741050399896 ], [ -88.597253720084055, 18.288878420072109 ], [ -88.602337850068167, 18.268266279776316 ], [ -88.606388799904437, 18.26438705027131 ], [ -88.60310426025147, 18.250594659744998 ], [ -88.606581889837344, 18.245575859750303 ], [ -88.604420619563498, 18.241518180222464 ], [ -88.612319019960552, 18.232439490386049 ], [ -88.61554439974492, 18.223278089817374 ], [ -88.629007419687738, 18.218968489568539 ], [ -88.632377460168286, 18.212928460401557 ], [ -88.641649829564102, 18.216371020118281 ], [ -88.658247419951266, 18.203722890264899 ], [ -88.666570309696439, 18.202731490205132 ], [ -88.67349454976106, 18.194229719929066 ], [ -88.686682229630023, 18.194695979517313 ], [ -88.697563919594728, 18.18241857998326 ], [ -88.695891649879073, 18.179127379918782 ], [ -88.684390219653935, 18.177805890388619 ], [ -88.680088819580575, 18.160184890205631 ], [ -88.689224180486676, 18.155814689829974 ], [ -88.695199599818366, 18.148206820425532 ], [ -88.709507830342304, 18.123905140327551 ], [ -88.710179220194689, 18.117142680349247 ], [ -88.718608020182003, 18.108829380143057 ], [ -88.712079820044096, 18.104122000192504 ], [ -88.71031300027434, 18.096960509652284 ], [ -88.715738109812833, 18.09422838037295 ], [ -88.719594860302877, 18.083881229883009 ], [ -88.713897970431134, 18.075449820097383 ], [ -88.719148919859407, 18.071981370210821 ], [ -88.716686619611352, 18.060526309894868 ], [ -88.731483289881169, 18.049572120272174 ], [ -88.739610519977091, 18.048168109584324 ], [ -88.740751340246376, 18.04370862989736 ], [ -88.747422709559885, 18.040201689844558 ], [ -88.766651739699498, 18.034298229852354 ], [ -88.77077847972042, 18.029177450346737 ], [ -88.766934920407138, 18.01601835029421 ], [ -88.773092800064973, 18.009881740204822 ], [ -88.769846200472159, 18.00678527971861 ], [ -88.777721449567935, 18.004615079576034 ], [ -88.788495619877338, 17.993037479587642 ], [ -88.785466969657193, 17.987162059924504 ], [ -88.783132539682597, 17.988265890225609 ], [ -88.785112579769006, 17.985235050080124 ], [ -88.781532060049187, 17.985087350096656 ], [ -88.784455349624409, 17.979860829712724 ], [ -88.788777319881248, 17.980967890209673 ], [ -88.79254793998571, 17.971560280444628 ], [ -88.795967120440437, 17.974336630128064 ], [ -88.815171319778955, 17.950299279831352 ], [ -88.825898550013505, 17.946682519987537 ], [ -88.830542450369848, 17.948771089951403 ], [ -88.83371754991029, 17.94192827976115 ], [ -88.844265599700549, 17.940269350258426 ], [ -88.843911110032977, 17.937434889905823 ], [ -88.852208509920004, 17.933477050278956 ], [ -88.855603879666901, 17.926158149943994 ], [ -88.859434799658075, 17.925191060136466 ], [ -88.854965650220691, 17.92013127983865 ], [ -88.854151630110522, 17.90774852003706 ], [ -88.860418850441008, 17.900841170270279 ], [ -88.857791350142776, 17.899775179759729 ], [ -88.859766169749363, 17.894461350080149 ], [ -88.882943720383892, 17.896225480358506 ], [ -88.882621199653485, 17.900606969853889 ], [ -88.887277220325799, 17.903819370149691 ], [ -88.885356940478673, 17.907561659899734 ], [ -88.896253379708526, 17.906120650378412 ], [ -88.90658191988561, 17.915857110106774 ], [ -88.913682109617795, 17.910594549706801 ], [ -88.915428879611952, 17.916568970128818 ], [ -88.920461580228604, 17.91581117963743 ], [ -88.926946859658884, 17.929747460351166 ], [ -88.933740680041126, 17.93128041987109 ], [ -88.930475709936317, 17.94139042985136 ], [ -88.932895020161084, 17.943303320001338 ], [ -88.937963029511565, 17.940634540410969 ], [ -88.937366429854265, 17.946420820302922 ], [ -88.945272110063001, 17.952740479727332 ], [ -88.944779680346358, 17.959129919810099 ], [ -88.953821180216053, 17.954628720442503 ], [ -88.956917059551145, 17.956677939990673 ], [ -88.959765849748806, 17.951716950351269 ], [ -88.966107449737564, 17.954253450129585 ], [ -88.970438219786928, 17.952452510431499 ], [ -88.973919859608102, 17.956193350116205 ], [ -88.983252310340589, 17.957981950172172 ], [ -88.987223859593371, 17.947284310258013 ], [ -88.999621089552875, 17.967473830400913 ], [ -88.998158780297416, 17.971662260151096 ], [ -89.003988749630594, 17.972485539925664 ], [ -88.998853679927251, 17.979925149888917 ], [ -89.000620690122545, 17.984429060385573 ], [ -89.021568379618813, 17.99273682036857 ], [ -89.028610319951909, 17.997306620331425 ], [ -89.028543149644719, 18.002581950355424 ], [ -89.035865450440284, 18.00227007978636 ], [ -89.037520709920898, 18.005121690392727 ], [ -89.052263880085079, 18.000190599618826 ], [ -89.05859769025615, 17.990307489810117 ], [ -89.076352920036356, 17.993818290025224 ], [ -89.085060200234238, 17.990417680082334 ], [ -89.096053650352687, 17.981864109615103 ], [ -89.101951599598635, 17.98098963017037 ], [ -89.111592180397139, 17.969760079810637 ], [ -89.116694049704691, 17.968862219593287 ], [ -89.124213999849403, 17.975278350068827 ], [ -89.132705260173125, 17.972034119810974 ], [ -89.136210849849675, 17.955439919878447 ], [ -89.144970910342778, 17.951071089670979 ], [ -89.14812226022427, 17.942370909848844 ], [ -89.151956629628032, 17.9402569102309 ], [ -89.152170090333001, 17.953609979967933 ], [ -89.205872050232813, 17.954099719691662 ], [ -89.206738940349723, 18.021079949709605 ], [ -89.163003830098873, 18.018517310312589 ], [ -89.163360690481042, 18.057885119714854 ], [ -89.144753540115275, 18.057699079972892 ], [ -89.144382859967578, 18.082442939944588 ], [ -89.202457779954614, 18.083276219814604 ], [ -89.200236650208666, 18.144629340466555 ], [ -89.143065970414384, 18.145819600276866 ], [ -89.142872629877914, 18.224163829698924 ], [ -89.158058679998447, 18.221326979728097 ], [ -89.151673660454918, 18.293562630021242 ], [ -89.132359539731567, 18.293402649845767 ], [ -89.138214059980697, 18.385543890042111 ], [ -89.121229199889981, 18.385849629781344 ], [ -89.12549018033539, 18.45062541960456 ], [ -89.150237819659708, 18.45105940033983 ], [ -89.151313629761859, 18.724021259623402 ], [ -89.155742249561413, 18.753114749966841 ], [ -89.144381850486738, 18.755918739857925 ], [ -89.148601549794265, 18.87730705974095 ], [ -89.066256680311966, 18.887554919904822 ], [ -89.061793910280144, 18.857400880063956 ], [ -89.006548709983051, 18.865265819977846 ], [ -89.006660000084779, 18.816852060249762 ], [ -88.965055630043778, 18.816768050154291 ], [ -88.966185200159543, 18.797563460040038 ], [ -88.923712510042037, 18.795624689923077 ], [ -88.922987079797508, 18.818635769792852 ], [ -88.826790139871136, 18.819887939600648 ], [ -88.824891909882822, 18.759247149825409 ], [ -88.753750120074386, 18.759542249869263 ], [ -88.75321079984522, 18.626099579981254 ], [ -88.587020379704086, 18.627420519990324 ], [ -88.585325799829306, 18.658158399847046 ], [ -88.560412689757428, 18.649050769855187 ], [ -88.413781380275054, 18.627707650262522 ], [ -88.411497450476659, 18.642679849725535 ], [ -88.406362459994625, 18.643040090081318 ], [ -88.405502860433998, 18.647570509966751 ], [ -88.388601800274031, 18.662482309709155 ], [ -88.390084319804501, 18.665462879997275 ], [ -88.380875710242179, 18.678286779578961 ], [ -88.380362520045338, 18.698225369895152 ], [ -88.376083370321098, 18.704683860270801 ], [ -88.36437003024875, 18.715394179861054 ], [ -88.345900289649137, 18.722322889869758 ], [ -88.30616542051294, 18.756569449630494 ], [ -88.306656459716194, 18.769176570291563 ], [ -88.29839097019358, 18.783428540219035 ], [ -88.276326179995934, 18.799531749567606 ], [ -88.263226459991174, 18.826929819901142 ], [ -88.231659600406999, 18.869477019742856 ], [ -88.231218020192941, 18.875067850450428 ], [ -88.223447970166589, 18.877844029897151 ], [ -88.204167449840014, 18.867448030328436 ], [ -88.188652829895872, 18.866073049757063 ], [ -88.171136600004161, 18.900564800170187 ], [ -88.143985779676768, 18.900253970395209 ], [ -88.138854219516091, 18.927594250247086 ], [ -88.08492579986769, 18.927783689753923 ], [ -88.087289520477924, 18.977092719851001 ], [ -88.06439842970056, 18.976984079527767 ], [ -88.062483579757327, 18.980457579999246 ], [ -88.061575999767101, 18.97713095027175 ], [ -88.048715120429264, 18.980481140040119 ], [ -87.648258969784052, 18.976463580338219 ] ] ] ] } }
]
}
