{"type":"FeatureCollection","features":[{"type":"Feature","properties":{"code":"27006","stateCode":"27","municipalityCode":"006","name":"Cunduacán"},"geometry":{"type":"Polygon","coordinates":[[[-93.33367,18.22566],[-93.32318,18.21577],[-93.32245,18.20781],[-93.31538,18.19768],[-93.32027,18.18446],[-93.31292,18.18224],[-93.31572,18.17062],[-93.29397,18.18595],[-93.28591,18.18575],[-93.27824,18.17935],[-93.27365,18.18103],[-93.27634,18.1726],[-93.26563,18.15877],[-93.26257,18.16567],[-93.2539,18.16933],[-93.24333,18.15649],[-93.2346,18.15124],[-93.21852,18.17168],[-93.209,18.15991],[-93.20246,18.16011],[-93.2027,18.15342],[-93.19844,18.15208],[-93.18543,18.15856],[-93.18313,18.15289],[-93.17994,18.15418],[-93.17714,18.15006],[-93.16251,18.15172],[-93.1536,18.15718],[-93.15369,18.15211],[-93.13819,18.14855],[-93.12884,18.13853],[-93.12473,18.14141],[-93.12602,18.13637],[-93.11959,18.13246],[-93.12293,18.13175],[-93.12001,18.12816],[-93.12904,18.11082],[-93.14939,18.09617],[-93.14807,18.092],[-93.13794,18.09282],[-93.1365,18.08167],[-93.11612,18.08862],[-93.10109,18.08925],[-93.09379,18.08824],[-93.08959,18.0818],[-93.08187,18.08292],[-93.08726,18.08591],[-93.08603,18.08788],[-93.05579,18.07126],[-93.04984,18.07323],[-93.04535,18.06915],[-93.03568,18.07192],[-93.02642,18.06784],[-93.03056,18.05976],[-93.0245,18.05883],[-93.02554,18.05043],[-93.02991,18.04427],[-93.02311,18.03382],[-93.03343,18.0241],[-93.05288,18.01814],[-93.05054,18.01412],[-93.05596,18.00199],[-93.053,17.99533],[-93.05503,17.99058],[-93.07735,17.98975],[-93.0865,17.98281],[-93.08624,17.9774],[-93.09419,17.97439],[-93.09723,17.97676],[-93.1005,17.97382],[-93.10836,17.9758],[-93.10478,17.96742],[-93.10888,17.97073],[-93.1162,17.96802],[-93.11425,17.97296],[-93.11767,17.97294],[-93.12023,17.97746],[-93.12642,17.97418],[-93.12785,17.97821],[-93.13567,17.9786],[-93.13592,17.98432],[-93.14057,17.98419],[-93.13634,17.98697],[-93.13714,17.98961],[-93.14783,17.99761],[-93.15589,18.01057],[-93.16012,18.01099],[-93.15976,18.00406],[-93.16322,18.01097],[-93.16898,17.99249],[-93.16381,17.9877],[-93.17909,17.97723],[-93.19576,17.97258],[-93.18572,17.96691],[-93.18983,17.96356],[-93.21836,17.96381],[-93.21348,17.96849],[-93.22136,17.96821],[-93.22413,17.97293],[-93.23713,17.97081],[-93.24408,17.97615],[-93.24275,17.97137],[-93.25088,17.96773],[-93.24025,17.95513],[-93.22964,17.95847],[-93.21855,17.95603],[-93.23096,17.94875],[-93.24092,17.95009],[-93.24531,17.96009],[-93.25671,17.96304],[-93.27374,17.98227],[-93.27805,17.98244],[-93.27832,17.98529],[-93.28134,17.9815],[-93.29102,17.98419],[-93.28688,17.99913],[-93.30377,17.9991],[-93.30807,18.01381],[-93.3191,18.02025],[-93.31792,18.02644],[-93.32754,18.02325],[-93.33069,18.02557],[-93.32659,18.03314],[-93.32809,18.03574],[-93.31178,18.03846],[-93.32252,18.05288],[-93.3284,18.05033],[-93.32995,18.0594],[-93.33708,18.06235],[-93.34555,18.05366],[-93.34813,18.05632],[-93.336,18.0652],[-93.32598,18.06753],[-93.31893,18.06535],[-93.32917,18.07979],[-93.32484,18.0844],[-93.33507,18.0975],[-93.34059,18.09257],[-93.34577,18.09764],[-93.35047,18.0904],[-93.37365,18.11712],[-93.40421,18.12739],[-93.40386,18.13652],[-93.4001,18.1415],[-93.40233,18.15021],[-93.40835,18.15477],[-93.39704,18.152],[-93.3799,18.17467],[-93.37986,18.17915],[-93.3715,18.18153],[-93.37459,18.18488],[-93.37203,18.19399],[-93.3649,18.19911],[-93.35556,18.19904],[-93.34561,18.21461],[-93.33938,18.21809],[-93.33856,18.22368],[-93.33367,18.22566]]]}},{"type":"Feature","properties":{"code":"27005","stateCode":"27","municipalityCode":"005","name":"Comalcalco"},"geometry":{"type":"Polygon","coordinates":[[[-93.35428,18.42857],[-93.35143,18.42214],[-93.3335,18.41189],[-93.322,18.41236],[-93.30595,18.39158],[-93.29609,18.38874],[-93.2929,18.38383],[-93.29425,18.37934],[-93.28854,18.3795],[-93.29327,18.37164],[-93.28778,18.37285],[-93.2831,18.36991],[-93.28639,18.36506],[-93.27931,18.35713],[-93.28752,18.35257],[-93.27992,18.34552],[-93.28517,18.33795],[-93.27812,18.33699],[-93.27893,18.32541],[-93.27489,18.32215],[-93.27562,18.3186],[-93.27937,18.32108],[-93.2919,18.31535],[-93.293,18.32216],[-93.30083,18.33219],[-93.30575,18.32863],[-93.30857,18.31956],[-93.30681,18.3173],[-93.30186,18.32194],[-93.29856,18.32127],[-93.29709,18.30676],[-93.29245,18.30478],[-93.26683,18.30693],[-93.27203,18.3192],[-93.26889,18.32214],[-93.25572,18.31536],[-93.25399,18.31909],[-93.24117,18.31876],[-93.24041,18.32153],[-93.23003,18.31908],[-93.22239,18.32364],[-93.2287,18.33056],[-93.22482,18.33122],[-93.22033,18.3305],[-93.21676,18.32188],[-93.2142,18.32349],[-93.21154,18.32042],[-93.20056,18.32513],[-93.18149,18.32323],[-93.18042,18.32011],[-93.17233,18.31953],[-93.16181,18.30944],[-93.15606,18.30022],[-93.15831,18.29343],[-93.154,18.28467],[-93.14433,18.27742],[-93.13058,18.27157],[-93.12575,18.27239],[-93.12412,18.27597],[-93.12028,18.27236],[-93.11188,18.27533],[-93.10799,18.26289],[-93.09568,18.26146],[-93.10535,18.23488],[-93.11204,18.23634],[-93.12404,18.22765],[-93.13127,18.21414],[-93.14266,18.22843],[-93.14232,18.22391],[-93.15707,18.22026],[-93.15685,18.21554],[-93.16328,18.21469],[-93.1653,18.2191],[-93.16212,18.21954],[-93.15896,18.226],[-93.17143,18.22572],[-93.18244,18.21289],[-93.18924,18.21193],[-93.19029,18.20776],[-93.19619,18.20831],[-93.19356,18.19742],[-93.20704,18.18593],[-93.21445,18.16892],[-93.21949,18.17135],[-93.2346,18.15124],[-93.24333,18.15649],[-93.2539,18.16933],[-93.26257,18.16567],[-93.26563,18.15877],[-93.27634,18.1726],[-93.27365,18.18103],[-93.27824,18.17935],[-93.28591,18.18575],[-93.29397,18.18595],[-93.31572,18.17062],[-93.31292,18.18224],[-93.32027,18.18446],[-93.31538,18.19768],[-93.32245,18.20781],[-93.32318,18.21577],[-93.3338,18.22578],[-93.33856,18.22368],[-93.33938,18.21809],[-93.34561,18.21461],[-93.35556,18.19904],[-93.3649,18.19911],[-93.37203,18.19399],[-93.37459,18.18488],[-93.3715,18.18153],[-93.37986,18.17915],[-93.3799,18.17467],[-93.39704,18.152],[-93.41269,18.15879],[-93.41033,18.16521],[-93.41244,18.17039],[-93.41634,18.17177],[-93.42064,18.16756],[-93.421,18.19083],[-93.43996,18.18417],[-93.43955,18.18649],[-93.4518,18.19446],[-93.45258,18.19639],[-93.44823,18.19595],[-93.44812,18.20112],[-93.46205,18.19903],[-93.4674,18.20755],[-93.47202,18.20401],[-93.4754,18.20601],[-93.4788,18.21101],[-93.47184,18.22006],[-93.4766,18.22534],[-93.4693,18.2332],[-93.48339,18.24531],[-93.47965,18.24706],[-93.48527,18.26139],[-93.47447,18.26313],[-93.47212,18.27794],[-93.47533,18.27779],[-93.47578,18.28147],[-93.48522,18.28749],[-93.48571,18.30713],[-93.49204,18.31185],[-93.49777,18.30903],[-93.50862,18.32729],[-93.51068,18.33646],[-93.5174,18.33381],[-93.52194,18.34325],[-93.52814,18.34337],[-93.51846,18.38041],[-93.52144,18.38087],[-93.50158,18.39253],[-93.49829,18.4063],[-93.49301,18.41],[-93.47652,18.40154],[-93.47301,18.39209],[-93.46,18.38251],[-93.43502,18.39701],[-93.43697,18.41025],[-93.44022,18.41002],[-93.43629,18.41194],[-93.43361,18.41921],[-93.44047,18.41914],[-93.44509,18.41318],[-93.44815,18.41621],[-93.44353,18.41982],[-93.4313,18.42157],[-93.43234,18.42712],[-93.42691,18.42792],[-93.42802,18.42519],[-93.42467,18.42488],[-93.42339,18.42763],[-93.42615,18.42124],[-93.4133,18.41668],[-93.39765,18.42401],[-93.38046,18.42434],[-93.38209,18.42095],[-93.37188,18.42015],[-93.3673,18.42454],[-93.35881,18.42356],[-93.35428,18.42857]]]}},{"type":"Feature","properties":{"code":"27008","stateCode":"27","municipalityCode":"008","name":"Huimanguillo"},"geometry":{"type":"Polygon","coordinates":[[[-94.08539,18.21084],[-94.06592,18.20031],[-94.05883,18.19106],[-94.05082,18.18781],[-94.04657,18.19068],[-94.0395,18.18738],[-94.04347,18.19475],[-94.0358,18.19436],[-94.02651,18.19961],[-94.02076,18.19394],[-94.01379,18.1992],[-94.00984,18.19214],[-94.0121,18.19005],[-93.99614,18.19301],[-93.98917,18.17319],[-93.99042,18.16046],[-94.02804,18.14118],[-94.02405,18.1406],[-94.02502,18.13239],[-94.01892,18.12039],[-94.00805,18.12152],[-93.99227,18.13813],[-93.97409,18.14634],[-93.95655,18.15134],[-93.95603,18.14049],[-93.91049,18.15507],[-93.90232,18.11866],[-93.89181,18.11642],[-93.89735,18.11291],[-93.88676,18.09405],[-93.8776,18.10063],[-93.85837,18.09208],[-93.84967,18.09619],[-93.84578,18.10628],[-93.83594,18.1042],[-93.83654,18.1001],[-93.83324,18.09876],[-93.82709,18.09855],[-93.82337,18.10407],[-93.81875,18.10507],[-93.80193,18.0923],[-93.7591,18.08659],[-93.7431,18.07772],[-93.74853,18.06026],[-93.73066,18.05698],[-93.7308,18.08938],[-93.68642,18.08958],[-93.6883,18.08182],[-93.68342,18.06741],[-93.68344,18.04435],[-93.60798,18.04442],[-93.6078,17.99744],[-93.63194,17.99744],[-93.62065,17.9879],[-93.58897,17.98261],[-93.58867,17.95453],[-93.56245,17.95612],[-93.54522,17.95029],[-93.54141,17.95292],[-93.54196,17.9673],[-93.53615,17.96981],[-93.53265,17.97619],[-93.53109,17.97221],[-93.52722,17.97584],[-93.52416,17.97221],[-93.52348,17.97572],[-93.52171,17.97221],[-93.51997,17.97457],[-93.51995,17.97223],[-93.51398,17.97433],[-93.50873,17.97223],[-93.50852,17.97498],[-93.50801,17.97225],[-93.5071,17.97447],[-93.49448,17.97472],[-93.48655,17.97221],[-93.48658,17.97481],[-93.48197,17.97196],[-93.47556,17.97177],[-93.47535,17.97445],[-93.45376,17.97221],[-93.45383,17.97475],[-93.45009,17.97216],[-93.44951,17.97438],[-93.44882,17.97208],[-93.44819,17.97431],[-93.43154,17.97227],[-93.4332,17.97514],[-93.4217,17.97226],[-93.42055,17.97626],[-93.41901,17.97359],[-93.39038,17.98317],[-93.38696,17.9829],[-93.36821,17.94976],[-93.36803,17.945],[-93.38131,17.94498],[-93.38092,17.9423],[-93.36721,17.94129],[-93.36599,17.93079],[-93.36167,17.93039],[-93.35843,17.94283],[-93.3511,17.93867],[-93.3437,17.94874],[-93.33458,17.95355],[-93.32219,17.95255],[-93.31605,17.94755],[-93.29824,17.94736],[-93.29562,17.94259],[-93.29801,17.93858],[-93.3141,17.93069],[-93.32766,17.92823],[-93.33615,17.93665],[-93.3409,17.93033],[-93.33602,17.90499],[-93.34126,17.90314],[-93.35058,17.87607],[-93.34971,17.86796],[-93.3343,17.8517],[-93.33527,17.84621],[-93.34095,17.84324],[-93.33949,17.83567],[-93.34931,17.81543],[-93.34059,17.79812],[-93.35209,17.79542],[-93.36661,17.80292],[-93.3655,17.79956],[-93.37049,17.79404],[-93.37641,17.79585],[-93.38095,17.78316],[-93.37957,17.78058],[-93.36442,17.77908],[-93.3585,17.7884],[-93.34311,17.78752],[-93.34914,17.76709],[-93.35282,17.76374],[-93.37542,17.7668],[-93.37728,17.77152],[-93.38107,17.77451],[-93.38439,17.77309],[-93.38657,17.77757],[-93.39055,17.7734],[-93.38157,17.74854],[-93.36985,17.73738],[-93.37395,17.73299],[-93.36951,17.73301],[-93.3681,17.7276],[-93.36255,17.72869],[-93.36397,17.72349],[-93.36005,17.72247],[-93.3543,17.71288],[-93.35647,17.71062],[-93.35293,17.70585],[-93.35579,17.69977],[-93.35323,17.69675],[-93.35672,17.68715],[-93.35378,17.68107],[-93.3605,17.66489],[-93.35628,17.64804],[-93.38479,17.64438],[-93.38497,17.63418],[-93.39659,17.62959],[-93.4096,17.6193],[-93.42049,17.59005],[-93.44595,17.58599],[-93.45171,17.54648],[-93.45865,17.54561],[-93.47298,17.55349],[-93.48415,17.54988],[-93.49428,17.53126],[-93.49562,17.52273],[-93.49881,17.52225],[-93.50252,17.49952],[-93.50756,17.5014],[-93.50502,17.49542],[-93.50859,17.49609],[-93.50917,17.49048],[-93.51488,17.49032],[-93.50604,17.47749],[-93.50984,17.47399],[-93.50713,17.46649],[-93.51163,17.45954],[-93.51101,17.44837],[-93.5138,17.44281],[-93.52435,17.43288],[-93.52604,17.42679],[-93.60794,17.31493],[-93.62439,17.32248],[-93.62743,17.31284],[-93.6415,17.31795],[-93.6452,17.33069],[-93.63496,17.3377],[-93.68575,17.37237],[-93.68315,17.37641],[-93.69009,17.37955],[-93.69492,17.3878],[-93.68354,17.39563],[-93.68374,17.40446],[-93.679,17.41097],[-93.67342,17.41227],[-93.673,17.41992],[-93.66706,17.42001],[-93.66574,17.416],[-93.66308,17.4197],[-93.65758,17.41691],[-93.65295,17.41963],[-93.64931,17.43247],[-93.64563,17.43033],[-93.63821,17.43609],[-93.63717,17.43912],[-93.64518,17.4424],[-93.64133,17.44912],[-93.63514,17.45125],[-93.6366,17.45528],[-93.64246,17.45607],[-93.64416,17.45217],[-93.64686,17.45423],[-93.64463,17.4586],[-93.65041,17.45885],[-93.64771,17.46174],[-93.63934,17.45959],[-93.63996,17.46463],[-93.6357,17.46806],[-93.63696,17.47387],[-93.63125,17.48693],[-93.6241,17.49346],[-93.62991,17.50088],[-93.62545,17.501],[-93.62607,17.50442],[-93.63734,17.50981],[-93.62502,17.51464],[-93.62726,17.53168],[-93.62469,17.53826],[-93.61956,17.53756],[-93.61818,17.5421],[-93.62153,17.54483],[-93.6135,17.55221],[-93.61525,17.55511],[-93.62501,17.54874],[-93.63134,17.54998],[-93.62887,17.55417],[-93.63178,17.55688],[-93.63829,17.55529],[-93.64238,17.55811],[-93.64848,17.55535],[-93.65369,17.55997],[-93.65654,17.55524],[-93.65917,17.56549],[-93.67122,17.56956],[-93.6711,17.57625],[-93.67731,17.57577],[-93.68081,17.58493],[-93.67761,17.58587],[-93.68542,17.58709],[-93.68721,17.59369],[-93.69321,17.5935],[-93.69333,17.58956],[-93.69946,17.59602],[-93.69966,17.61369],[-93.70413,17.6103],[-93.70969,17.61163],[-93.70849,17.62342],[-93.71318,17.63067],[-93.71917,17.63346],[-93.71206,17.62384],[-93.71473,17.62085],[-93.72344,17.62315],[-93.72912,17.62987],[-93.73288,17.62576],[-93.73102,17.63583],[-93.73528,17.63008],[-93.73799,17.63495],[-93.72999,17.64129],[-93.73269,17.64916],[-93.73743,17.6517],[-93.74089,17.64941],[-93.7425,17.6571],[-93.74658,17.66011],[-93.74108,17.66478],[-93.74241,17.66654],[-93.74562,17.66222],[-93.74708,17.66835],[-93.73851,17.67937],[-93.74784,17.67538],[-93.74908,17.67925],[-93.75184,17.67656],[-93.75319,17.68017],[-93.75672,17.67687],[-93.75653,17.68262],[-93.75179,17.68399],[-93.75977,17.68512],[-93.76536,17.68052],[-93.76504,17.67457],[-93.7682,17.68795],[-93.77293,17.68765],[-93.77257,17.69271],[-93.77608,17.69035],[-93.7783,17.69243],[-93.78052,17.68867],[-93.78123,17.69324],[-93.78479,17.6909],[-93.79107,17.69474],[-93.79785,17.69224],[-93.79626,17.6899],[-93.79889,17.6874],[-93.80515,17.68936],[-93.80699,17.70592],[-93.81261,17.70252],[-93.81254,17.70692],[-93.82234,17.69958],[-93.826,17.70596],[-93.82351,17.70943],[-93.82865,17.71294],[-93.82659,17.71919],[-93.83046,17.7137],[-93.83491,17.71655],[-93.83738,17.71361],[-93.83991,17.7149],[-93.83884,17.71149],[-93.84302,17.71137],[-93.84589,17.71719],[-93.847,17.71409],[-93.8504,17.71666],[-93.84858,17.72071],[-93.85929,17.71685],[-93.85868,17.72089],[-93.865,17.72219],[-93.86918,17.71798],[-93.86462,17.71672],[-93.87,17.71354],[-93.87442,17.71789],[-93.87586,17.72653],[-93.87749,17.72441],[-93.88072,17.72628],[-93.87616,17.7333],[-93.88366,17.73553],[-93.87822,17.73752],[-93.87376,17.73466],[-93.87433,17.73993],[-93.86961,17.73932],[-93.87467,17.74721],[-93.87003,17.75061],[-93.87424,17.75529],[-93.87745,17.75364],[-93.87705,17.75656],[-93.88124,17.7513],[-93.88535,17.75722],[-93.88666,17.75102],[-93.89128,17.74808],[-93.89388,17.74965],[-93.89069,17.75113],[-93.89221,17.75368],[-93.90107,17.75567],[-93.90433,17.75012],[-93.91012,17.75469],[-93.92231,17.74633],[-93.9271,17.74809],[-93.92461,17.75091],[-93.92913,17.75326],[-93.94011,17.75317],[-93.94143,17.75558],[-93.93526,17.7591],[-93.94114,17.75985],[-93.94085,17.76511],[-93.9495,17.76949],[-93.9561,17.78172],[-93.95295,17.78669],[-93.95534,17.79959],[-93.95063,17.80041],[-93.95771,17.80244],[-93.9606,17.7983],[-93.96317,17.7995],[-93.9568,17.81064],[-93.968,17.81787],[-93.95833,17.81973],[-93.96499,17.82997],[-93.95844,17.83024],[-93.95744,17.82532],[-93.95595,17.8334],[-93.95984,17.83727],[-93.9629,17.83431],[-93.96788,17.83705],[-93.96562,17.8414],[-93.96779,17.84525],[-93.97318,17.84234],[-93.97595,17.85037],[-93.98457,17.85157],[-93.98624,17.84706],[-93.98117,17.84603],[-93.98317,17.83986],[-93.98824,17.84472],[-93.98787,17.83436],[-93.99461,17.84602],[-93.99764,17.83952],[-93.99387,17.8395],[-93.99561,17.83662],[-94.00297,17.84226],[-94.00623,17.83995],[-94.01634,17.84449],[-94.01703,17.83955],[-94.02595,17.84038],[-94.02304,17.84626],[-94.02945,17.84567],[-94.03268,17.86213],[-94.03753,17.86266],[-94.03799,17.86997],[-94.03316,17.87256],[-94.0429,17.87351],[-94.04288,17.86744],[-94.05198,17.87074],[-94.0626,17.86309],[-94.06511,17.86845],[-94.0723,17.86556],[-94.08343,17.86987],[-94.08288,17.88577],[-94.07931,17.89105],[-94.08514,17.89287],[-94.08182,17.89991],[-94.08801,17.90648],[-94.08497,17.91553],[-94.09133,17.93657],[-94.08715,17.9584],[-94.09199,17.96193],[-94.08889,17.97062],[-94.08075,17.96834],[-94.0825,17.97795],[-94.07353,17.98777],[-94.06852,17.97959],[-94.0614,17.98812],[-94.06699,17.99254],[-94.06425,18.00234],[-94.06652,18.0094],[-94.07273,18.01014],[-94.08117,18.00452],[-94.08375,18.00646],[-94.07985,18.02233],[-94.08356,18.0339],[-94.07436,18.05859],[-94.09716,18.07863],[-94.0959,18.08346],[-94.08305,18.09078],[-94.08111,18.09577],[-94.08341,18.10244],[-94.09656,18.11252],[-94.10044,18.12592],[-94.09468,18.16067],[-94.09991,18.17109],[-94.10468,18.17395],[-94.11885,18.16545],[-94.12564,18.16669],[-94.12915,18.17514],[-94.12976,18.19874],[-94.12304,18.19261],[-94.11726,18.19449],[-94.10027,18.19214],[-94.09418,18.19565],[-94.09841,18.20624],[-94.08539,18.21084]]]}},{"type":"Feature","properties":{"code":"27004","stateCode":"27","municipalityCode":"004","name":"Centro"},"geometry":{"type":"Polygon","coordinates":[[[-92.86264,18.33787],[-92.86578,18.33176],[-92.86237,18.32754],[-92.8497,18.32254],[-92.83694,18.32623],[-92.81571,18.30593],[-92.81054,18.29733],[-92.81254,18.29231],[-92.80769,18.28978],[-92.79179,18.25488],[-92.71762,18.30203],[-92.67506,18.29515],[-92.67717,18.28493],[-92.6889,18.26325],[-92.69784,18.25502],[-92.69926,18.24231],[-92.69603,18.24187],[-92.69429,18.23045],[-92.73129,18.19559],[-92.70469,18.17886],[-92.69584,18.18175],[-92.69566,18.1792],[-92.67862,18.17483],[-92.67251,18.18342],[-92.66966,18.1794],[-92.67116,18.17345],[-92.67836,18.16708],[-92.67288,18.16055],[-92.67424,18.15547],[-92.6687,18.15181],[-92.66989,18.14534],[-92.65878,18.14379],[-92.65104,18.15904],[-92.63746,18.14549],[-92.63106,18.15013],[-92.6301,18.14391],[-92.6187,18.13066],[-92.62247,18.12358],[-92.62411,18.08139],[-92.60736,18.07826],[-92.61189,18.06221],[-92.6235,18.05686],[-92.64041,18.07599],[-92.67005,18.04747],[-92.66273,18.03773],[-92.64536,18.03264],[-92.64641,18.03071],[-92.59532,18.02198],[-92.59684,18.00688],[-92.58317,18.00759],[-92.59257,17.98095],[-92.58891,17.97512],[-92.59288,17.97045],[-92.60814,17.97903],[-92.60645,17.98618],[-92.61478,17.98706],[-92.616,17.97761],[-92.62257,17.97309],[-92.64438,17.96812],[-92.64728,17.97123],[-92.65002,17.96947],[-92.64749,17.96207],[-92.65205,17.95585],[-92.65945,17.95445],[-92.66242,17.95993],[-92.66799,17.95519],[-92.66132,17.9492],[-92.67241,17.94334],[-92.66718,17.93615],[-92.66828,17.93195],[-92.67538,17.93094],[-92.67775,17.92741],[-92.70414,17.92968],[-92.70593,17.92135],[-92.71568,17.92273],[-92.71803,17.91495],[-92.72768,17.91191],[-92.73604,17.91408],[-92.7402,17.90189],[-92.74489,17.90232],[-92.74723,17.89422],[-92.75391,17.8905],[-92.75783,17.88338],[-92.76761,17.8862],[-92.77551,17.88368],[-92.78423,17.89106],[-92.7973,17.88883],[-92.79998,17.89478],[-92.80576,17.89748],[-92.80934,17.89216],[-92.81937,17.89208],[-92.82216,17.89744],[-92.83675,17.88608],[-92.83185,17.87973],[-92.83533,17.87788],[-92.83591,17.87054],[-92.83957,17.87044],[-92.84011,17.86364],[-92.84527,17.86485],[-92.84665,17.86027],[-92.85176,17.85999],[-92.8481,17.84452],[-92.85584,17.8437],[-92.8614,17.83262],[-92.86687,17.8352],[-92.87447,17.83071],[-92.88383,17.80812],[-92.87945,17.80476],[-92.87988,17.79411],[-92.88527,17.7945],[-92.88758,17.78986],[-92.8937,17.792],[-92.89566,17.78558],[-92.89318,17.78043],[-92.90131,17.78473],[-92.91136,17.80162],[-92.91873,17.80204],[-92.92197,17.78976],[-92.92598,17.79691],[-92.93134,17.79573],[-92.92854,17.78482],[-92.93583,17.78317],[-92.93741,17.77515],[-92.93263,17.77185],[-92.92649,17.75853],[-92.92298,17.74873],[-92.92393,17.73946],[-92.94878,17.75235],[-92.98324,17.74126],[-92.98624,17.75379],[-92.99542,17.73804],[-92.98063,17.73415],[-92.97667,17.71819],[-92.97984,17.71371],[-92.98619,17.71254],[-93.01315,17.7309],[-92.99894,17.74838],[-93.00997,17.75726],[-93.01897,17.75484],[-93.02306,17.76082],[-93.03284,17.76261],[-93.03345,17.77024],[-93.0278,17.77164],[-93.02663,17.77645],[-93.01658,17.78444],[-93.0187,17.79071],[-93.01205,17.79358],[-93.01401,17.79494],[-93.01193,17.79769],[-93.01955,17.80312],[-93.01641,17.80813],[-93.02726,17.82032],[-93.02544,17.82542],[-93.04028,17.84093],[-93.04131,17.83829],[-93.04313,17.84258],[-93.05871,17.84419],[-93.09409,17.84117],[-93.10165,17.84583],[-93.11564,17.82221],[-93.12903,17.84474],[-93.1318,17.85232],[-93.12361,17.86777],[-93.12363,17.87445],[-93.11425,17.87538],[-93.09196,17.88658],[-93.09138,17.89756],[-93.10498,17.90742],[-93.12913,17.90785],[-93.13693,17.91836],[-93.14598,17.91993],[-93.14508,17.93235],[-93.18314,17.94031],[-93.192,17.95614],[-93.20074,17.95637],[-93.20736,17.96064],[-93.21421,17.95673],[-93.22964,17.95847],[-93.24025,17.95513],[-93.25088,17.96773],[-93.24275,17.97137],[-93.24271,17.97651],[-93.23713,17.97081],[-93.22413,17.97293],[-93.22136,17.96821],[-93.21348,17.96849],[-93.21836,17.96381],[-93.18983,17.96356],[-93.18572,17.96691],[-93.19576,17.97258],[-93.17909,17.97723],[-93.16381,17.9877],[-93.16894,17.99205],[-93.16754,18.00263],[-93.16326,18.00624],[-93.16322,18.01097],[-93.15885,18.00449],[-93.15878,18.01138],[-93.137,17.98943],[-93.14057,17.98419],[-93.13592,17.98432],[-93.13567,17.9786],[-93.12785,17.97821],[-93.12642,17.97418],[-93.12023,17.97746],[-93.11767,17.97294],[-93.11425,17.97296],[-93.1162,17.96802],[-93.10888,17.97073],[-93.10478,17.96742],[-93.10836,17.9758],[-93.1005,17.97382],[-93.09723,17.97676],[-93.09419,17.97439],[-93.08624,17.9774],[-93.0865,17.98281],[-93.07735,17.98975],[-93.05503,17.99058],[-93.053,17.99533],[-93.05596,18.00199],[-93.05054,18.01412],[-93.05288,18.01814],[-93.03343,18.0241],[-93.02311,18.03382],[-93.01917,18.02611],[-93.01977,18.04827],[-93.00359,18.04952],[-92.98987,18.04351],[-92.9957,18.03881],[-92.99281,18.0345],[-92.98676,18.03387],[-92.98949,18.0235],[-92.98504,18.01455],[-92.98678,18.01265],[-92.97596,18.00732],[-92.95438,18.01387],[-92.95356,18.02193],[-92.94303,18.0193],[-92.94301,18.03671],[-92.9336,18.03603],[-92.93365,18.03299],[-92.9308,18.03522],[-92.92676,18.0269],[-92.91989,18.02763],[-92.92208,18.03541],[-92.91771,18.03749],[-92.91396,18.03368],[-92.91106,18.03461],[-92.91133,18.04091],[-92.90627,18.04203],[-92.90634,18.04659],[-92.90242,18.04751],[-92.89896,18.05451],[-92.9027,18.06104],[-92.90569,18.05708],[-92.91463,18.0582],[-92.9127,18.07776],[-92.89436,18.07596],[-92.89172,18.08883],[-92.89569,18.10068],[-92.88572,18.11227],[-92.89009,18.11846],[-92.88495,18.12311],[-92.8816,18.13428],[-92.8816,18.14859],[-92.86436,18.15836],[-92.87394,18.16798],[-92.86466,18.1713],[-92.87657,18.17332],[-92.84742,18.20117],[-92.85407,18.20235],[-92.85446,18.21724],[-92.84883,18.21903],[-92.84183,18.22863],[-92.82968,18.23643],[-92.83399,18.23988],[-92.83384,18.25046],[-92.84559,18.25132],[-92.84908,18.26233],[-92.84621,18.27342],[-92.85439,18.29182],[-92.85805,18.29446],[-92.86434,18.29292],[-92.86417,18.30016],[-92.88145,18.30729],[-92.88032,18.31144],[-92.88653,18.31952],[-92.88569,18.32991],[-92.87745,18.33795],[-92.86903,18.34181],[-92.86264,18.33787]]]}},{"type":"Feature","properties":{"code":"27010","stateCode":"27","municipalityCode":"010","name":"Jalpa de Méndez"},"geometry":{"type":"Polygon","coordinates":[[[-93.00756,18.40759],[-93.00662,18.40452],[-92.99887,18.4027],[-93.01733,18.31959],[-93.03194,18.31549],[-93.02881,18.28687],[-93.03717,18.27743],[-93.03306,18.26517],[-93.03937,18.2592],[-93.03031,18.24697],[-93.05076,18.24118],[-93.05288,18.22924],[-93.05761,18.22702],[-93.06205,18.22931],[-93.05115,18.21417],[-93.04516,18.19921],[-93.03273,18.20178],[-93.02968,18.18357],[-93.03482,18.18472],[-93.03988,18.1769],[-93.02492,18.17611],[-93.0276,18.16713],[-93.03148,18.16598],[-93.03454,18.15664],[-93.03922,18.15613],[-93.03921,18.15362],[-93.0295,18.15104],[-93.03052,18.14591],[-93.0194,18.14417],[-93.01876,18.14069],[-93.02282,18.13988],[-93.02134,18.1368],[-93.01211,18.13636],[-93.02183,18.12031],[-93.01247,18.11517],[-93.01201,18.10969],[-93.0063,18.10766],[-93.02642,18.06784],[-93.03568,18.07192],[-93.04535,18.06915],[-93.04984,18.07323],[-93.05579,18.07126],[-93.08603,18.08788],[-93.08726,18.08591],[-93.08187,18.08292],[-93.08959,18.0818],[-93.09379,18.08824],[-93.10109,18.08925],[-93.11612,18.08862],[-93.1365,18.08167],[-93.13794,18.09282],[-93.14807,18.092],[-93.14939,18.09617],[-93.12904,18.11082],[-93.12518,18.11741],[-93.12001,18.12816],[-93.12293,18.13175],[-93.11959,18.13246],[-93.12461,18.13347],[-93.12473,18.14141],[-93.12884,18.13853],[-93.13819,18.14855],[-93.15369,18.15211],[-93.1536,18.15718],[-93.16251,18.15172],[-93.17726,18.15006],[-93.17994,18.15418],[-93.18313,18.15289],[-93.18543,18.15856],[-93.1987,18.15213],[-93.2027,18.15342],[-93.20246,18.16011],[-93.209,18.15991],[-93.2173,18.16843],[-93.21445,18.16892],[-93.20704,18.18593],[-93.19356,18.19742],[-93.19619,18.20831],[-93.19029,18.20776],[-93.18924,18.21193],[-93.18244,18.21289],[-93.17143,18.22572],[-93.15896,18.226],[-93.16212,18.21954],[-93.1653,18.2191],[-93.16328,18.21469],[-93.15685,18.21554],[-93.15707,18.22026],[-93.14232,18.22391],[-93.14266,18.22843],[-93.13127,18.21414],[-93.12404,18.22765],[-93.11204,18.23634],[-93.10535,18.23488],[-93.09568,18.26146],[-93.10799,18.26289],[-93.1085,18.27792],[-93.11558,18.2832],[-93.10682,18.28796],[-93.10338,18.28622],[-93.09632,18.29276],[-93.0974,18.29634],[-93.09313,18.29757],[-93.099,18.30289],[-93.09326,18.30958],[-93.09136,18.31949],[-93.08513,18.32331],[-93.08501,18.34119],[-93.09224,18.34972],[-93.09173,18.35947],[-93.09541,18.36025],[-93.09364,18.36305],[-93.08897,18.36254],[-93.08848,18.36579],[-93.08393,18.36558],[-93.088,18.37423],[-93.07954,18.37597],[-93.06858,18.38406],[-93.0598,18.38018],[-93.05319,18.38406],[-93.04722,18.38233],[-93.03119,18.39365],[-93.0245,18.39379],[-93.02306,18.40239],[-93.02081,18.39779],[-93.01367,18.39638],[-93.01058,18.39968],[-93.01098,18.40688],[-93.00756,18.40759]]]}},{"type":"Feature","properties":{"code":"27003","stateCode":"27","municipalityCode":"003","name":"Centla"},"geometry":{"type":"Polygon","coordinates":[[[-92.46879,18.65096],[-92.46575,18.61656],[-92.45194,18.60352],[-92.44922,18.59422],[-92.42623,18.55704],[-92.42347,18.53224],[-92.42643,18.51497],[-92.41292,18.48561],[-92.40197,18.47953],[-92.38482,18.47814],[-92.36549,18.46462],[-92.35966,18.45695],[-92.36071,18.44682],[-92.3538,18.44229],[-92.34871,18.44309],[-92.33598,18.45854],[-92.32861,18.46072],[-92.32249,18.45735],[-92.32043,18.45145],[-92.32694,18.4498],[-92.32285,18.43706],[-92.31357,18.42745],[-92.3252,18.42095],[-92.35282,18.3946],[-92.3138,18.3742],[-92.31227,18.37636],[-92.31232,18.36714],[-92.30797,18.36191],[-92.30428,18.36384],[-92.30411,18.35889],[-92.29853,18.35811],[-92.29888,18.35455],[-92.29207,18.35321],[-92.29542,18.3478],[-92.2723,18.32768],[-92.29629,18.30717],[-92.26091,18.3003],[-92.2549,18.30622],[-92.24628,18.29615],[-92.25794,18.29323],[-92.24378,18.28862],[-92.23752,18.30054],[-92.22277,18.29079],[-92.21841,18.28226],[-92.2231,18.28046],[-92.21461,18.27587],[-92.2188,18.27491],[-92.21612,18.26623],[-92.2355,18.26237],[-92.26486,18.2667],[-92.28112,18.27479],[-92.29544,18.25533],[-92.30698,18.25753],[-92.30932,18.26121],[-92.31729,18.25694],[-92.32322,18.24588],[-92.32052,18.24039],[-92.31598,18.24449],[-92.31326,18.24146],[-92.3159,18.23902],[-92.31231,18.23576],[-92.32098,18.2305],[-92.33147,18.21776],[-92.31669,18.21039],[-92.31478,18.21302],[-92.31296,18.20923],[-92.32299,18.18624],[-92.32482,18.17233],[-92.31802,18.15618],[-92.29998,18.15228],[-92.28486,18.13851],[-92.2914,18.13001],[-92.31994,18.14032],[-92.32225,18.13289],[-92.33048,18.13412],[-92.33343,18.12988],[-92.33943,18.13004],[-92.34166,18.12381],[-92.34798,18.12337],[-92.36004,18.13098],[-92.37152,18.13301],[-92.37027,18.14346],[-92.38566,18.1603],[-92.41373,18.15652],[-92.41221,18.15298],[-92.39938,18.14654],[-92.39849,18.14147],[-92.39405,18.14115],[-92.39353,18.13521],[-92.39566,18.1395],[-92.39721,18.13399],[-92.38848,18.12833],[-92.43879,18.09758],[-92.44674,18.09779],[-92.46333,18.10173],[-92.46165,18.11343],[-92.49185,18.1159],[-92.4909,18.12301],[-92.47122,18.11794],[-92.47316,18.1261],[-92.4973,18.14606],[-92.50488,18.14705],[-92.4998,18.15708],[-92.50256,18.16808],[-92.51456,18.1675],[-92.51772,18.17086],[-92.53612,18.16107],[-92.53448,18.14786],[-92.5282,18.14714],[-92.52529,18.14194],[-92.54828,18.10381],[-92.54755,18.10005],[-92.55364,18.09641],[-92.5498,18.08127],[-92.53141,18.07384],[-92.52981,18.05667],[-92.53569,18.06016],[-92.53344,18.067],[-92.53656,18.07334],[-92.54299,18.07331],[-92.55071,18.07872],[-92.55473,18.07841],[-92.55606,18.06224],[-92.56586,18.06417],[-92.59526,18.05654],[-92.59794,18.06328],[-92.60943,18.06324],[-92.60736,18.07826],[-92.62411,18.08139],[-92.62247,18.12358],[-92.6187,18.13066],[-92.6301,18.14391],[-92.63106,18.15013],[-92.63746,18.14549],[-92.65104,18.15904],[-92.65878,18.14379],[-92.66989,18.14534],[-92.6687,18.15181],[-92.67424,18.15547],[-92.67288,18.16055],[-92.67836,18.16708],[-92.67116,18.17345],[-92.66966,18.1794],[-92.67251,18.18342],[-92.67862,18.17483],[-92.69566,18.1792],[-92.69584,18.18175],[-92.70469,18.17886],[-92.73129,18.19559],[-92.69429,18.23045],[-92.69603,18.24187],[-92.69926,18.24231],[-92.69784,18.25502],[-92.6889,18.26325],[-92.67717,18.28493],[-92.67506,18.29515],[-92.71762,18.30203],[-92.79179,18.25488],[-92.80769,18.28978],[-92.81254,18.29231],[-92.81082,18.29796],[-92.8193,18.30998],[-92.83782,18.32659],[-92.8497,18.32254],[-92.86237,18.32754],[-92.86578,18.33176],[-92.86264,18.33787],[-92.86903,18.34181],[-92.88569,18.32991],[-92.88653,18.31952],[-92.89797,18.32935],[-92.91121,18.33338],[-92.92349,18.3469],[-92.94065,18.34943],[-92.94903,18.30279],[-93.01964,18.30844],[-92.99744,18.40372],[-92.99837,18.41058],[-93.01969,18.42314],[-93.03517,18.41984],[-93.04842,18.42557],[-93.06689,18.42406],[-93.0969,18.44291],[-93.05087,18.43315],[-92.991,18.43218],[-92.92685,18.4376],[-92.87026,18.45145],[-92.81079,18.47832],[-92.76377,18.51398],[-92.72263,18.55884],[-92.70292,18.58971],[-92.70173,18.60371],[-92.69156,18.61804],[-92.68665,18.61932],[-92.67218,18.61136],[-92.63101,18.61435],[-92.53113,18.6334],[-92.46879,18.65096]]]}},{"type":"Feature","properties":{"code":"27015","stateCode":"27","municipalityCode":"015","name":"Tacotalpa"},"geometry":{"type":"Polygon","coordinates":[[[-92.89866,17.68919],[-92.88631,17.68134],[-92.8841,17.67417],[-92.87422,17.67315],[-92.87591,17.66072],[-92.87133,17.63855],[-92.84272,17.63511],[-92.83925,17.6347],[-92.83652,17.64574],[-92.83371,17.64039],[-92.8223,17.63909],[-92.81019,17.64545],[-92.81489,17.63879],[-92.79253,17.64801],[-92.78843,17.64728],[-92.78855,17.63943],[-92.76137,17.62603],[-92.76356,17.63226],[-92.75628,17.63131],[-92.74694,17.64015],[-92.74627,17.64496],[-92.73724,17.64434],[-92.73763,17.63891],[-92.72871,17.63377],[-92.72858,17.6419],[-92.71889,17.64188],[-92.71837,17.65322],[-92.68369,17.65085],[-92.67779,17.649],[-92.68092,17.64589],[-92.66793,17.64229],[-92.66539,17.6511],[-92.65675,17.64956],[-92.65443,17.65551],[-92.6576,17.65636],[-92.65357,17.66026],[-92.65056,17.65252],[-92.63826,17.64973],[-92.64,17.64131],[-92.63541,17.63502],[-92.63112,17.63547],[-92.62665,17.63136],[-92.63131,17.62435],[-92.63639,17.62517],[-92.63861,17.60691],[-92.62768,17.60276],[-92.62569,17.61278],[-92.61558,17.61102],[-92.61487,17.61447],[-92.60587,17.60494],[-92.59253,17.60557],[-92.58621,17.60026],[-92.58678,17.59633],[-92.58156,17.59355],[-92.58292,17.59634],[-92.58042,17.59688],[-92.57877,17.5924],[-92.57351,17.5918],[-92.57486,17.57266],[-92.5472,17.56948],[-92.549,17.56841],[-92.54592,17.56491],[-92.55104,17.56489],[-92.55033,17.56217],[-92.55376,17.56108],[-92.55125,17.55772],[-92.55636,17.55805],[-92.55326,17.55372],[-92.55977,17.55524],[-92.55747,17.55169],[-92.56197,17.55294],[-92.5653,17.54981],[-92.55932,17.54851],[-92.56307,17.54574],[-92.57141,17.54961],[-92.59699,17.52036],[-92.59234,17.50962],[-92.5999,17.5008],[-92.59406,17.49295],[-92.60583,17.47738],[-92.62434,17.46586],[-92.64887,17.4607],[-92.65453,17.45566],[-92.65941,17.44428],[-92.6658,17.45685],[-92.66819,17.45669],[-92.66791,17.42595],[-92.67624,17.41162],[-92.6777,17.37999],[-92.70852,17.36341],[-92.72951,17.34813],[-92.75501,17.34341],[-92.75874,17.3582],[-92.77066,17.3604],[-92.76729,17.3834],[-92.79079,17.40499],[-92.78579,17.41753],[-92.80628,17.41056],[-92.8294,17.4086],[-92.82922,17.3963],[-92.85426,17.4112],[-92.85619,17.41888],[-92.82582,17.42378],[-92.82018,17.43115],[-92.82226,17.4522],[-92.82691,17.45363],[-92.82877,17.47262],[-92.83353,17.48204],[-92.826,17.49106],[-92.82823,17.50469],[-92.83419,17.51229],[-92.83347,17.52051],[-92.84696,17.53089],[-92.84758,17.53479],[-92.85421,17.53272],[-92.86249,17.54214],[-92.85898,17.5446],[-92.86507,17.56169],[-92.86114,17.57197],[-92.86475,17.5818],[-92.86103,17.58733],[-92.86157,17.59269],[-92.87334,17.59326],[-92.876,17.60671],[-92.8889,17.60715],[-92.90571,17.62351],[-92.90964,17.63641],[-92.90095,17.64012],[-92.90088,17.64287],[-92.91262,17.65321],[-92.91253,17.66084],[-92.90786,17.67164],[-92.90355,17.6738],[-92.90134,17.67145],[-92.89902,17.67824],[-92.90296,17.67921],[-92.89994,17.67982],[-92.89866,17.68919]]]}},{"type":"Feature","properties":{"code":"27014","stateCode":"27","municipalityCode":"014","name":"Paraíso"},"geometry":{"type":"Polygon","coordinates":[[[-93.19826,18.45311],[-93.18977,18.44859],[-93.18878,18.44687],[-93.18881,18.443],[-93.18508,18.44126],[-93.16379,18.44371],[-93.0969,18.44291],[-93.06689,18.42406],[-93.04842,18.42557],[-93.03517,18.41984],[-93.01675,18.42235],[-93.00012,18.41243],[-92.99744,18.40372],[-93.00974,18.40751],[-93.01367,18.39638],[-93.02081,18.39779],[-93.02306,18.40239],[-93.0245,18.39379],[-93.03119,18.39365],[-93.04722,18.38233],[-93.05319,18.38406],[-93.0598,18.38018],[-93.06858,18.38406],[-93.07954,18.37597],[-93.088,18.37423],[-93.08393,18.36558],[-93.08848,18.36579],[-93.08897,18.36254],[-93.09364,18.36305],[-93.09541,18.36025],[-93.09173,18.35947],[-93.09224,18.34972],[-93.08501,18.34119],[-93.08657,18.32969],[-93.08441,18.32793],[-93.099,18.30289],[-93.0932,18.29725],[-93.09731,18.29645],[-93.09632,18.29276],[-93.10338,18.28622],[-93.10682,18.28796],[-93.11549,18.2834],[-93.10864,18.27822],[-93.10949,18.27436],[-93.11609,18.27557],[-93.1204,18.27237],[-93.12385,18.27601],[-93.13058,18.27157],[-93.15392,18.28457],[-93.15831,18.29343],[-93.15606,18.30022],[-93.1615,18.30903],[-93.17233,18.31953],[-93.18042,18.32011],[-93.18172,18.32329],[-93.20056,18.32513],[-93.21154,18.32042],[-93.2142,18.32349],[-93.21676,18.32188],[-93.22033,18.3305],[-93.22482,18.33122],[-93.2287,18.33056],[-93.22239,18.32364],[-93.23003,18.31908],[-93.24041,18.32153],[-93.24117,18.31876],[-93.25399,18.31909],[-93.25572,18.31536],[-93.26889,18.32214],[-93.27203,18.3192],[-93.26683,18.30693],[-93.29245,18.30478],[-93.29709,18.30676],[-93.29856,18.32127],[-93.30186,18.32194],[-93.30681,18.3173],[-93.30857,18.31956],[-93.30575,18.32863],[-93.30083,18.33219],[-93.293,18.32216],[-93.2919,18.31535],[-93.27937,18.32108],[-93.27562,18.3186],[-93.27489,18.32215],[-93.27893,18.32541],[-93.27812,18.33699],[-93.28517,18.33795],[-93.27992,18.34552],[-93.28752,18.35257],[-93.27931,18.35713],[-93.28639,18.36506],[-93.2831,18.36991],[-93.28778,18.37285],[-93.29327,18.37164],[-93.28854,18.3795],[-93.29425,18.37934],[-93.2929,18.38383],[-93.29609,18.38874],[-93.30595,18.39158],[-93.322,18.41236],[-93.3335,18.41189],[-93.35143,18.42214],[-93.35371,18.42842],[-93.35881,18.42356],[-93.3673,18.42454],[-93.37188,18.42015],[-93.38209,18.42095],[-93.38046,18.42434],[-93.39765,18.42401],[-93.4133,18.41668],[-93.42615,18.42124],[-93.42339,18.42763],[-93.42467,18.42488],[-93.42802,18.42519],[-93.42691,18.42792],[-93.43234,18.42712],[-93.4313,18.42157],[-93.44353,18.41982],[-93.44815,18.41621],[-93.44509,18.41318],[-93.44047,18.41914],[-93.43361,18.41921],[-93.43629,18.41194],[-93.44022,18.41002],[-93.43697,18.41025],[-93.43502,18.39701],[-93.46,18.38251],[-93.47301,18.39209],[-93.47652,18.40154],[-93.48982,18.40925],[-93.49829,18.4063],[-93.50158,18.39253],[-93.511,18.38484],[-93.51829,18.38902],[-93.51195,18.39941],[-93.52616,18.40356],[-93.52655,18.40825],[-93.51005,18.41243],[-93.43987,18.42724],[-93.39556,18.4336],[-93.23755,18.43949],[-93.21477,18.44227],[-93.21449,18.44593],[-93.21387,18.44697],[-93.21416,18.4412],[-93.20501,18.44121],[-93.20685,18.4325],[-93.21036,18.4319],[-93.21053,18.43047],[-93.20092,18.43457],[-93.20182,18.43611],[-93.20227,18.44156],[-93.20155,18.43847],[-93.19675,18.43879],[-93.19276,18.44364],[-93.19432,18.43336],[-93.18679,18.43116],[-93.1837,18.43768],[-93.19033,18.43788],[-93.1895,18.44756],[-93.19826,18.45311]]]}},{"type":"Feature","properties":{"code":"27007","stateCode":"27","municipalityCode":"007","name":"Emiliano Zapata"},"geometry":{"type":"Polygon","coordinates":[[[-91.76049,17.95763],[-91.7251,17.92449],[-91.7124,17.92164],[-91.71283,17.91893],[-91.67194,17.89466],[-91.68065,17.876],[-91.67505,17.87258],[-91.68551,17.86235],[-91.67849,17.85452],[-91.68404,17.8505],[-91.67878,17.84385],[-91.69168,17.83448],[-91.68632,17.83046],[-91.71019,17.786],[-91.71272,17.78614],[-91.71276,17.76508],[-91.69859,17.74698],[-91.71051,17.74318],[-91.70901,17.71428],[-91.68086,17.70925],[-91.67258,17.71638],[-91.67181,17.72866],[-91.66012,17.73876],[-91.62948,17.72373],[-91.61799,17.72656],[-91.61643,17.73347],[-91.62086,17.74123],[-91.65214,17.75438],[-91.65525,17.75736],[-91.65402,17.76148],[-91.62535,17.75978],[-91.61744,17.76591],[-91.59837,17.76161],[-91.57058,17.76182],[-91.57216,17.7419],[-91.56954,17.73204],[-91.56344,17.7266],[-91.56893,17.72519],[-91.56671,17.71266],[-91.57047,17.71274],[-91.57418,17.70242],[-91.56198,17.69905],[-91.56368,17.68893],[-91.57278,17.68398],[-91.56973,17.65708],[-91.57182,17.64926],[-91.56586,17.63821],[-91.56612,17.62992],[-91.55408,17.61859],[-91.56266,17.59567],[-91.57434,17.59479],[-91.57311,17.58262],[-91.57658,17.58152],[-91.58468,17.5683],[-91.5754,17.55761],[-91.57886,17.55308],[-91.57596,17.54743],[-91.57745,17.54351],[-91.5651,17.49138],[-91.57856,17.48885],[-91.58332,17.47456],[-91.58847,17.47586],[-91.59808,17.45524],[-91.59583,17.44093],[-91.60253,17.43309],[-91.62017,17.43166],[-91.63489,17.43649],[-91.63734,17.42996],[-91.64333,17.43099],[-91.67204,17.44406],[-91.66521,17.46166],[-91.70027,17.46776],[-91.69209,17.46702],[-91.68989,17.47506],[-91.68191,17.46945],[-91.67679,17.47588],[-91.67463,17.47154],[-91.67091,17.4745],[-91.67264,17.47814],[-91.67021,17.4764],[-91.66686,17.48212],[-91.66282,17.47982],[-91.66103,17.48737],[-91.65769,17.48666],[-91.65716,17.49125],[-91.65222,17.49219],[-91.65447,17.49669],[-91.65007,17.49569],[-91.65244,17.50041],[-91.64726,17.50405],[-91.64995,17.50579],[-91.6466,17.50914],[-91.64908,17.51777],[-91.64182,17.51892],[-91.64249,17.52902],[-91.63919,17.52961],[-91.64005,17.53313],[-91.63429,17.53462],[-91.63919,17.54159],[-91.63569,17.5427],[-91.63578,17.54742],[-91.63791,17.54709],[-91.63477,17.5505],[-91.64103,17.55801],[-91.63883,17.58147],[-91.64715,17.59019],[-91.64433,17.59145],[-91.64708,17.5924],[-91.64462,17.5957],[-91.64769,17.59418],[-91.65308,17.59867],[-91.65285,17.60321],[-91.65695,17.60399],[-91.66356,17.61217],[-91.6568,17.6122],[-91.657,17.61534],[-91.65079,17.61726],[-91.65219,17.61976],[-91.64674,17.6179],[-91.64457,17.62192],[-91.65704,17.62543],[-91.6599,17.63045],[-91.6549,17.63055],[-91.65808,17.63454],[-91.65445,17.63396],[-91.65618,17.63602],[-91.65281,17.63857],[-91.65595,17.64193],[-91.65879,17.63971],[-91.65673,17.64563],[-91.65526,17.643],[-91.65405,17.64523],[-91.6565,17.64953],[-91.65976,17.64919],[-91.65866,17.65645],[-91.66325,17.65804],[-91.66058,17.66028],[-91.66361,17.66215],[-91.66039,17.66552],[-91.66434,17.66666],[-91.65901,17.66594],[-91.65474,17.67616],[-91.65854,17.67481],[-91.66573,17.68],[-91.66582,17.68352],[-91.67299,17.68347],[-91.68138,17.67013],[-91.68302,17.67557],[-91.69371,17.685],[-91.69914,17.68276],[-91.6967,17.67961],[-91.70096,17.67894],[-91.70104,17.68968],[-91.70404,17.69223],[-91.70823,17.68813],[-91.71708,17.68775],[-91.71464,17.69501],[-91.71847,17.69477],[-91.71755,17.69841],[-91.71921,17.69327],[-91.72476,17.69206],[-91.73329,17.69658],[-91.73793,17.70539],[-91.74138,17.70577],[-91.73855,17.70688],[-91.73881,17.71081],[-91.74824,17.70018],[-91.75391,17.70535],[-91.76785,17.70312],[-91.7766,17.71543],[-91.77596,17.70916],[-91.78053,17.70782],[-91.78652,17.71903],[-91.81843,17.72743],[-91.83066,17.73768],[-91.81033,17.75132],[-91.79837,17.74418],[-91.79016,17.74602],[-91.79116,17.75654],[-91.78859,17.75652],[-91.78225,17.78248],[-91.78222,17.79195],[-91.79237,17.82452],[-91.79039,17.83542],[-91.77969,17.8513],[-91.80437,17.86887],[-91.80927,17.89685],[-91.8145,17.90049],[-91.78547,17.92344],[-91.76801,17.94855],[-91.76227,17.93901],[-91.7571,17.93973],[-91.76139,17.946],[-91.76049,17.95763]]]}},{"type":"Feature","properties":{"code":"27011","stateCode":"27","municipalityCode":"011","name":"Jonuta"},"geometry":{"type":"Polygon","coordinates":[[[-92.32253,18.47308],[-92.32155,18.46753],[-92.31056,18.46053],[-92.31029,18.45558],[-92.17615,18.45823],[-92.17736,18.37588],[-92.18195,18.3759],[-92.17136,18.33895],[-92.18043,18.28982],[-92.17723,18.28874],[-92.17443,18.2933],[-92.17295,18.27534],[-92.18324,18.27406],[-92.14894,18.21041],[-92.16442,18.19787],[-92.16056,18.18867],[-92.1609,18.15542],[-92.14878,18.1493],[-92.14904,18.13673],[-92.12834,18.12015],[-92.12742,18.10866],[-92.12166,18.10175],[-92.11638,18.10096],[-92.11011,18.09441],[-92.09223,18.09205],[-92.08297,18.08569],[-92.07954,18.08694],[-92.0768,18.09429],[-92.06802,18.09211],[-92.06217,18.09816],[-92.0526,18.09409],[-92.03994,18.09795],[-92.03599,18.08736],[-92.0421,18.07832],[-92.02824,18.07717],[-92.01443,18.05261],[-91.99215,18.03926],[-91.97878,18.04283],[-91.96675,18.01599],[-91.93536,18.0102],[-91.90972,18.01379],[-91.90035,18.01215],[-91.88811,18.00634],[-91.86721,17.98327],[-91.80464,17.97255],[-91.77119,17.94437],[-91.78547,17.92344],[-91.83164,17.88895],[-91.84534,17.88343],[-91.85438,17.88336],[-91.87069,17.89078],[-91.89416,17.8875],[-91.90297,17.89603],[-91.91813,17.89952],[-91.9255,17.89193],[-91.92391,17.88239],[-91.92806,17.87082],[-91.94423,17.86291],[-91.95261,17.86541],[-91.95742,17.87402],[-91.95543,17.88231],[-91.93943,17.90111],[-91.9403,17.90741],[-91.94499,17.91026],[-91.96993,17.9104],[-91.97845,17.91369],[-91.98516,17.92039],[-91.99296,17.93972],[-91.99989,17.94334],[-91.99129,17.91961],[-92.00336,17.89052],[-92.01555,17.8975],[-92.01925,17.89547],[-92.01971,17.88782],[-92.0297,17.88914],[-92.06707,17.87641],[-92.0718,17.87767],[-92.06731,17.87035],[-92.06054,17.87187],[-92.05246,17.86725],[-92.04941,17.85477],[-92.05631,17.84675],[-92.09047,17.8566],[-92.0905,17.85073],[-92.10203,17.85088],[-92.10646,17.83813],[-92.0994,17.83463],[-92.1046,17.82763],[-92.10554,17.81294],[-92.12048,17.79597],[-92.13987,17.80979],[-92.14044,17.8196],[-92.14544,17.82485],[-92.14408,17.83094],[-92.14975,17.83789],[-92.14953,17.84554],[-92.17826,17.86639],[-92.17039,17.90254],[-92.19334,17.90691],[-92.20318,17.90387],[-92.21061,17.89932],[-92.21906,17.88284],[-92.24356,17.89274],[-92.26413,17.90754],[-92.26409,17.9018],[-92.29584,17.91432],[-92.28924,17.92389],[-92.31393,17.9272],[-92.31895,17.93059],[-92.31273,17.94529],[-92.31636,17.9578],[-92.30592,17.96262],[-92.31867,17.98156],[-92.31816,17.98911],[-92.30753,18.00525],[-92.31265,18.00913],[-92.31282,18.01327],[-92.29929,18.02202],[-92.31668,18.02885],[-92.30758,18.03788],[-92.30738,18.04591],[-92.31583,18.04194],[-92.31355,18.0479],[-92.32227,18.04863],[-92.32283,18.06098],[-92.34291,18.06464],[-92.33626,18.07461],[-92.31018,18.09335],[-92.30697,18.09305],[-92.30591,18.08648],[-92.303,18.08671],[-92.30624,18.09811],[-92.30474,18.109],[-92.29635,18.1103],[-92.29164,18.11494],[-92.29393,18.11889],[-92.28985,18.12813],[-92.29166,18.13057],[-92.28486,18.13851],[-92.29998,18.15228],[-92.31802,18.15618],[-92.32482,18.17233],[-92.32299,18.18624],[-92.31296,18.20923],[-92.31478,18.21302],[-92.31669,18.21039],[-92.33147,18.21776],[-92.32098,18.2305],[-92.31231,18.23576],[-92.3159,18.23902],[-92.31326,18.24146],[-92.31598,18.24449],[-92.32052,18.24039],[-92.32322,18.24588],[-92.31729,18.25694],[-92.30932,18.26121],[-92.30698,18.25753],[-92.29544,18.25533],[-92.28112,18.27479],[-92.26486,18.2667],[-92.2355,18.26237],[-92.21612,18.26623],[-92.2188,18.27491],[-92.21461,18.27587],[-92.2231,18.28046],[-92.21841,18.28226],[-92.22277,18.29079],[-92.23752,18.30054],[-92.24378,18.28862],[-92.25794,18.29323],[-92.24628,18.29615],[-92.2549,18.30622],[-92.26091,18.3003],[-92.29629,18.30717],[-92.2723,18.32768],[-92.29542,18.3478],[-92.29207,18.35321],[-92.29888,18.35455],[-92.29853,18.35811],[-92.30411,18.35889],[-92.30428,18.36384],[-92.30797,18.36191],[-92.31232,18.36714],[-92.31227,18.37636],[-92.3138,18.3742],[-92.35282,18.3946],[-92.3252,18.42095],[-92.31357,18.42745],[-92.32285,18.43706],[-92.32694,18.4498],[-92.32043,18.45145],[-92.32249,18.45735],[-92.33158,18.4603],[-92.32253,18.47308]]]}},{"type":"Feature","properties":{"code":"27013","stateCode":"27","municipalityCode":"013","name":"Nacajuca"},"geometry":{"type":"Polygon","coordinates":[[[-92.94065,18.34943],[-92.92349,18.3469],[-92.91121,18.33338],[-92.89647,18.32832],[-92.88388,18.31708],[-92.88028,18.31131],[-92.88145,18.30729],[-92.86417,18.30016],[-92.86434,18.29292],[-92.85489,18.29252],[-92.84621,18.27342],[-92.84908,18.26233],[-92.84559,18.25132],[-92.83384,18.25046],[-92.83399,18.23988],[-92.82968,18.23643],[-92.84183,18.22863],[-92.84883,18.21903],[-92.85446,18.21724],[-92.85407,18.20235],[-92.84742,18.20117],[-92.87657,18.17332],[-92.86466,18.1713],[-92.87394,18.16798],[-92.86436,18.15836],[-92.8816,18.14859],[-92.8816,18.13428],[-92.88495,18.12311],[-92.89009,18.11846],[-92.88572,18.11227],[-92.89569,18.10068],[-92.89172,18.08883],[-92.89313,18.07867],[-92.89436,18.07596],[-92.9127,18.07776],[-92.91463,18.0582],[-92.90569,18.05708],[-92.90247,18.06097],[-92.89896,18.05451],[-92.90229,18.0477],[-92.90634,18.04659],[-92.90635,18.04195],[-92.91106,18.04132],[-92.91106,18.03461],[-92.91396,18.03368],[-92.91771,18.03749],[-92.92208,18.03541],[-92.91989,18.02763],[-92.92676,18.0269],[-92.9308,18.03522],[-92.93365,18.03299],[-92.9336,18.03603],[-92.94301,18.03671],[-92.94303,18.0193],[-92.95356,18.02193],[-92.95438,18.01387],[-92.97596,18.00732],[-92.98678,18.01265],[-92.98504,18.01455],[-92.98949,18.0235],[-92.98676,18.03387],[-92.99281,18.0345],[-92.9957,18.03881],[-92.98987,18.04351],[-93.00359,18.04952],[-93.01977,18.04827],[-93.01917,18.02611],[-93.02991,18.04427],[-93.02575,18.04949],[-93.0245,18.05883],[-93.03056,18.05976],[-93.0063,18.10766],[-93.01201,18.10969],[-93.01247,18.11517],[-93.02183,18.12031],[-93.01211,18.13636],[-93.02134,18.1368],[-93.02282,18.13988],[-93.01876,18.14069],[-93.0194,18.14417],[-93.03052,18.14591],[-93.0295,18.15104],[-93.03921,18.15362],[-93.03922,18.15613],[-93.03454,18.15664],[-93.03148,18.16598],[-93.0276,18.16713],[-93.02492,18.17611],[-93.03988,18.1769],[-93.03482,18.18472],[-93.02968,18.18357],[-93.03273,18.20178],[-93.04516,18.19921],[-93.05115,18.21417],[-93.06205,18.22931],[-93.05761,18.22702],[-93.05288,18.22924],[-93.05076,18.24118],[-93.03031,18.24697],[-93.03937,18.2592],[-93.03306,18.26517],[-93.03717,18.27743],[-93.02881,18.28687],[-93.03194,18.31549],[-93.01733,18.31959],[-93.01964,18.30844],[-92.94903,18.30279],[-92.94065,18.34943]]]}},{"type":"Feature","properties":{"code":"27017","stateCode":"27","municipalityCode":"017","name":"Tenosique"},"geometry":{"type":"Polygon","coordinates":[[[-91.46738,17.66505],[-91.46469,17.65745],[-91.47796,17.64248],[-91.43915,17.6176],[-91.43821,17.61968],[-91.42243,17.61643],[-91.42203,17.61935],[-91.41066,17.62602],[-91.39248,17.62511],[-91.36145,17.60902],[-91.3537,17.59851],[-91.35881,17.58634],[-91.35304,17.57909],[-91.35899,17.57234],[-91.35172,17.55923],[-91.34595,17.5601],[-91.34407,17.56586],[-91.33384,17.5563],[-91.33098,17.55781],[-91.33242,17.56397],[-91.32964,17.5616],[-91.32309,17.56279],[-91.32119,17.57398],[-91.31522,17.57203],[-91.31566,17.5755],[-91.30443,17.57961],[-91.3035,17.58285],[-91.30758,17.58643],[-91.30287,17.58866],[-91.30546,17.59381],[-91.29628,17.59104],[-91.29947,17.58815],[-91.29638,17.58712],[-91.29798,17.58328],[-91.28372,17.58364],[-91.27529,17.57866],[-91.26422,17.58371],[-91.26057,17.58249],[-91.253,17.53884],[-91.24763,17.53969],[-91.23937,17.55473],[-91.24138,17.55643],[-91.20705,17.56219],[-91.20962,17.56629],[-91.20665,17.57868],[-91.18812,17.56217],[-91.17324,17.56123],[-91.17272,17.52801],[-91.1766,17.51976],[-91.1409,17.50186],[-91.1399,17.4929],[-91.13417,17.49084],[-91.1412,17.48413],[-91.13869,17.47784],[-91.10894,17.47773],[-91.09775,17.47885],[-91.09558,17.48156],[-91.09526,17.47769],[-91.09045,17.47709],[-91.08918,17.48171],[-91.08174,17.48088],[-91.08174,17.48507],[-91.05794,17.48304],[-91.05793,17.47012],[-91.03175,17.4673],[-91.03218,17.42226],[-91.02706,17.42141],[-91.02177,17.42564],[-91.01692,17.42343],[-91.01289,17.42878],[-91.00963,17.42856],[-91.01086,17.42368],[-90.99696,17.42433],[-90.99679,17.42843],[-90.99211,17.42797],[-90.9921,17.42355],[-90.98785,17.4231],[-90.98746,17.25102],[-91.4397,17.25097],[-91.4275,17.27658],[-91.42518,17.30231],[-91.41259,17.30755],[-91.39032,17.29935],[-91.38366,17.31118],[-91.38473,17.31964],[-91.397,17.33795],[-91.41678,17.34563],[-91.41438,17.35919],[-91.41983,17.37407],[-91.4393,17.38429],[-91.44718,17.3829],[-91.45272,17.37582],[-91.4565,17.37572],[-91.505,17.39948],[-91.50994,17.3922],[-91.53685,17.40736],[-91.53724,17.41974],[-91.55209,17.42257],[-91.55786,17.42224],[-91.55879,17.40053],[-91.6069,17.41689],[-91.60895,17.4255],[-91.61749,17.42624],[-91.62017,17.43166],[-91.60253,17.43309],[-91.5966,17.43897],[-91.59808,17.45524],[-91.58847,17.47586],[-91.58332,17.47456],[-91.57856,17.48885],[-91.5651,17.49138],[-91.57745,17.54351],[-91.57596,17.54743],[-91.57886,17.55308],[-91.5754,17.55761],[-91.58468,17.5683],[-91.57658,17.58152],[-91.57311,17.58262],[-91.57434,17.59479],[-91.56266,17.59567],[-91.55408,17.61859],[-91.55108,17.61363],[-91.54178,17.61637],[-91.52948,17.64164],[-91.52005,17.64059],[-91.51384,17.65695],[-91.46738,17.66505]]]}},{"type":"Feature","properties":{"code":"27002","stateCode":"27","municipalityCode":"002","name":"Cárdenas"},"geometry":{"type":"Polygon","coordinates":[[[-93.5265,18.40761],[-93.52616,18.40356],[-93.51195,18.39941],[-93.51829,18.38902],[-93.51199,18.3849],[-93.52144,18.38087],[-93.51846,18.38041],[-93.52856,18.34426],[-93.52194,18.34325],[-93.5174,18.33381],[-93.51068,18.33646],[-93.50862,18.32729],[-93.49777,18.30903],[-93.49204,18.31185],[-93.48571,18.30713],[-93.48522,18.28749],[-93.47578,18.28147],[-93.47533,18.27779],[-93.47212,18.27794],[-93.47447,18.26313],[-93.48527,18.26139],[-93.47965,18.24706],[-93.48339,18.24531],[-93.4693,18.2332],[-93.4766,18.22534],[-93.47195,18.21772],[-93.4788,18.21101],[-93.47202,18.20401],[-93.4674,18.20755],[-93.46205,18.19903],[-93.44812,18.20112],[-93.44823,18.19595],[-93.45258,18.19639],[-93.4518,18.19446],[-93.43955,18.18649],[-93.43996,18.18417],[-93.421,18.19083],[-93.42064,18.16756],[-93.41634,18.17177],[-93.41073,18.16902],[-93.41269,18.15879],[-93.40233,18.15021],[-93.4001,18.1415],[-93.40386,18.13652],[-93.40421,18.12739],[-93.37365,18.11712],[-93.35047,18.0904],[-93.34577,18.09764],[-93.34059,18.09257],[-93.33507,18.0975],[-93.32484,18.0844],[-93.32917,18.07979],[-93.31893,18.06535],[-93.32598,18.06753],[-93.336,18.0652],[-93.34813,18.05632],[-93.34555,18.05366],[-93.33708,18.06235],[-93.32995,18.0594],[-93.3284,18.05033],[-93.32252,18.05288],[-93.31178,18.03846],[-93.32809,18.03574],[-93.32659,18.03314],[-93.33069,18.02557],[-93.32754,18.02325],[-93.31792,18.02644],[-93.3191,18.02025],[-93.30807,18.01381],[-93.30377,17.9991],[-93.28688,17.99913],[-93.2869,17.99189],[-93.29165,17.98518],[-93.28134,17.9815],[-93.28165,17.97197],[-93.29824,17.94736],[-93.31605,17.94755],[-93.32342,17.95292],[-93.33602,17.95323],[-93.3437,17.94874],[-93.3511,17.93867],[-93.35843,17.94283],[-93.36167,17.93039],[-93.36599,17.93079],[-93.36721,17.94129],[-93.38092,17.9423],[-93.38131,17.94498],[-93.36803,17.945],[-93.36821,17.94976],[-93.38696,17.9829],[-93.39038,17.98317],[-93.41901,17.97359],[-93.42055,17.97626],[-93.4217,17.97226],[-93.4332,17.97514],[-93.43154,17.97227],[-93.44819,17.97431],[-93.44882,17.97208],[-93.44951,17.97438],[-93.45009,17.97216],[-93.45383,17.97475],[-93.45376,17.97221],[-93.47535,17.97445],[-93.47556,17.97177],[-93.48197,17.97196],[-93.48658,17.97481],[-93.48655,17.97221],[-93.49448,17.97472],[-93.5071,17.97447],[-93.50801,17.97225],[-93.50852,17.97498],[-93.50873,17.97223],[-93.51398,17.97433],[-93.51995,17.97223],[-93.51997,17.97457],[-93.52171,17.97221],[-93.52348,17.97572],[-93.52416,17.97221],[-93.52722,17.97584],[-93.53109,17.97221],[-93.53265,17.97619],[-93.53615,17.96981],[-93.54196,17.9673],[-93.54141,17.95292],[-93.54522,17.95029],[-93.56245,17.95612],[-93.58867,17.95453],[-93.58897,17.98261],[-93.62065,17.9879],[-93.63194,17.99744],[-93.6078,17.99744],[-93.60798,18.04442],[-93.68344,18.04435],[-93.68342,18.06741],[-93.6883,18.08182],[-93.68642,18.08958],[-93.7308,18.08938],[-93.73066,18.05698],[-93.74853,18.06026],[-93.7431,18.07772],[-93.7591,18.08659],[-93.80193,18.0923],[-93.81875,18.10507],[-93.82337,18.10407],[-93.82709,18.09855],[-93.83324,18.09876],[-93.83654,18.1001],[-93.83594,18.1042],[-93.84578,18.10628],[-93.84967,18.09619],[-93.85837,18.09208],[-93.8776,18.10063],[-93.88676,18.09405],[-93.89735,18.11291],[-93.89181,18.11642],[-93.90232,18.11866],[-93.91049,18.15507],[-93.95603,18.14049],[-93.95655,18.15134],[-93.97409,18.14634],[-93.99227,18.13813],[-94.00805,18.12152],[-94.01892,18.12039],[-94.02502,18.13239],[-94.02405,18.1406],[-94.02804,18.14118],[-93.99042,18.16046],[-93.98917,18.17319],[-93.99614,18.19301],[-94.0121,18.19005],[-94.00984,18.19214],[-94.01379,18.1992],[-94.02076,18.19394],[-94.02651,18.19961],[-94.0358,18.19436],[-94.04347,18.19475],[-94.0395,18.18738],[-94.04657,18.19068],[-94.05082,18.18781],[-94.05883,18.19106],[-94.06592,18.20031],[-94.087,18.21134],[-94.09841,18.20624],[-94.09418,18.19565],[-94.10027,18.19214],[-94.11726,18.19449],[-94.12304,18.19261],[-94.12976,18.19874],[-94.13003,18.21285],[-94.12536,18.21665],[-94.02377,18.24605],[-93.85017,18.30061],[-93.84958,18.30297],[-93.85051,18.29855],[-93.84768,18.29815],[-93.84591,18.29901],[-93.84451,18.301],[-93.84622,18.3061],[-93.80965,18.31559],[-93.58552,18.3921],[-93.5265,18.40761]]]}},{"type":"Feature","properties":{"code":"27001","stateCode":"27","municipalityCode":"001","name":"Balancán"},"geometry":{"type":"Polygon","coordinates":[[[-91.50898,18.17097],[-91.50324,18.16508],[-91.50485,18.16123],[-91.50186,18.15557],[-91.51521,18.15495],[-91.51653,18.13049],[-91.50573,18.13],[-91.50266,18.12626],[-91.50483,18.1234],[-91.50194,18.12235],[-91.50404,18.11646],[-91.49505,18.11535],[-91.48887,18.11808],[-91.48435,18.11276],[-91.47732,18.1128],[-91.47016,18.10362],[-91.46532,18.10416],[-91.44928,18.09474],[-91.44418,18.09508],[-91.43828,18.08448],[-91.43337,18.0821],[-91.39859,18.08001],[-91.39295,18.0751],[-91.38968,18.06647],[-91.38443,18.06407],[-91.36759,18.06619],[-91.35943,18.07037],[-91.34716,18.06395],[-91.32702,18.06267],[-91.32341,18.0591],[-91.32335,18.05329],[-91.29674,18.04194],[-91.28142,18.02401],[-91.25014,18.00679],[-91.24001,17.987],[-91.22375,17.98133],[-91.21746,17.97499],[-91.20013,17.97451],[-91.19271,17.97821],[-91.18561,17.97295],[-91.1726,17.97805],[-91.14473,17.97516],[-91.15112,17.96267],[-91.13318,17.95801],[-91.13067,17.98225],[-91.11358,17.97585],[-91.1202,17.96338],[-90.98795,17.96255],[-90.98767,17.90135],[-90.99551,17.90216],[-90.99564,17.87549],[-90.98766,17.87536],[-90.98785,17.4231],[-90.9921,17.42355],[-90.99211,17.42797],[-90.99679,17.42843],[-90.99696,17.42433],[-91.01086,17.42368],[-91.00963,17.42856],[-91.01289,17.42878],[-91.01692,17.42343],[-91.02177,17.42564],[-91.02706,17.42141],[-91.03218,17.42226],[-91.03175,17.4673],[-91.05793,17.47012],[-91.05794,17.48304],[-91.08174,17.48507],[-91.08174,17.48088],[-91.08918,17.48171],[-91.09045,17.47709],[-91.09526,17.47769],[-91.09558,17.48156],[-91.09775,17.47885],[-91.10894,17.47773],[-91.13869,17.47784],[-91.1412,17.48413],[-91.13417,17.49084],[-91.1399,17.4929],[-91.1409,17.50186],[-91.1766,17.51976],[-91.17272,17.52801],[-91.17324,17.56123],[-91.18812,17.56217],[-91.20665,17.57868],[-91.20962,17.56629],[-91.20705,17.56219],[-91.24138,17.55643],[-91.23937,17.55473],[-91.24763,17.53969],[-91.253,17.53884],[-91.26057,17.58249],[-91.26422,17.58371],[-91.27529,17.57866],[-91.28372,17.58364],[-91.29798,17.58328],[-91.29638,17.58712],[-91.29947,17.58815],[-91.29628,17.59104],[-91.30546,17.59381],[-91.30287,17.58866],[-91.30758,17.58643],[-91.3035,17.58285],[-91.30443,17.57961],[-91.31566,17.5755],[-91.31522,17.57203],[-91.32119,17.57398],[-91.32309,17.56279],[-91.32964,17.5616],[-91.33242,17.56397],[-91.33098,17.55781],[-91.33384,17.5563],[-91.34407,17.56586],[-91.34595,17.5601],[-91.35172,17.55923],[-91.35883,17.57124],[-91.35304,17.57909],[-91.35881,17.58634],[-91.35349,17.59739],[-91.35973,17.60747],[-91.39248,17.62511],[-91.41066,17.62602],[-91.42203,17.61935],[-91.42243,17.61643],[-91.43821,17.61968],[-91.43915,17.6176],[-91.47796,17.64248],[-91.46469,17.65745],[-91.46738,17.66505],[-91.51384,17.65695],[-91.52005,17.64059],[-91.52948,17.64164],[-91.54178,17.61637],[-91.55108,17.61363],[-91.56612,17.62992],[-91.56586,17.63821],[-91.57165,17.64796],[-91.56973,17.65708],[-91.57278,17.68398],[-91.56368,17.68893],[-91.56198,17.69905],[-91.57418,17.70242],[-91.57047,17.71274],[-91.56671,17.71266],[-91.56893,17.72519],[-91.56344,17.7266],[-91.56954,17.73204],[-91.57216,17.7419],[-91.57058,17.76182],[-91.59837,17.76161],[-91.61744,17.76591],[-91.62535,17.75978],[-91.65402,17.76148],[-91.65525,17.75736],[-91.65214,17.75438],[-91.62086,17.74123],[-91.61643,17.73347],[-91.61799,17.72656],[-91.62948,17.72373],[-91.66012,17.73876],[-91.67181,17.72866],[-91.67258,17.71638],[-91.68086,17.70925],[-91.70901,17.71428],[-91.71051,17.74318],[-91.69859,17.74698],[-91.71276,17.76508],[-91.71272,17.78614],[-91.71019,17.786],[-91.68632,17.83046],[-91.69168,17.83448],[-91.67878,17.84385],[-91.68404,17.8505],[-91.67849,17.85452],[-91.68551,17.86235],[-91.67505,17.87258],[-91.68065,17.876],[-91.67194,17.89466],[-91.63881,17.87395],[-91.6291,17.89713],[-91.63309,17.90502],[-91.61271,17.91292],[-91.61962,17.91919],[-91.62474,17.94907],[-91.61977,17.95757],[-91.61999,17.97644],[-91.61582,17.98908],[-91.61927,18.01751],[-91.61227,18.04502],[-91.61929,18.0608],[-91.60758,18.07451],[-91.60617,18.08398],[-91.6103,18.0918],[-91.6095,18.09844],[-91.60322,18.10774],[-91.58975,18.10801],[-91.58991,18.11501],[-91.59535,18.12518],[-91.592,18.1305],[-91.5874,18.12918],[-91.5722,18.14202],[-91.58273,18.15246],[-91.57997,18.15818],[-91.55276,18.15818],[-91.53451,18.14617],[-91.52452,18.1599],[-91.52012,18.16051],[-91.51583,18.16988],[-91.50898,18.17097]]]}},{"type":"Feature","properties":{"code":"27009","stateCode":"27","municipalityCode":"009","name":"Jalapa"},"geometry":{"type":"Polygon","coordinates":[[[-92.71874,17.91536],[-92.7135,17.90633],[-92.7077,17.9054],[-92.70932,17.89478],[-92.69287,17.89381],[-92.69425,17.87554],[-92.69045,17.87113],[-92.68497,17.87483],[-92.67779,17.86867],[-92.67777,17.86605],[-92.68399,17.86403],[-92.68214,17.86],[-92.67833,17.85956],[-92.68214,17.85624],[-92.67308,17.85112],[-92.67671,17.84307],[-92.68404,17.84943],[-92.69447,17.83982],[-92.68454,17.8369],[-92.6867,17.82457],[-92.6791,17.81975],[-92.68092,17.81463],[-92.67715,17.81086],[-92.68146,17.80978],[-92.68447,17.80141],[-92.68016,17.79995],[-92.68141,17.78975],[-92.67717,17.78995],[-92.67335,17.79691],[-92.66843,17.79155],[-92.66937,17.78397],[-92.67913,17.77938],[-92.67166,17.77353],[-92.67234,17.77039],[-92.67619,17.77064],[-92.67733,17.76331],[-92.68198,17.76262],[-92.68139,17.76491],[-92.68628,17.76615],[-92.69099,17.7616],[-92.6844,17.75264],[-92.68557,17.74761],[-92.68306,17.7457],[-92.68575,17.74014],[-92.68172,17.73808],[-92.68287,17.72495],[-92.6884,17.72089],[-92.69129,17.72429],[-92.69525,17.7189],[-92.69217,17.71772],[-92.69465,17.708],[-92.68962,17.70473],[-92.6969,17.70291],[-92.69432,17.69746],[-92.69996,17.69759],[-92.70363,17.68869],[-92.69258,17.67952],[-92.69195,17.67349],[-92.6865,17.66848],[-92.68808,17.66214],[-92.68322,17.6526],[-92.68585,17.64949],[-92.71837,17.65322],[-92.71889,17.64188],[-92.72858,17.6419],[-92.72871,17.63377],[-92.73763,17.63891],[-92.73724,17.64434],[-92.74627,17.64496],[-92.74694,17.64015],[-92.75628,17.63131],[-92.76356,17.63226],[-92.76137,17.62603],[-92.78855,17.63943],[-92.78843,17.64728],[-92.79253,17.64801],[-92.81489,17.63879],[-92.81019,17.64545],[-92.8223,17.63909],[-92.83371,17.64039],[-92.83652,17.64574],[-92.83925,17.6347],[-92.87133,17.63855],[-92.87591,17.66072],[-92.87422,17.67315],[-92.8841,17.67417],[-92.88958,17.68525],[-92.90567,17.69174],[-92.90208,17.69588],[-92.90538,17.69794],[-92.90288,17.70572],[-92.90787,17.72305],[-92.91293,17.72961],[-92.9143,17.74209],[-92.89616,17.7437],[-92.89284,17.74154],[-92.88931,17.76117],[-92.909,17.76268],[-92.91106,17.76851],[-92.91223,17.76305],[-92.91801,17.76163],[-92.91733,17.75824],[-92.92672,17.75624],[-92.93245,17.77155],[-92.93741,17.77515],[-92.93583,17.78317],[-92.92854,17.78482],[-92.93134,17.79573],[-92.92598,17.79691],[-92.92197,17.78976],[-92.91873,17.80204],[-92.91136,17.80162],[-92.90131,17.78473],[-92.89318,17.78043],[-92.89566,17.78558],[-92.8937,17.792],[-92.88758,17.78986],[-92.88527,17.7945],[-92.87988,17.79411],[-92.87945,17.80476],[-92.88383,17.80812],[-92.87447,17.83071],[-92.86687,17.8352],[-92.8614,17.83262],[-92.85584,17.8437],[-92.8481,17.84452],[-92.85176,17.85999],[-92.84665,17.86027],[-92.84527,17.86485],[-92.84011,17.86364],[-92.83957,17.87044],[-92.83591,17.87054],[-92.83533,17.87788],[-92.83185,17.87973],[-92.83675,17.88608],[-92.82216,17.89744],[-92.81937,17.89208],[-92.80934,17.89216],[-92.80576,17.89748],[-92.79998,17.89478],[-92.7973,17.88883],[-92.78423,17.89106],[-92.77551,17.88368],[-92.76761,17.8862],[-92.75783,17.88338],[-92.75391,17.8905],[-92.74723,17.89422],[-92.74489,17.90232],[-92.7402,17.90189],[-92.73794,17.91269],[-92.72768,17.91191],[-92.71874,17.91536]]]}},{"type":"Feature","properties":{"code":"27016","stateCode":"27","municipalityCode":"016","name":"Teapa"},"geometry":{"type":"Polygon","coordinates":[[[-92.91047,17.76849],[-92.909,17.76268],[-92.88931,17.76117],[-92.89354,17.74067],[-92.89616,17.7437],[-92.9143,17.74209],[-92.91254,17.72787],[-92.90787,17.72305],[-92.90288,17.70572],[-92.90547,17.70148],[-92.90271,17.69303],[-92.9042,17.69494],[-92.90596,17.69253],[-92.89866,17.68919],[-92.89994,17.67982],[-92.90296,17.67921],[-92.89902,17.67824],[-92.90134,17.67145],[-92.90355,17.6738],[-92.90786,17.67164],[-92.91253,17.66084],[-92.91262,17.65321],[-92.90088,17.64287],[-92.90095,17.64012],[-92.90964,17.63641],[-92.90571,17.62351],[-92.8889,17.60715],[-92.876,17.60671],[-92.87334,17.59326],[-92.86157,17.59269],[-92.86103,17.58733],[-92.86475,17.5818],[-92.86114,17.57197],[-92.86507,17.56169],[-92.85898,17.5446],[-92.86249,17.54214],[-92.85421,17.53272],[-92.84758,17.53479],[-92.84696,17.53089],[-92.83347,17.52051],[-92.83413,17.51209],[-92.82823,17.50469],[-92.82618,17.49028],[-92.83585,17.48052],[-92.83568,17.47515],[-92.84865,17.46902],[-92.85569,17.47897],[-92.85981,17.50028],[-92.88594,17.51023],[-92.89806,17.503],[-92.90729,17.5052],[-92.91294,17.49821],[-92.92046,17.50268],[-92.9392,17.50245],[-92.94484,17.48304],[-92.95485,17.48788],[-92.96804,17.51797],[-92.97506,17.51864],[-92.97866,17.51259],[-92.98487,17.51131],[-92.983,17.51891],[-92.99265,17.53002],[-92.98219,17.53344],[-92.98049,17.53756],[-92.98837,17.54135],[-92.98834,17.55001],[-93.00533,17.55493],[-93.00769,17.56133],[-93.00443,17.5795],[-93.01075,17.5806],[-93.01687,17.59312],[-93.03157,17.59937],[-93.04053,17.60983],[-93.04415,17.62005],[-93.04514,17.6671],[-93.04051,17.66808],[-93.04443,17.67341],[-93.0404,17.67468],[-93.04182,17.68068],[-93.0379,17.68066],[-93.04203,17.68639],[-93.03912,17.69196],[-93.03793,17.68836],[-93.03715,17.69367],[-93.0408,17.69356],[-93.03788,17.69861],[-93.04023,17.70104],[-93.03712,17.70338],[-93.03885,17.70682],[-93.04314,17.70437],[-93.0415,17.70748],[-93.0448,17.70798],[-93.04478,17.71108],[-93.04206,17.71033],[-93.04437,17.71339],[-93.05384,17.71142],[-93.05347,17.71878],[-93.05773,17.72019],[-93.05412,17.72931],[-93.05428,17.7424],[-93.04687,17.74843],[-93.04777,17.75835],[-93.04437,17.76048],[-93.04264,17.76841],[-93.03986,17.76993],[-93.03659,17.76635],[-93.03723,17.76899],[-93.03345,17.77024],[-93.03146,17.76113],[-93.02306,17.76082],[-93.01897,17.75484],[-93.00997,17.75726],[-92.99894,17.74838],[-93.01315,17.7309],[-92.98619,17.71254],[-92.97984,17.71371],[-92.97667,17.71819],[-92.98063,17.73415],[-92.99542,17.73804],[-92.98624,17.75379],[-92.98324,17.74126],[-92.94878,17.75235],[-92.92393,17.73946],[-92.92298,17.74873],[-92.92672,17.75624],[-92.91733,17.75824],[-92.91801,17.76163],[-92.91223,17.76305],[-92.91047,17.76849]]]}},{"type":"Feature","properties":{"code":"27012","stateCode":"27","municipalityCode":"012","name":"Macuspana"},"geometry":{"type":"Polygon","coordinates":[[[-92.51629,18.17057],[-92.51456,18.1675],[-92.50227,18.16773],[-92.4998,18.15708],[-92.50488,18.14705],[-92.4973,18.14606],[-92.47316,18.1261],[-92.47122,18.11794],[-92.4909,18.12301],[-92.49185,18.1159],[-92.46165,18.11343],[-92.46333,18.10173],[-92.44674,18.09779],[-92.43879,18.09758],[-92.38848,18.12833],[-92.39721,18.13399],[-92.39566,18.1395],[-92.39353,18.13521],[-92.39405,18.14115],[-92.39849,18.14147],[-92.39938,18.14654],[-92.41221,18.15298],[-92.41373,18.15652],[-92.38566,18.1603],[-92.37027,18.14346],[-92.37152,18.13301],[-92.36004,18.13098],[-92.34798,18.12337],[-92.34166,18.12381],[-92.33943,18.13004],[-92.33343,18.12988],[-92.33048,18.13412],[-92.32225,18.13289],[-92.31994,18.14032],[-92.29038,18.1291],[-92.29393,18.11889],[-92.29164,18.11494],[-92.29635,18.1103],[-92.30474,18.109],[-92.30624,18.09811],[-92.303,18.08671],[-92.30591,18.08648],[-92.30697,18.09305],[-92.31018,18.09335],[-92.33626,18.07461],[-92.34291,18.06464],[-92.32283,18.06098],[-92.32227,18.04863],[-92.31355,18.0479],[-92.31583,18.04194],[-92.30738,18.04591],[-92.30758,18.03788],[-92.31668,18.02885],[-92.29929,18.02202],[-92.31282,18.01327],[-92.31265,18.00913],[-92.30753,18.00525],[-92.31712,17.99178],[-92.31873,17.98201],[-92.31155,17.97282],[-92.31294,17.96953],[-92.30592,17.96262],[-92.31636,17.9578],[-92.31273,17.94529],[-92.31961,17.93141],[-92.31393,17.9272],[-92.28924,17.92389],[-92.29584,17.91432],[-92.26409,17.9018],[-92.26413,17.90754],[-92.24356,17.89274],[-92.21906,17.88284],[-92.21061,17.89932],[-92.20318,17.90387],[-92.19334,17.90691],[-92.17039,17.90254],[-92.17826,17.86639],[-92.14953,17.84554],[-92.1493,17.83636],[-92.14485,17.83295],[-92.14534,17.82444],[-92.14059,17.8199],[-92.13802,17.81067],[-92.14658,17.81468],[-92.14662,17.81242],[-92.12714,17.7859],[-92.13597,17.77901],[-92.13083,17.76608],[-92.15171,17.76457],[-92.15245,17.77907],[-92.17195,17.78657],[-92.18849,17.76813],[-92.1945,17.77664],[-92.22934,17.74558],[-92.27462,17.69226],[-92.28868,17.70267],[-92.2948,17.69993],[-92.30867,17.70628],[-92.31332,17.70451],[-92.31528,17.70967],[-92.32809,17.71373],[-92.32956,17.71071],[-92.33735,17.71209],[-92.34013,17.70376],[-92.3499,17.70278],[-92.34916,17.65473],[-92.35494,17.65406],[-92.35586,17.64201],[-92.35813,17.64196],[-92.35067,17.61793],[-92.40086,17.58603],[-92.40208,17.57804],[-92.40822,17.58062],[-92.43678,17.5701],[-92.44505,17.57433],[-92.45622,17.57302],[-92.46762,17.57712],[-92.4972,17.57225],[-92.51998,17.57305],[-92.53007,17.55],[-92.55803,17.54023],[-92.56307,17.5457],[-92.55932,17.54851],[-92.5653,17.54981],[-92.56197,17.55294],[-92.55747,17.55169],[-92.55977,17.55524],[-92.55326,17.55372],[-92.55636,17.55805],[-92.55125,17.55772],[-92.55376,17.56108],[-92.55033,17.56217],[-92.55104,17.56489],[-92.54592,17.56491],[-92.54728,17.56964],[-92.57486,17.57266],[-92.57351,17.5918],[-92.57877,17.5924],[-92.58042,17.59688],[-92.58292,17.59634],[-92.58156,17.59355],[-92.58678,17.59633],[-92.58621,17.60026],[-92.59253,17.60557],[-92.60587,17.60494],[-92.61487,17.61447],[-92.61558,17.61102],[-92.62569,17.61278],[-92.62768,17.60276],[-92.63861,17.60691],[-92.63639,17.62517],[-92.63131,17.62435],[-92.62665,17.63136],[-92.63112,17.63547],[-92.63541,17.63502],[-92.64,17.64131],[-92.63826,17.64973],[-92.65056,17.65252],[-92.65382,17.6603],[-92.6576,17.65636],[-92.65443,17.65551],[-92.65675,17.64956],[-92.66539,17.6511],[-92.66793,17.64229],[-92.68092,17.64589],[-92.67779,17.649],[-92.68585,17.64949],[-92.68322,17.6526],[-92.68808,17.66214],[-92.6865,17.66848],[-92.69195,17.67349],[-92.69258,17.67952],[-92.7033,17.68692],[-92.70045,17.69706],[-92.69391,17.69844],[-92.6969,17.70291],[-92.68952,17.70508],[-92.69465,17.708],[-92.69217,17.71772],[-92.69525,17.7189],[-92.69129,17.72429],[-92.6884,17.72089],[-92.68287,17.72495],[-92.68172,17.73808],[-92.68575,17.74014],[-92.68306,17.7457],[-92.68557,17.74761],[-92.6844,17.75264],[-92.69099,17.7616],[-92.68628,17.76615],[-92.68139,17.76491],[-92.68198,17.76262],[-92.67733,17.76331],[-92.67619,17.77064],[-92.67234,17.77039],[-92.67166,17.77353],[-92.67913,17.77938],[-92.66937,17.78397],[-92.66843,17.79155],[-92.67335,17.79691],[-92.67717,17.78995],[-92.68141,17.78975],[-92.68016,17.79995],[-92.68447,17.80141],[-92.68146,17.80978],[-92.67715,17.81086],[-92.68092,17.81463],[-92.6791,17.81975],[-92.6867,17.82457],[-92.68454,17.8369],[-92.69447,17.83982],[-92.68404,17.84943],[-92.67717,17.84309],[-92.67362,17.84589],[-92.67378,17.85235],[-92.68214,17.85624],[-92.67833,17.85956],[-92.684,17.86378],[-92.67686,17.86734],[-92.68497,17.87483],[-92.69045,17.87113],[-92.69425,17.87554],[-92.69287,17.89381],[-92.70932,17.89478],[-92.7077,17.9054],[-92.7135,17.90633],[-92.71803,17.91495],[-92.71568,17.92273],[-92.70593,17.92135],[-92.70414,17.92968],[-92.67775,17.92741],[-92.67538,17.93094],[-92.66828,17.93195],[-92.66718,17.93615],[-92.67241,17.94334],[-92.66132,17.9492],[-92.66799,17.95519],[-92.66603,17.95863],[-92.66019,17.95868],[-92.65945,17.95445],[-92.65205,17.95585],[-92.64722,17.96304],[-92.65002,17.96947],[-92.64728,17.97123],[-92.64438,17.96812],[-92.62257,17.97309],[-92.616,17.97761],[-92.61478,17.98706],[-92.60645,17.98618],[-92.60814,17.97903],[-92.59103,17.97139],[-92.58891,17.97512],[-92.59257,17.98095],[-92.58317,18.00759],[-92.59684,18.00688],[-92.59532,18.02198],[-92.64641,18.03071],[-92.64536,18.03264],[-92.66273,18.03773],[-92.67005,18.04747],[-92.64041,18.07599],[-92.6235,18.05686],[-92.61294,18.0612],[-92.60918,18.06883],[-92.60895,18.06278],[-92.59794,18.06328],[-92.59526,18.05654],[-92.56586,18.06417],[-92.55606,18.06224],[-92.55473,18.07841],[-92.54976,18.07868],[-92.54299,18.07331],[-92.53656,18.07334],[-92.53344,18.067],[-92.53569,18.06016],[-92.52981,18.05667],[-92.53141,18.07384],[-92.5498,18.08127],[-92.55364,18.09641],[-92.54755,18.10005],[-92.54828,18.10381],[-92.52529,18.14194],[-92.5282,18.14714],[-92.53448,18.14786],[-92.53612,18.16107],[-92.51629,18.17057]]]}}]}