{"type":"FeatureCollection","features":[{"type":"Feature","properties":{"code":"29013","stateCode":"29","municipalityCode":"013","name":"Huamantla"},"geometry":{"type":"Polygon","coordinates":[[[-97.899,19.45278],[-97.89549,19.44797],[-97.88877,19.44917],[-97.88288,19.44321],[-97.88122,19.44729],[-97.8768,19.44828],[-97.8799,19.44242],[-97.87333,19.40991],[-97.87556,19.38851],[-97.86651,19.37788],[-97.8675,19.37436],[-97.86494,19.3768],[-97.85582,19.37436],[-97.8587,19.3626],[-97.85556,19.36622],[-97.8524,19.36593],[-97.84997,19.36026],[-97.84699,19.36542],[-97.82358,19.36454],[-97.82023,19.36259],[-97.82335,19.35464],[-97.80152,19.34424],[-97.80877,19.32606],[-97.81273,19.32521],[-97.81088,19.31481],[-97.81688,19.31616],[-97.82086,19.30473],[-97.83927,19.30138],[-97.83843,19.28726],[-97.85972,19.2872],[-97.87029,19.27059],[-97.89684,19.29173],[-97.91726,19.2834],[-97.9245,19.27561],[-97.95825,19.25669],[-97.96773,19.24759],[-97.97466,19.24741],[-97.97483,19.24383],[-97.98726,19.24405],[-97.99782,19.23218],[-97.98571,19.22777],[-97.98753,19.21528],[-97.97972,19.21551],[-97.97895,19.19257],[-97.99397,19.1964],[-98.03384,19.23173],[-98.03246,19.26218],[-98.03951,19.28602],[-98.0147,19.29233],[-98.00778,19.31871],[-98.01092,19.31966],[-98.00949,19.32963],[-98.01395,19.3321],[-98.01507,19.32795],[-98.03507,19.33088],[-98.03276,19.35793],[-98.03476,19.36582],[-98.02822,19.37166],[-98.01567,19.36511],[-98.00697,19.38054],[-97.99309,19.38023],[-97.99421,19.39855],[-97.98878,19.39962],[-97.99329,19.40279],[-97.98513,19.40963],[-97.98726,19.41449],[-97.97124,19.41415],[-97.96687,19.41885],[-97.95847,19.41826],[-97.94878,19.42478],[-97.93946,19.42388],[-97.93301,19.42724],[-97.92704,19.42261],[-97.9197,19.4227],[-97.91503,19.43905],[-97.90647,19.4418],[-97.899,19.45278]]]}},{"type":"Feature","properties":{"code":"29051","stateCode":"29","municipalityCode":"051","name":"San Jerónimo Zacualpan"},"geometry":{"type":"Polygon","coordinates":[[[-98.26668,19.26625],[-98.25391,19.26183],[-98.24761,19.24993],[-98.25006,19.24387],[-98.25652,19.24233],[-98.26975,19.22688],[-98.27855,19.23669],[-98.27507,19.24204],[-98.27901,19.24149],[-98.26668,19.26625]]]}},{"type":"Feature","properties":{"code":"29059","stateCode":"29","municipalityCode":"059","name":"Santa Cruz Quilehtla"},"geometry":{"type":"Polygon","coordinates":[[[-98.23166,19.22119],[-98.21134,19.21609],[-98.19645,19.21635],[-98.19458,19.21042],[-98.17226,19.21384],[-98.17366,19.20466],[-98.19544,19.2044],[-98.19701,19.21038],[-98.20571,19.21184],[-98.21418,19.21063],[-98.21511,19.20618],[-98.22995,19.20715],[-98.23166,19.22119]]]}},{"type":"Feature","properties":{"code":"29011","stateCode":"29","municipalityCode":"011","name":"Muñoz de Domingo Arenas"},"geometry":{"type":"Polygon","coordinates":[[[-98.24172,19.53836],[-98.21866,19.51292],[-98.21039,19.51365],[-98.20258,19.50567],[-98.20877,19.49916],[-98.19444,19.50333],[-98.1914,19.5015],[-98.1823,19.50601],[-98.17838,19.46378],[-98.20121,19.47302],[-98.20215,19.47076],[-98.20505,19.47277],[-98.20794,19.46302],[-98.21009,19.46382],[-98.21487,19.46842],[-98.21244,19.47835],[-98.21808,19.48355],[-98.21637,19.48562],[-98.24221,19.50937],[-98.24568,19.50949],[-98.24745,19.51417],[-98.26835,19.51526],[-98.28557,19.52414],[-98.29126,19.51448],[-98.28645,19.5124],[-98.29972,19.50765],[-98.30525,19.51158],[-98.29866,19.53781],[-98.27761,19.53477],[-98.26883,19.53637],[-98.24562,19.53023],[-98.24172,19.53836]]]}},{"type":"Feature","properties":{"code":"29060","stateCode":"29","municipalityCode":"060","name":"Santa Isabel Xiloxoxtla"},"geometry":{"type":"Polygon","coordinates":[[[-98.225,19.27875],[-98.20601,19.27589],[-98.20978,19.27537],[-98.20887,19.26945],[-98.20357,19.26537],[-98.19607,19.26513],[-98.19661,19.2595],[-98.18794,19.25683],[-98.1891,19.25234],[-98.19243,19.24902],[-98.20419,19.25004],[-98.20275,19.24786],[-98.20732,19.24653],[-98.20738,19.25491],[-98.21653,19.25732],[-98.21534,19.25988],[-98.2191,19.26124],[-98.22028,19.27661],[-98.225,19.27875]]]}},{"type":"Feature","properties":{"code":"29009","stateCode":"29","municipalityCode":"009","name":"Cuaxomulco"},"geometry":{"type":"Polygon","coordinates":[[[-98.06949,19.36728],[-98.05969,19.35772],[-98.06023,19.35072],[-98.05613,19.34433],[-98.0608,19.34088],[-98.07626,19.35117],[-98.08068,19.34854],[-98.07703,19.33953],[-98.09161,19.33279],[-98.08698,19.32933],[-98.08991,19.32565],[-98.07959,19.32137],[-98.08041,19.3193],[-98.08748,19.31974],[-98.10516,19.33474],[-98.11369,19.34623],[-98.12245,19.35097],[-98.11619,19.35683],[-98.12276,19.3585],[-98.12121,19.36355],[-98.10716,19.367],[-98.08367,19.35709],[-98.0753,19.35909],[-98.07792,19.36409],[-98.06949,19.36728]]]}},{"type":"Feature","properties":{"code":"29030","stateCode":"29","municipalityCode":"030","name":"Terrenate"},"geometry":{"type":"Polygon","coordinates":[[[-97.95723,19.5455],[-97.94246,19.53885],[-97.93265,19.53908],[-97.93323,19.53423],[-97.92754,19.52659],[-97.92474,19.5266],[-97.92246,19.53475],[-97.91509,19.53804],[-97.91563,19.54223],[-97.86949,19.54235],[-97.87168,19.53215],[-97.88762,19.51745],[-97.88971,19.50445],[-97.88149,19.4998],[-97.87468,19.50328],[-97.87191,19.49855],[-97.85817,19.49313],[-97.84874,19.48278],[-97.84721,19.47463],[-97.8621,19.45624],[-97.88063,19.45546],[-97.89446,19.44744],[-97.89951,19.45314],[-97.90647,19.4418],[-97.91445,19.43989],[-97.91857,19.43384],[-97.9197,19.4227],[-97.92704,19.42261],[-97.93301,19.42724],[-97.93946,19.42388],[-97.94878,19.42478],[-97.95847,19.41826],[-97.96687,19.41885],[-97.96946,19.41483],[-97.98516,19.42914],[-97.99338,19.44255],[-97.99939,19.43835],[-98.00715,19.43796],[-97.99989,19.44915],[-97.9881,19.45832],[-97.98264,19.48038],[-97.99608,19.48733],[-97.9957,19.49013],[-98.03512,19.49909],[-98.03915,19.50533],[-98.03089,19.5134],[-98.02233,19.51454],[-98.02783,19.51059],[-98.01809,19.50581],[-98.00591,19.5045],[-98.006,19.50046],[-97.99469,19.5133],[-97.99469,19.50459],[-97.98822,19.50179],[-97.98114,19.50683],[-97.98183,19.52172],[-97.97136,19.5306],[-97.97268,19.54153],[-97.95723,19.5455]]]}},{"type":"Feature","properties":{"code":"29021","stateCode":"29","municipalityCode":"021","name":"Nanacamilpa de Mariano Arista"},"geometry":{"type":"Polygon","coordinates":[[[-98.50673,19.56719],[-98.50272,19.54464],[-98.49481,19.53644],[-98.49038,19.53612],[-98.49044,19.53339],[-98.48852,19.53606],[-98.47091,19.53356],[-98.47231,19.54288],[-98.46741,19.54138],[-98.45943,19.5443],[-98.44814,19.53922],[-98.45341,19.52938],[-98.464,19.53104],[-98.47242,19.51522],[-98.48352,19.50921],[-98.49445,19.50752],[-98.5027,19.50072],[-98.50212,19.49528],[-98.51796,19.488],[-98.51811,19.47658],[-98.52793,19.47788],[-98.52951,19.46895],[-98.53648,19.46621],[-98.53914,19.46938],[-98.54304,19.46491],[-98.5415,19.46082],[-98.57028,19.46677],[-98.59128,19.44921],[-98.60916,19.45061],[-98.62941,19.45702],[-98.63722,19.47527],[-98.63765,19.48617],[-98.62481,19.50434],[-98.61574,19.50772],[-98.6107,19.51555],[-98.60334,19.50149],[-98.57508,19.51782],[-98.54726,19.54014],[-98.53946,19.5343],[-98.52531,19.54912],[-98.51782,19.54551],[-98.51701,19.55171],[-98.51006,19.55795],[-98.50673,19.56719]]]}},{"type":"Feature","properties":{"code":"29058","stateCode":"29","municipalityCode":"058","name":"Santa Catarina Ayometla"},"geometry":{"type":"Polygon","coordinates":[[[-98.21418,19.21063],[-98.19701,19.21038],[-98.19544,19.2044],[-98.20814,19.20341],[-98.21135,19.19661],[-98.2005,19.19556],[-98.20076,19.18509],[-98.20428,19.18596],[-98.21519,19.17439],[-98.22607,19.1746],[-98.23111,19.18974],[-98.23059,19.20736],[-98.21511,19.20618],[-98.21418,19.21063]]]}},{"type":"Feature","properties":{"code":"29046","stateCode":"29","municipalityCode":"046","name":"Emiliano Zapata"},"geometry":{"type":"Polygon","coordinates":[[[-97.95391,19.60444],[-97.95039,19.60264],[-97.95016,19.58964],[-97.94671,19.58563],[-97.93986,19.58875],[-97.92491,19.58854],[-97.91615,19.59402],[-97.90792,19.57936],[-97.8925,19.57259],[-97.88102,19.57136],[-97.86931,19.55811],[-97.86949,19.54235],[-97.91563,19.54223],[-97.91509,19.53804],[-97.92246,19.53475],[-97.92474,19.5266],[-97.92754,19.52659],[-97.93323,19.53423],[-97.93265,19.53908],[-97.94246,19.53885],[-97.95064,19.54379],[-97.95461,19.55554],[-97.96824,19.54893],[-97.96827,19.55997],[-97.98333,19.57204],[-97.97118,19.58273],[-97.96339,19.5809],[-97.96557,19.58525],[-97.96214,19.58849],[-97.96068,19.59903],[-97.95391,19.60444]]]}},{"type":"Feature","properties":{"code":"29035","stateCode":"29","municipalityCode":"035","name":"Tocatlán"},"geometry":{"type":"Polygon","coordinates":[[[-98.01618,19.41577],[-97.99421,19.39855],[-97.99309,19.38023],[-98.00697,19.38054],[-98.01567,19.36511],[-98.03732,19.37753],[-98.03378,19.38604],[-98.04171,19.38631],[-98.04224,19.39036],[-98.03362,19.39204],[-98.03678,19.39446],[-98.03387,19.39707],[-98.02011,19.40266],[-98.01618,19.41577]]]}},{"type":"Feature","properties":{"code":"29025","stateCode":"29","municipalityCode":"025","name":"San Pablo del Monte"},"geometry":{"type":"Polygon","coordinates":[[[-98.1102,19.21645],[-98.11045,19.20533],[-98.10068,19.18337],[-98.09936,19.16139],[-98.11016,19.14321],[-98.1497,19.11387],[-98.14476,19.12127],[-98.14953,19.12088],[-98.16475,19.10545],[-98.18654,19.11595],[-98.20435,19.11493],[-98.19164,19.12194],[-98.19714,19.1275],[-98.16685,19.15011],[-98.17222,19.15416],[-98.16799,19.16078],[-98.15622,19.16587],[-98.127,19.21467],[-98.1102,19.21645]]]}},{"type":"Feature","properties":{"code":"29052","stateCode":"29","municipalityCode":"052","name":"San José Teacalco"},"geometry":{"type":"Polygon","coordinates":[[[-98.04959,19.35997],[-98.03799,19.35444],[-98.03369,19.35549],[-98.0348,19.33064],[-98.01507,19.32795],[-98.01402,19.33212],[-98.00949,19.32963],[-98.01,19.30757],[-98.0147,19.29233],[-98.0194,19.28993],[-98.03119,19.28956],[-98.04293,19.28485],[-98.04108,19.28803],[-98.04453,19.29043],[-98.05109,19.31044],[-98.05837,19.31771],[-98.06709,19.31115],[-98.07389,19.31821],[-98.07946,19.31262],[-98.08548,19.31894],[-98.07959,19.32137],[-98.08991,19.32565],[-98.08698,19.32933],[-98.09051,19.33411],[-98.07703,19.33953],[-98.08068,19.34854],[-98.07626,19.35117],[-98.0608,19.34088],[-98.05613,19.34433],[-98.06163,19.35944],[-98.04959,19.35997]]]}},{"type":"Feature","properties":{"code":"29031","stateCode":"29","municipalityCode":"031","name":"Tetla de la Solidaridad"},"geometry":{"type":"Polygon","coordinates":[[[-98.0497,19.57167],[-98.03589,19.55154],[-98.02913,19.55591],[-98.02478,19.5452],[-98.00536,19.54003],[-98.02274,19.5221],[-98.01768,19.51885],[-98.01929,19.51622],[-98.03089,19.5134],[-98.03907,19.50383],[-98.03512,19.49909],[-97.9957,19.49013],[-97.99608,19.48733],[-97.98264,19.48038],[-97.9881,19.45832],[-97.99989,19.44915],[-98.01131,19.43324],[-98.04133,19.44883],[-98.03519,19.44071],[-98.04494,19.43536],[-98.04861,19.43999],[-98.05044,19.43769],[-98.05634,19.44189],[-98.05902,19.43869],[-98.07715,19.44113],[-98.08296,19.43235],[-98.09357,19.43439],[-98.09064,19.4258],[-98.09358,19.42042],[-98.10006,19.42184],[-98.10788,19.41852],[-98.11151,19.43223],[-98.11518,19.42821],[-98.11678,19.43078],[-98.11695,19.43789],[-98.13149,19.42455],[-98.13622,19.42791],[-98.13829,19.42455],[-98.14325,19.42609],[-98.14737,19.45738],[-98.15316,19.46076],[-98.15447,19.45884],[-98.15682,19.47867],[-98.16027,19.48021],[-98.16492,19.47257],[-98.17235,19.47097],[-98.17917,19.4743],[-98.18144,19.48939],[-98.17077,19.49691],[-98.16058,19.49432],[-98.15379,19.50389],[-98.15708,19.51068],[-98.14724,19.51371],[-98.13987,19.51209],[-98.13456,19.5194],[-98.12997,19.51642],[-98.13681,19.50637],[-98.12076,19.50193],[-98.11274,19.50677],[-98.11309,19.51677],[-98.09024,19.5227],[-98.08804,19.5209],[-98.08333,19.52442],[-98.07164,19.51089],[-98.07063,19.52466],[-98.06301,19.53534],[-98.05891,19.53597],[-98.06235,19.53974],[-98.0563,19.55231],[-98.05743,19.5652],[-98.0497,19.57167]]]}},{"type":"Feature","properties":{"code":"29032","stateCode":"29","municipalityCode":"032","name":"Tetlatlahuca"},"geometry":{"type":"Polygon","coordinates":[[[-98.27032,19.28061],[-98.25729,19.26396],[-98.26688,19.26627],[-98.27836,19.24412],[-98.279,19.24123],[-98.27506,19.24201],[-98.27855,19.23669],[-98.26976,19.2275],[-98.27357,19.21164],[-98.28013,19.2082],[-98.28469,19.21346],[-98.29193,19.20433],[-98.28237,19.19782],[-98.29153,19.18427],[-98.29563,19.18926],[-98.30278,19.18808],[-98.31626,19.19186],[-98.30207,19.19775],[-98.30435,19.20156],[-98.30298,19.20927],[-98.30059,19.20841],[-98.30314,19.2163],[-98.29784,19.21829],[-98.30547,19.25181],[-98.30225,19.26311],[-98.2877,19.26222],[-98.28473,19.27226],[-98.27738,19.27343],[-98.27032,19.28061]]]}},{"type":"Feature","properties":{"code":"29024","stateCode":"29","municipalityCode":"024","name":"Panotla"},"geometry":{"type":"Polygon","coordinates":[[[-98.28233,19.41436],[-98.27135,19.40755],[-98.25014,19.38529],[-98.24874,19.3799],[-98.25574,19.36727],[-98.25543,19.35912],[-98.25176,19.35592],[-98.25339,19.34815],[-98.25057,19.34557],[-98.25304,19.34262],[-98.26507,19.3472],[-98.26709,19.33944],[-98.26387,19.33908],[-98.26177,19.32976],[-98.26907,19.32231],[-98.27249,19.32265],[-98.27238,19.31987],[-98.28963,19.32478],[-98.28967,19.32065],[-98.25768,19.31658],[-98.2672,19.30656],[-98.29445,19.28964],[-98.30357,19.29445],[-98.29876,19.30597],[-98.30229,19.31119],[-98.30034,19.31926],[-98.30486,19.31275],[-98.3079,19.31443],[-98.31393,19.29861],[-98.3206,19.30048],[-98.32062,19.31743],[-98.3191,19.32644],[-98.31162,19.32674],[-98.30446,19.33789],[-98.30801,19.33912],[-98.30001,19.34466],[-98.30018,19.34731],[-98.3101,19.35046],[-98.30533,19.35726],[-98.30872,19.36486],[-98.30546,19.37838],[-98.31071,19.38593],[-98.30636,19.39146],[-98.2947,19.395],[-98.29999,19.40134],[-98.28997,19.40375],[-98.28233,19.41436]]]}},{"type":"Feature","properties":{"code":"29042","stateCode":"29","municipalityCode":"042","name":"Xicohtzinco"},"geometry":{"type":"Polygon","coordinates":[[[-98.23631,19.18701],[-98.23057,19.18661],[-98.22424,19.16608],[-98.23013,19.16556],[-98.23788,19.15586],[-98.26222,19.16075],[-98.25955,19.17069],[-98.24988,19.17137],[-98.24727,19.17942],[-98.23631,19.18701]]]}},{"type":"Feature","properties":{"code":"29053","stateCode":"29","municipalityCode":"053","name":"San Juan Huactzinco"},"geometry":{"type":"Polygon","coordinates":[[[-98.24788,19.25335],[-98.24046,19.24832],[-98.24517,19.24135],[-98.24007,19.23316],[-98.25143,19.2262],[-98.2589,19.22741],[-98.26353,19.22222],[-98.2708,19.2238],[-98.26051,19.23858],[-98.24937,19.2447],[-98.24788,19.25335]]]}},{"type":"Feature","properties":{"code":"29034","stateCode":"29","municipalityCode":"034","name":"Tlaxco"},"geometry":{"type":"Polygon","coordinates":[[[-98.05625,19.72602],[-98.05321,19.7136],[-98.04007,19.69959],[-98.03984,19.68951],[-98.03638,19.68552],[-98.03788,19.64847],[-98.04221,19.64022],[-97.98077,19.62858],[-97.97332,19.62417],[-97.95558,19.60315],[-97.96068,19.59903],[-97.96214,19.58849],[-97.96557,19.58525],[-97.96339,19.5809],[-97.97118,19.58273],[-97.98697,19.5692],[-97.98496,19.56573],[-97.99398,19.55644],[-98.0001,19.54296],[-98.005,19.5401],[-98.02478,19.5452],[-98.02913,19.55591],[-98.03589,19.55154],[-98.0469,19.57066],[-98.05031,19.5718],[-98.05743,19.5652],[-98.0563,19.55231],[-98.06235,19.53974],[-98.05891,19.53597],[-98.06301,19.53534],[-98.07063,19.52466],[-98.07164,19.51089],[-98.08333,19.52442],[-98.08804,19.5209],[-98.10148,19.52005],[-98.10661,19.52618],[-98.10449,19.53074],[-98.12809,19.54501],[-98.12878,19.54834],[-98.12561,19.55018],[-98.13335,19.56525],[-98.13755,19.56525],[-98.14451,19.54877],[-98.14818,19.55274],[-98.1475,19.55729],[-98.15418,19.5622],[-98.15888,19.55869],[-98.16787,19.55933],[-98.15972,19.56523],[-98.16184,19.56846],[-98.16357,19.56727],[-98.16502,19.56709],[-98.16542,19.56719],[-98.15748,19.58712],[-98.16363,19.59408],[-98.17828,19.58695],[-98.17449,19.59505],[-98.17574,19.59895],[-98.18423,19.60429],[-98.18977,19.60254],[-98.18874,19.59045],[-98.19396,19.58816],[-98.19903,19.59302],[-98.20379,19.5932],[-98.20385,19.58502],[-98.2091,19.58956],[-98.22327,19.59296],[-98.23282,19.59081],[-98.23353,19.58655],[-98.24248,19.58611],[-98.24224,19.58938],[-98.24641,19.59006],[-98.25232,19.57989],[-98.24786,19.58127],[-98.23913,19.56193],[-98.24435,19.55297],[-98.24544,19.5439],[-98.24172,19.53836],[-98.24562,19.53023],[-98.26883,19.53637],[-98.27761,19.53477],[-98.32262,19.54295],[-98.32049,19.55028],[-98.32226,19.56669],[-98.36826,19.57346],[-98.37204,19.58001],[-98.36201,19.58639],[-98.36621,19.59449],[-98.37658,19.58785],[-98.3817,19.60936],[-98.3238,19.6853],[-98.32095,19.70101],[-98.33005,19.69904],[-98.33331,19.70933],[-98.33167,19.72232],[-98.31109,19.72773],[-98.30156,19.72308],[-98.29176,19.7259],[-98.27967,19.71688],[-98.28166,19.72626],[-98.27198,19.72458],[-98.26564,19.71701],[-98.25532,19.71883],[-98.25241,19.69313],[-98.24435,19.68538],[-98.24107,19.67584],[-98.22808,19.68042],[-98.22802,19.67445],[-98.20958,19.67717],[-98.20686,19.67468],[-98.19504,19.67505],[-98.18982,19.67101],[-98.19025,19.67795],[-98.18737,19.67973],[-98.1813,19.6737],[-98.17017,19.67313],[-98.16556,19.66748],[-98.14864,19.67691],[-98.14861,19.68092],[-98.14373,19.68365],[-98.11774,19.68826],[-98.10651,19.68178],[-98.10002,19.67116],[-98.10101,19.66805],[-98.09092,19.67762],[-98.0927,19.6833],[-98.09045,19.68946],[-98.08389,19.69379],[-98.08281,19.70076],[-98.07429,19.70069],[-98.0644,19.70901],[-98.06811,19.71601],[-98.06597,19.72808],[-98.05625,19.72602]]]}},{"type":"Feature","properties":{"code":"29006","stateCode":"29","municipalityCode":"006","name":"Calpulalpan"},"geometry":{"type":"Polygon","coordinates":[[[-98.56638,19.64025],[-98.56137,19.6376],[-98.56372,19.62715],[-98.55561,19.6281],[-98.55574,19.62539],[-98.55017,19.62455],[-98.5504,19.61858],[-98.53558,19.63442],[-98.52595,19.61944],[-98.52826,19.61432],[-98.51924,19.6024],[-98.50232,19.6032],[-98.49161,19.60737],[-98.47305,19.5752],[-98.43592,19.56727],[-98.4387,19.53867],[-98.45381,19.54009],[-98.45943,19.5443],[-98.46741,19.54138],[-98.47231,19.54288],[-98.47091,19.53356],[-98.48852,19.53606],[-98.49044,19.53339],[-98.49038,19.53612],[-98.49481,19.53644],[-98.50272,19.54464],[-98.50681,19.56721],[-98.51006,19.55795],[-98.51701,19.55171],[-98.51782,19.54551],[-98.52531,19.54912],[-98.53946,19.5343],[-98.54726,19.54014],[-98.57508,19.51782],[-98.60334,19.50149],[-98.6107,19.51555],[-98.61574,19.50772],[-98.62481,19.50434],[-98.63625,19.4902],[-98.63794,19.47883],[-98.63411,19.46785],[-98.64054,19.4633],[-98.65323,19.46599],[-98.66102,19.47843],[-98.6604,19.4855],[-98.67567,19.49946],[-98.68191,19.51801],[-98.70002,19.53131],[-98.70161,19.54581],[-98.7084,19.5476],[-98.70546,19.55248],[-98.70813,19.55481],[-98.69951,19.56715],[-98.70201,19.56526],[-98.70127,19.57094],[-98.69481,19.57064],[-98.69327,19.57608],[-98.68911,19.57686],[-98.69243,19.58588],[-98.68151,19.58792],[-98.68138,19.59828],[-98.67818,19.59997],[-98.67008,19.59848],[-98.66558,19.60615],[-98.65331,19.60783],[-98.6447,19.60697],[-98.63469,19.59776],[-98.63101,19.60199],[-98.60984,19.60201],[-98.59035,19.61936],[-98.57994,19.63742],[-98.56638,19.64025]]]}},{"type":"Feature","properties":{"code":"29044","stateCode":"29","municipalityCode":"044","name":"Zacatelco"},"geometry":{"type":"Polygon","coordinates":[[[-98.24074,19.23266],[-98.23061,19.2271],[-98.23342,19.2247],[-98.23055,19.22202],[-98.23057,19.18661],[-98.24051,19.18544],[-98.25142,19.17031],[-98.25955,19.17069],[-98.26222,19.16075],[-98.27945,19.16797],[-98.30631,19.18876],[-98.29563,19.18926],[-98.29153,19.18427],[-98.28237,19.19782],[-98.29193,19.20433],[-98.28469,19.21346],[-98.28013,19.2082],[-98.27357,19.21164],[-98.26922,19.19921],[-98.26253,19.21108],[-98.26003,19.20905],[-98.25253,19.21946],[-98.24451,19.22203],[-98.24074,19.23266]]]}},{"type":"Feature","properties":{"code":"29049","stateCode":"29","municipalityCode":"049","name":"San Damián Texóloc"},"geometry":{"type":"Polygon","coordinates":[[[-98.30085,19.31958],[-98.30183,19.30745],[-98.29876,19.30597],[-98.30357,19.29445],[-98.2803,19.2828],[-98.27756,19.28441],[-98.27352,19.27663],[-98.28473,19.27226],[-98.2877,19.26222],[-98.30225,19.26311],[-98.29844,19.28282],[-98.31493,19.28677],[-98.32076,19.29244],[-98.3206,19.30048],[-98.31393,19.29861],[-98.3079,19.31443],[-98.30454,19.31297],[-98.30085,19.31958]]]}},{"type":"Feature","properties":{"code":"29040","stateCode":"29","municipalityCode":"040","name":"Xaltocan"},"geometry":{"type":"Polygon","coordinates":[[[-98.21808,19.48355],[-98.21244,19.47835],[-98.21487,19.46842],[-98.21009,19.46382],[-98.20794,19.46302],[-98.20505,19.47277],[-98.20215,19.47076],[-98.20121,19.47302],[-98.17838,19.46378],[-98.17981,19.438],[-98.17734,19.43136],[-98.1888,19.43174],[-98.19287,19.42317],[-98.1905,19.41765],[-98.19661,19.41009],[-98.20515,19.41577],[-98.20797,19.41313],[-98.20296,19.40013],[-98.21622,19.39454],[-98.21251,19.38687],[-98.19867,19.38363],[-98.2022,19.37653],[-98.2291,19.38567],[-98.23497,19.38207],[-98.23005,19.37599],[-98.22958,19.3676],[-98.23737,19.36247],[-98.23691,19.35687],[-98.2418,19.35457],[-98.24646,19.35878],[-98.2527,19.35664],[-98.25574,19.36727],[-98.24874,19.3799],[-98.25014,19.38529],[-98.28093,19.41424],[-98.28616,19.41234],[-98.2919,19.40335],[-98.29522,19.40292],[-98.29808,19.41161],[-98.29725,19.43735],[-98.2917,19.45852],[-98.28307,19.47158],[-98.28285,19.47751],[-98.28712,19.48322],[-98.27025,19.47945],[-98.26921,19.47691],[-98.26061,19.4786],[-98.24524,19.45121],[-98.23166,19.46374],[-98.24627,19.47298],[-98.24739,19.47622],[-98.24396,19.47581],[-98.24251,19.48259],[-98.2362,19.48167],[-98.22837,19.47084],[-98.2273,19.4761],[-98.2186,19.47938],[-98.21808,19.48355]]]}},{"type":"Feature","properties":{"code":"29026","stateCode":"29","municipalityCode":"026","name":"Santa Cruz Tlaxcala"},"geometry":{"type":"Polygon","coordinates":[[[-98.12458,19.40401],[-98.1215,19.39665],[-98.12746,19.3743],[-98.13023,19.3728],[-98.12879,19.36594],[-98.1207,19.3615],[-98.12276,19.3585],[-98.11621,19.35691],[-98.12199,19.35041],[-98.11369,19.34623],[-98.09277,19.3248],[-98.09544,19.31924],[-98.11022,19.32254],[-98.11559,19.31776],[-98.1334,19.33085],[-98.15326,19.3383],[-98.14968,19.34321],[-98.16142,19.35835],[-98.14951,19.37259],[-98.14017,19.37811],[-98.14132,19.38466],[-98.13914,19.37906],[-98.13425,19.37987],[-98.13907,19.39297],[-98.13057,19.39562],[-98.13255,19.40212],[-98.12458,19.40401]]]}},{"type":"Feature","properties":{"code":"29055","stateCode":"29","municipalityCode":"055","name":"San Lucas Tecopilco"},"geometry":{"type":"Polygon","coordinates":[[[-98.28478,19.52374],[-98.26835,19.51526],[-98.24741,19.51416],[-98.24568,19.50949],[-98.24221,19.50937],[-98.21637,19.48562],[-98.2186,19.47938],[-98.2273,19.4761],[-98.22837,19.47084],[-98.2362,19.48167],[-98.24251,19.48259],[-98.24396,19.47581],[-98.24739,19.47622],[-98.24627,19.47298],[-98.23166,19.46374],[-98.24488,19.45137],[-98.24839,19.45317],[-98.26061,19.4786],[-98.26921,19.47691],[-98.27025,19.47945],[-98.28872,19.4843],[-98.28598,19.49506],[-98.27609,19.50808],[-98.29126,19.51448],[-98.28478,19.52374]]]}},{"type":"Feature","properties":{"code":"29022","stateCode":"29","municipalityCode":"022","name":"Acuamanala de Miguel Hidalgo"},"geometry":{"type":"Polygon","coordinates":[[[-98.17517,19.23096],[-98.17473,19.22485],[-98.15986,19.2205],[-98.14146,19.21897],[-98.12265,19.22198],[-98.12914,19.21146],[-98.16645,19.20146],[-98.17602,19.20174],[-98.17226,19.21384],[-98.1899,19.20992],[-98.19458,19.21042],[-98.19645,19.21635],[-98.21321,19.21647],[-98.2114,19.22574],[-98.20737,19.22438],[-98.2078,19.22727],[-98.17517,19.23096]]]}},{"type":"Feature","properties":{"code":"29001","stateCode":"29","municipalityCode":"001","name":"Amaxac de Guerrero"},"geometry":{"type":"MultiPolygon","coordinates":[[[[-98.14996,19.37191],[-98.16142,19.35835],[-98.14968,19.34321],[-98.15318,19.33848],[-98.17906,19.34326],[-98.17887,19.35027],[-98.17393,19.35727],[-98.17754,19.35917],[-98.17807,19.35547],[-98.18486,19.35818],[-98.18394,19.36467],[-98.17711,19.36325],[-98.1677,19.37158],[-98.15112,19.37402],[-98.14996,19.37191]]],[[[-98.22833,19.38595],[-98.2022,19.37653],[-98.20429,19.37187],[-98.21861,19.37055],[-98.2235,19.37347],[-98.23023,19.37089],[-98.232,19.38083],[-98.23497,19.38207],[-98.22833,19.38595]]]]}},{"type":"Feature","properties":{"code":"29037","stateCode":"29","municipalityCode":"037","name":"Ziltlaltépec de Trinidad Sánchez Santos"},"geometry":{"type":"Polygon","coordinates":[[[-97.8652,19.25382],[-97.87049,19.24006],[-97.86038,19.24408],[-97.85099,19.22293],[-97.86212,19.21384],[-97.89322,19.20031],[-97.89558,19.19752],[-97.89421,19.19115],[-97.88984,19.18696],[-97.90461,19.17759],[-97.90802,19.18083],[-97.91137,19.17961],[-97.91507,19.17317],[-97.9282,19.16421],[-97.97895,19.19257],[-97.97972,19.21551],[-97.98753,19.21528],[-97.98571,19.22777],[-97.99782,19.23218],[-97.98726,19.24405],[-97.97438,19.23856],[-97.92635,19.24075],[-97.91322,19.22785],[-97.90188,19.22871],[-97.89775,19.23829],[-97.87794,19.24147],[-97.8652,19.25382]]]}},{"type":"Feature","properties":{"code":"29054","stateCode":"29","municipalityCode":"054","name":"San Lorenzo Axocomanitla"},"geometry":{"type":"Polygon","coordinates":[[[-98.24236,19.231],[-98.24451,19.22203],[-98.25253,19.21946],[-98.26003,19.20905],[-98.26253,19.21108],[-98.26989,19.1996],[-98.27373,19.2127],[-98.27107,19.22406],[-98.26353,19.22222],[-98.2589,19.22741],[-98.25143,19.2262],[-98.24236,19.231]]]}},{"type":"Feature","properties":{"code":"29036","stateCode":"29","municipalityCode":"036","name":"Totolac"},"geometry":{"type":"Polygon","coordinates":[[[-98.24685,19.35885],[-98.2418,19.35457],[-98.23691,19.35687],[-98.22308,19.33584],[-98.2241,19.33028],[-98.23977,19.32101],[-98.24603,19.32723],[-98.25768,19.31658],[-98.28967,19.32065],[-98.28963,19.32478],[-98.27654,19.32269],[-98.27541,19.32023],[-98.26907,19.32231],[-98.26159,19.33052],[-98.26395,19.33921],[-98.26709,19.33944],[-98.26632,19.34551],[-98.26416,19.34783],[-98.25233,19.34294],[-98.2527,19.35664],[-98.24685,19.35885]]]}},{"type":"Feature","properties":{"code":"29010","stateCode":"29","municipalityCode":"010","name":"Chiautempan"},"geometry":{"type":"Polygon","coordinates":[[[-98.18615,19.32908],[-98.18351,19.3252],[-98.14468,19.30908],[-98.1414,19.31014],[-98.14418,19.31485],[-98.1398,19.31411],[-98.12066,19.3001],[-98.11497,19.30131],[-98.10628,19.29727],[-98.11582,19.30799],[-98.09199,19.3002],[-98.08382,19.30057],[-98.07663,19.29583],[-98.07252,19.30284],[-98.07946,19.31262],[-98.07389,19.31821],[-98.06709,19.31115],[-98.05837,19.31771],[-98.05109,19.31044],[-98.04448,19.29038],[-98.063,19.28624],[-98.0702,19.28076],[-98.06913,19.27836],[-98.07298,19.2789],[-98.08559,19.25627],[-98.09337,19.24969],[-98.12845,19.2589],[-98.16208,19.26881],[-98.16096,19.27616],[-98.18645,19.28674],[-98.18597,19.29054],[-98.18956,19.29343],[-98.18754,19.29667],[-98.19521,19.30247],[-98.20433,19.28852],[-98.21382,19.29293],[-98.21697,19.29829],[-98.20989,19.31771],[-98.21865,19.31704],[-98.21486,19.31962],[-98.21502,19.32354],[-98.20257,19.32135],[-98.19773,19.32278],[-98.19788,19.3266],[-98.19044,19.32378],[-98.18615,19.32908]]]}},{"type":"Feature","properties":{"code":"29033","stateCode":"29","municipalityCode":"033","name":"Tlaxcala"},"geometry":{"type":"Polygon","coordinates":[[[-98.22072,19.37186],[-98.20913,19.36453],[-98.19986,19.34458],[-98.21085,19.32863],[-98.19405,19.32957],[-98.19403,19.32533],[-98.19788,19.3266],[-98.19773,19.32278],[-98.20277,19.32132],[-98.2141,19.32398],[-98.21865,19.31704],[-98.20989,19.31779],[-98.21697,19.29829],[-98.20842,19.28787],[-98.21003,19.28192],[-98.21526,19.27836],[-98.22368,19.28072],[-98.22224,19.27732],[-98.23289,19.26176],[-98.24048,19.26254],[-98.24538,19.26915],[-98.25371,19.26135],[-98.25892,19.2647],[-98.26821,19.27987],[-98.27434,19.27878],[-98.27756,19.28441],[-98.2801,19.28273],[-98.29445,19.28964],[-98.2672,19.30656],[-98.24672,19.32692],[-98.23977,19.32101],[-98.2241,19.33028],[-98.22308,19.33584],[-98.23791,19.35958],[-98.23371,19.36706],[-98.22958,19.3676],[-98.23023,19.37089],[-98.22072,19.37186]]]}},{"type":"Feature","properties":{"code":"29023","stateCode":"29","municipalityCode":"023","name":"Natívitas"},"geometry":{"type":"Polygon","coordinates":[[[-98.32055,19.29233],[-98.31493,19.28677],[-98.29844,19.28282],[-98.29817,19.27673],[-98.30225,19.26311],[-98.31129,19.26389],[-98.31539,19.25901],[-98.31989,19.26203],[-98.32422,19.25231],[-98.33244,19.25159],[-98.33278,19.24468],[-98.3154,19.23825],[-98.3071,19.22975],[-98.30496,19.22203],[-98.29784,19.21829],[-98.30314,19.2163],[-98.30059,19.20841],[-98.30298,19.20927],[-98.30435,19.20156],[-98.30207,19.19775],[-98.31666,19.19207],[-98.31217,19.1904],[-98.32393,19.16866],[-98.34271,19.17794],[-98.33789,19.19205],[-98.33068,19.20015],[-98.33494,19.20447],[-98.34416,19.2053],[-98.35441,19.22086],[-98.36892,19.22612],[-98.36455,19.23313],[-98.3704,19.23602],[-98.37804,19.25458],[-98.35871,19.24985],[-98.35333,19.26747],[-98.3254,19.2799],[-98.32844,19.28668],[-98.32055,19.29233]]]}},{"type":"Feature","properties":{"code":"29050","stateCode":"29","municipalityCode":"050","name":"San Francisco Tetlanohcan"},"geometry":{"type":"Polygon","coordinates":[[[-98.04408,19.28989],[-98.04106,19.28797],[-98.04293,19.28485],[-98.03951,19.28602],[-98.03771,19.28196],[-98.03257,19.26285],[-98.03384,19.23173],[-98.06431,19.23357],[-98.10647,19.24667],[-98.1703,19.25439],[-98.1707,19.25833],[-98.18125,19.25528],[-98.18388,19.25772],[-98.18279,19.26301],[-98.18879,19.26388],[-98.18154,19.27023],[-98.17301,19.2685],[-98.17103,19.27373],[-98.16327,19.27042],[-98.16274,19.27392],[-98.16208,19.26881],[-98.09337,19.24969],[-98.08559,19.25627],[-98.07298,19.2789],[-98.06913,19.27836],[-98.0702,19.28076],[-98.063,19.28624],[-98.04408,19.28989]]]}},{"type":"Feature","properties":{"code":"29041","stateCode":"29","municipalityCode":"041","name":"Papalotla de Xicohténcatl"},"geometry":{"type":"Polygon","coordinates":[[[-98.20814,19.20341],[-98.17555,19.2035],[-98.18242,19.19626],[-98.19132,19.19419],[-98.18956,19.19152],[-98.19472,19.17968],[-98.18892,19.17619],[-98.18869,19.17264],[-98.15653,19.18107],[-98.14318,19.18759],[-98.15494,19.16809],[-98.17378,19.16135],[-98.18355,19.16183],[-98.18622,19.16821],[-98.201,19.16473],[-98.20264,19.15272],[-98.21233,19.14991],[-98.21554,19.14394],[-98.22457,19.13806],[-98.22988,19.14873],[-98.22962,19.15601],[-98.23751,19.15757],[-98.23345,19.15832],[-98.23462,19.16211],[-98.23162,19.16114],[-98.23013,19.16556],[-98.22424,19.16608],[-98.22607,19.1746],[-98.21519,19.17439],[-98.20428,19.18596],[-98.20076,19.18509],[-98.2005,19.19556],[-98.21135,19.19661],[-98.20814,19.20341]]]}},{"type":"Feature","properties":{"code":"29057","stateCode":"29","municipalityCode":"057","name":"Santa Apolonia Teacalco"},"geometry":{"type":"Polygon","coordinates":[[[-98.31129,19.26389],[-98.30225,19.26311],[-98.30547,19.25181],[-98.29876,19.22059],[-98.30496,19.22203],[-98.3071,19.22975],[-98.3154,19.23825],[-98.33278,19.24468],[-98.33244,19.25159],[-98.32422,19.25231],[-98.32075,19.26142],[-98.31539,19.25901],[-98.31129,19.26389]]]}},{"type":"Feature","properties":{"code":"29048","stateCode":"29","municipalityCode":"048","name":"La Magdalena Tlaltelulco"},"geometry":{"type":"Polygon","coordinates":[[[-98.19519,19.30235],[-98.18754,19.29667],[-98.18956,19.29343],[-98.18597,19.29054],[-98.18645,19.28674],[-98.16096,19.27616],[-98.16327,19.27042],[-98.17103,19.27373],[-98.17301,19.2685],[-98.18199,19.27004],[-98.18879,19.26388],[-98.18279,19.26301],[-98.18388,19.25772],[-98.19485,19.25833],[-98.19607,19.26513],[-98.20357,19.26537],[-98.20887,19.26945],[-98.20978,19.27537],[-98.20601,19.27589],[-98.21526,19.27836],[-98.20917,19.28317],[-98.2099,19.28927],[-98.20433,19.28852],[-98.19519,19.30235]]]}},{"type":"Feature","properties":{"code":"29020","stateCode":"29","municipalityCode":"020","name":"Sanctórum de Lázaro Cárdenas"},"geometry":{"type":"MultiPolygon","coordinates":[[[[-98.50534,19.49446],[-98.49477,19.48307],[-98.50444,19.47183],[-98.50612,19.46065],[-98.49972,19.4616],[-98.49513,19.45564],[-98.49841,19.45214],[-98.49385,19.44784],[-98.49888,19.44142],[-98.49179,19.43018],[-98.5056,19.43159],[-98.50826,19.4269],[-98.51644,19.43951],[-98.52319,19.46087],[-98.5415,19.46082],[-98.54304,19.46491],[-98.53914,19.46938],[-98.53648,19.46621],[-98.53048,19.46799],[-98.52793,19.47788],[-98.51869,19.47603],[-98.51796,19.488],[-98.50534,19.49446]]],[[[-98.48997,19.61976],[-98.46675,19.61371],[-98.45071,19.61809],[-98.44142,19.61258],[-98.40956,19.61669],[-98.41177,19.60483],[-98.44697,19.61102],[-98.45883,19.59679],[-98.4329,19.58678],[-98.43447,19.58266],[-98.42813,19.58105],[-98.43061,19.57936],[-98.41479,19.58025],[-98.38514,19.57598],[-98.39336,19.56455],[-98.39241,19.56103],[-98.39749,19.55691],[-98.39316,19.55219],[-98.396,19.54637],[-98.39135,19.54538],[-98.39336,19.54232],[-98.41979,19.52951],[-98.41797,19.52077],[-98.40864,19.51129],[-98.4101,19.50478],[-98.39346,19.50326],[-98.39576,19.48967],[-98.41222,19.49049],[-98.42745,19.4996],[-98.44092,19.4907],[-98.44578,19.48361],[-98.46098,19.48932],[-98.46549,19.48469],[-98.47096,19.48443],[-98.47458,19.48879],[-98.47803,19.48782],[-98.47778,19.49373],[-98.48292,19.49228],[-98.48519,19.49786],[-98.50286,19.49978],[-98.49311,19.50828],[-98.48352,19.50921],[-98.47238,19.51525],[-98.464,19.53104],[-98.45341,19.52938],[-98.44814,19.53922],[-98.43861,19.53905],[-98.43592,19.56727],[-98.47305,19.5752],[-98.49158,19.60728],[-98.48997,19.61976]]]]}},{"type":"Feature","properties":{"code":"29017","stateCode":"29","municipalityCode":"017","name":"Mazatecochco de José María Morelos"},"geometry":{"type":"Polygon","coordinates":[[[-98.15212,19.20426],[-98.12878,19.21164],[-98.14318,19.18759],[-98.14976,19.18396],[-98.18869,19.17264],[-98.18892,19.17619],[-98.1944,19.17852],[-98.18956,19.19152],[-98.19132,19.19419],[-98.18242,19.19626],[-98.17464,19.20272],[-98.15212,19.20426]]]}},{"type":"Feature","properties":{"code":"29056","stateCode":"29","municipalityCode":"056","name":"Santa Ana Nopalucan"},"geometry":{"type":"Polygon","coordinates":[[[-98.32055,19.31691],[-98.3192,19.29467],[-98.32844,19.28668],[-98.32448,19.28075],[-98.33841,19.27218],[-98.34842,19.27001],[-98.34175,19.27644],[-98.34347,19.2845],[-98.33554,19.28421],[-98.33592,19.29108],[-98.34408,19.30344],[-98.34955,19.30105],[-98.35631,19.30335],[-98.34279,19.31047],[-98.34441,19.31164],[-98.32055,19.31691]]]}},{"type":"Feature","properties":{"code":"29002","stateCode":"29","municipalityCode":"002","name":"Apetatitlán de Antonio Carvajal"},"geometry":{"type":"Polygon","coordinates":[[[-98.20127,19.37719],[-98.19466,19.37534],[-98.19305,19.36424],[-98.18411,19.36626],[-98.18486,19.35818],[-98.17807,19.35547],[-98.17754,19.35917],[-98.17393,19.35727],[-98.17893,19.35008],[-98.17811,19.34319],[-98.19187,19.33504],[-98.18619,19.32912],[-98.19044,19.32378],[-98.19403,19.32556],[-98.19405,19.32957],[-98.21085,19.32863],[-98.19986,19.34458],[-98.20744,19.36228],[-98.21861,19.37055],[-98.20671,19.37022],[-98.20127,19.37719]]]}},{"type":"Feature","properties":{"code":"29007","stateCode":"29","municipalityCode":"007","name":"El Carmen Tequexquitla"},"geometry":{"type":"Polygon","coordinates":[[[-97.69806,19.3955],[-97.69381,19.38916],[-97.6813,19.3883],[-97.67386,19.36747],[-97.66881,19.36835],[-97.65798,19.36367],[-97.65335,19.35887],[-97.65363,19.3538],[-97.64029,19.36075],[-97.63145,19.3554],[-97.63871,19.33826],[-97.62567,19.33139],[-97.62636,19.32393],[-97.63285,19.32028],[-97.63312,19.31616],[-97.63895,19.31905],[-97.64609,19.30641],[-97.65804,19.31066],[-97.66952,19.29213],[-97.67761,19.29267],[-97.69093,19.28589],[-97.70125,19.29569],[-97.71575,19.29785],[-97.71964,19.30475],[-97.69613,19.31813],[-97.69048,19.31359],[-97.68555,19.31622],[-97.68932,19.31789],[-97.68596,19.3222],[-97.68748,19.32941],[-97.70731,19.32861],[-97.71282,19.33283],[-97.70936,19.3408],[-97.68434,19.34043],[-97.69999,19.34473],[-97.69188,19.35995],[-97.69025,19.372],[-97.69974,19.36853],[-97.70377,19.36155],[-97.70987,19.36831],[-97.70625,19.37504],[-97.71003,19.3786],[-97.70738,19.38844],[-97.69806,19.3955]]]}},{"type":"Feature","properties":{"code":"29004","stateCode":"29","municipalityCode":"004","name":"Atltzayanca"},"geometry":{"type":"Polygon","coordinates":[[[-97.79513,19.49682],[-97.79686,19.47244],[-97.78658,19.47045],[-97.77805,19.47288],[-97.77396,19.46917],[-97.77392,19.45956],[-97.77071,19.45661],[-97.7548,19.45754],[-97.75665,19.4525],[-97.74786,19.45123],[-97.74469,19.44504],[-97.74728,19.43633],[-97.74174,19.43223],[-97.7341,19.43498],[-97.72453,19.43164],[-97.72114,19.41858],[-97.7066,19.40315],[-97.70759,19.39879],[-97.70385,19.39245],[-97.71003,19.3786],[-97.70625,19.37504],[-97.70876,19.3697],[-97.71274,19.36469],[-97.71637,19.36842],[-97.72462,19.3592],[-97.72212,19.35875],[-97.72294,19.35523],[-97.73687,19.35788],[-97.73677,19.35199],[-97.72122,19.34289],[-97.72686,19.33579],[-97.7291,19.32609],[-97.73664,19.33078],[-97.75658,19.33459],[-97.75228,19.34166],[-97.75557,19.34318],[-97.74989,19.35989],[-97.77729,19.35476],[-97.78739,19.36082],[-97.78923,19.3527],[-97.797,19.35272],[-97.80705,19.36066],[-97.81134,19.35793],[-97.81091,19.3693],[-97.82962,19.36768],[-97.85479,19.39424],[-97.86651,19.37788],[-97.87518,19.38721],[-97.87333,19.40991],[-97.8799,19.44242],[-97.8768,19.44828],[-97.88122,19.44729],[-97.88288,19.44321],[-97.88812,19.45012],[-97.88063,19.45546],[-97.86786,19.45706],[-97.85942,19.45435],[-97.84611,19.46883],[-97.81475,19.48252],[-97.81257,19.48686],[-97.79513,19.49682]]]}},{"type":"Feature","properties":{"code":"29012","stateCode":"29","municipalityCode":"012","name":"Españita"},"geometry":{"type":"Polygon","coordinates":[[[-98.42691,19.4996],[-98.41222,19.49049],[-98.39465,19.48938],[-98.3816,19.47916],[-98.37652,19.48055],[-98.3751,19.47815],[-98.38028,19.46951],[-98.37678,19.46472],[-98.36268,19.46077],[-98.35697,19.45158],[-98.34988,19.44927],[-98.34965,19.43162],[-98.35992,19.4301],[-98.37599,19.41384],[-98.37801,19.4183],[-98.38145,19.41785],[-98.38106,19.41355],[-98.38828,19.41903],[-98.40484,19.41411],[-98.41506,19.41829],[-98.42066,19.3955],[-98.42848,19.38621],[-98.42999,19.39172],[-98.436,19.38482],[-98.4422,19.38579],[-98.4402,19.39511],[-98.44555,19.39802],[-98.45254,19.38902],[-98.45875,19.38857],[-98.46648,19.38166],[-98.4872,19.39223],[-98.49052,19.40407],[-98.50826,19.4269],[-98.5056,19.43159],[-98.49179,19.43018],[-98.49888,19.44142],[-98.49385,19.44784],[-98.49841,19.45214],[-98.49513,19.45564],[-98.49972,19.4616],[-98.50612,19.46065],[-98.50444,19.47183],[-98.49469,19.4816],[-98.49585,19.48653],[-98.50284,19.48935],[-98.50487,19.49428],[-98.50202,19.49545],[-98.50286,19.49978],[-98.48519,19.49786],[-98.48292,19.49228],[-98.47778,19.49373],[-98.47803,19.48782],[-98.47458,19.48879],[-98.47226,19.48477],[-98.46549,19.48469],[-98.46098,19.48932],[-98.44578,19.48361],[-98.43349,19.49709],[-98.42691,19.4996]]]}},{"type":"Feature","properties":{"code":"29029","stateCode":"29","municipalityCode":"029","name":"Tepeyanco"},"geometry":{"type":"Polygon","coordinates":[[[-98.22197,19.27724],[-98.2191,19.26124],[-98.20608,19.2526],[-98.20996,19.24578],[-98.21452,19.24591],[-98.215,19.24189],[-98.20835,19.24129],[-98.20937,19.23609],[-98.22629,19.23468],[-98.22729,19.23138],[-98.22153,19.22659],[-98.21103,19.22762],[-98.21321,19.21647],[-98.23167,19.22119],[-98.23342,19.2247],[-98.23061,19.2271],[-98.24354,19.23565],[-98.24416,19.24589],[-98.24046,19.24832],[-98.2536,19.25768],[-98.25346,19.26134],[-98.24538,19.26915],[-98.24048,19.26254],[-98.23289,19.26176],[-98.22622,19.275],[-98.22197,19.27724]]]}},{"type":"Feature","properties":{"code":"29028","stateCode":"29","municipalityCode":"028","name":"Teolocholco"},"geometry":{"type":"Polygon","coordinates":[[[-98.1707,19.25832],[-98.1703,19.25439],[-98.10647,19.24667],[-98.06431,19.23357],[-98.03384,19.23173],[-98.03169,19.23094],[-98.03453,19.21908],[-98.04153,19.21023],[-98.05933,19.20123],[-98.07757,19.17686],[-98.09981,19.16322],[-98.10068,19.18337],[-98.11045,19.20533],[-98.11019,19.21658],[-98.127,19.21467],[-98.12368,19.22247],[-98.14146,19.21897],[-98.16093,19.22069],[-98.17473,19.22485],[-98.17549,19.23103],[-98.18946,19.23115],[-98.2078,19.22727],[-98.20737,19.22438],[-98.21103,19.22762],[-98.22294,19.22697],[-98.22734,19.23078],[-98.22629,19.23468],[-98.20937,19.23609],[-98.20835,19.24129],[-98.215,19.24189],[-98.21452,19.24591],[-98.20717,19.2491],[-98.20732,19.24653],[-98.20406,19.24726],[-98.20419,19.25004],[-98.19243,19.24902],[-98.18885,19.25806],[-98.18002,19.25527],[-98.1707,19.25832]]]}},{"type":"Feature","properties":{"code":"29008","stateCode":"29","municipalityCode":"008","name":"Cuapiaxtla"},"geometry":{"type":"Polygon","coordinates":[[[-97.85456,19.39387],[-97.82962,19.36768],[-97.81091,19.3693],[-97.81134,19.35793],[-97.80705,19.36066],[-97.797,19.35272],[-97.78923,19.3527],[-97.78739,19.36082],[-97.77729,19.35476],[-97.74989,19.35989],[-97.75557,19.34318],[-97.75228,19.34166],[-97.75658,19.33459],[-97.73664,19.33078],[-97.72931,19.32611],[-97.72122,19.34289],[-97.73677,19.35199],[-97.73687,19.35788],[-97.72294,19.35523],[-97.72212,19.35875],[-97.72462,19.3592],[-97.71637,19.36842],[-97.71274,19.36469],[-97.71024,19.36871],[-97.70377,19.36155],[-97.69982,19.36847],[-97.69052,19.37217],[-97.69188,19.35995],[-97.69999,19.34473],[-97.68434,19.34043],[-97.70936,19.3408],[-97.71282,19.33283],[-97.70731,19.32861],[-97.68748,19.32941],[-97.68596,19.3222],[-97.68932,19.31789],[-97.68555,19.31622],[-97.69048,19.31359],[-97.69613,19.31813],[-97.71077,19.30846],[-97.71757,19.30756],[-97.72932,19.29311],[-97.73833,19.2871],[-97.73703,19.29669],[-97.74509,19.30526],[-97.75705,19.29977],[-97.76509,19.28686],[-97.77139,19.28375],[-97.78542,19.28893],[-97.80047,19.30158],[-97.82098,19.30477],[-97.81688,19.31616],[-97.81088,19.31481],[-97.81273,19.32521],[-97.80877,19.32606],[-97.80152,19.34424],[-97.82335,19.35464],[-97.82023,19.36259],[-97.82358,19.36454],[-97.84699,19.36542],[-97.84997,19.36026],[-97.8524,19.36593],[-97.85556,19.36622],[-97.8587,19.3626],[-97.85649,19.37533],[-97.86494,19.3768],[-97.8675,19.37436],[-97.85456,19.39387]]]}},{"type":"Feature","properties":{"code":"29047","stateCode":"29","municipalityCode":"047","name":"Lázaro Cárdenas"},"geometry":{"type":"Polygon","coordinates":[[[-97.98328,19.57193],[-97.96827,19.55997],[-97.96824,19.54893],[-97.95461,19.55554],[-97.94852,19.54233],[-97.95828,19.54551],[-97.97268,19.54153],[-97.97136,19.5306],[-97.98183,19.52172],[-97.98114,19.50683],[-97.98822,19.50179],[-97.99469,19.50459],[-97.99469,19.5133],[-98.006,19.50046],[-98.00591,19.5045],[-98.01809,19.50581],[-98.02783,19.51059],[-98.01761,19.51829],[-98.02274,19.5221],[-98.0001,19.54296],[-97.98328,19.57193]]]}},{"type":"Feature","properties":{"code":"29039","stateCode":"29","municipalityCode":"039","name":"Xaloztoc"},"geometry":{"type":"Polygon","coordinates":[[[-98.04108,19.44876],[-98.01131,19.43324],[-98.00715,19.43796],[-97.99939,19.43835],[-97.99338,19.44255],[-97.97101,19.41434],[-97.98726,19.41449],[-97.98513,19.40963],[-97.99271,19.4041],[-97.98888,19.40105],[-97.99163,19.39823],[-97.99733,19.39869],[-98.01645,19.41614],[-98.01624,19.4087],[-98.02011,19.40266],[-98.03387,19.39707],[-98.03678,19.39446],[-98.03362,19.39204],[-98.04224,19.39036],[-98.04171,19.38631],[-98.03378,19.38604],[-98.03551,19.37697],[-98.04045,19.37647],[-98.04714,19.38368],[-98.08359,19.40397],[-98.07258,19.40137],[-98.06256,19.43311],[-98.05634,19.44189],[-98.05044,19.43769],[-98.04861,19.43999],[-98.04494,19.43536],[-98.03519,19.44071],[-98.04108,19.44876]]]}},{"type":"Feature","properties":{"code":"29005","stateCode":"29","municipalityCode":"005","name":"Apizaco"},"geometry":{"type":"Polygon","coordinates":[[[-98.15915,19.48011],[-98.15667,19.47838],[-98.15447,19.45884],[-98.15316,19.46076],[-98.14737,19.45738],[-98.14325,19.42609],[-98.13829,19.42455],[-98.13622,19.42791],[-98.13149,19.42455],[-98.11695,19.43789],[-98.11678,19.43078],[-98.11518,19.42821],[-98.11151,19.43223],[-98.10788,19.41852],[-98.10006,19.42184],[-98.09539,19.42007],[-98.09064,19.4258],[-98.09357,19.43439],[-98.08296,19.43235],[-98.07715,19.44113],[-98.05902,19.43869],[-98.07258,19.40137],[-98.09331,19.40619],[-98.09247,19.39434],[-98.10465,19.4089],[-98.10934,19.40796],[-98.117,19.41229],[-98.1272,19.40909],[-98.12478,19.40445],[-98.13255,19.40212],[-98.13057,19.39562],[-98.13907,19.39297],[-98.13425,19.37987],[-98.13914,19.37906],[-98.14132,19.38466],[-98.14017,19.37811],[-98.14951,19.37259],[-98.15252,19.37395],[-98.15476,19.37746],[-98.15096,19.37931],[-98.15754,19.38647],[-98.1561,19.38965],[-98.16188,19.39131],[-98.15549,19.40184],[-98.1577,19.40324],[-98.15504,19.4089],[-98.15212,19.41014],[-98.15717,19.41696],[-98.15272,19.42538],[-98.14876,19.42358],[-98.15047,19.43139],[-98.14709,19.43434],[-98.15708,19.44357],[-98.16205,19.44408],[-98.16664,19.43817],[-98.17354,19.44226],[-98.17824,19.43563],[-98.17981,19.438],[-98.17917,19.4743],[-98.17235,19.47097],[-98.16502,19.47251],[-98.15915,19.48011]]]}},{"type":"Feature","properties":{"code":"29045","stateCode":"29","municipalityCode":"045","name":"Benito Juárez"},"geometry":{"type":"Polygon","coordinates":[[[-98.3817,19.60936],[-98.37658,19.58785],[-98.36621,19.59449],[-98.36201,19.58639],[-98.3744,19.57751],[-98.37976,19.58344],[-98.38514,19.57598],[-98.41479,19.58025],[-98.43061,19.57936],[-98.42813,19.58105],[-98.43447,19.58266],[-98.4329,19.58678],[-98.45883,19.59679],[-98.44697,19.61102],[-98.41177,19.60483],[-98.40956,19.61669],[-98.3817,19.60936]]]}},{"type":"Feature","properties":{"code":"29016","stateCode":"29","municipalityCode":"016","name":"Ixtenco"},"geometry":{"type":"Polygon","coordinates":[[[-97.89391,19.28966],[-97.85405,19.25733],[-97.86611,19.2536],[-97.87794,19.24147],[-97.89592,19.23945],[-97.90188,19.22871],[-97.91139,19.22756],[-97.92635,19.24075],[-97.95723,19.24045],[-97.96046,19.23796],[-97.97711,19.23893],[-97.98482,19.24297],[-97.9784,19.2426],[-97.97413,19.24767],[-97.96773,19.24759],[-97.95825,19.25669],[-97.9245,19.27561],[-97.91726,19.2834],[-97.90299,19.29023],[-97.89391,19.28966]]]}},{"type":"Feature","properties":{"code":"29019","stateCode":"29","municipalityCode":"019","name":"Tepetitla de Lardizábal"},"geometry":{"type":"Polygon","coordinates":[[[-98.40753,19.31578],[-98.39373,19.3096],[-98.3869,19.30018],[-98.37864,19.30344],[-98.37054,19.29179],[-98.36409,19.29305],[-98.36193,19.28821],[-98.35136,19.28474],[-98.34974,19.27022],[-98.3555,19.26311],[-98.35871,19.24985],[-98.37804,19.25458],[-98.38127,19.26289],[-98.40133,19.2824],[-98.40176,19.28788],[-98.41009,19.29134],[-98.40753,19.31578]]]}},{"type":"Feature","properties":{"code":"29014","stateCode":"29","municipalityCode":"014","name":"Hueyotlipan"},"geometry":{"type":"Polygon","coordinates":[[[-98.37948,19.58314],[-98.3744,19.57751],[-98.37204,19.58001],[-98.36826,19.57346],[-98.32226,19.56669],[-98.32049,19.55028],[-98.32262,19.54295],[-98.29862,19.53774],[-98.30525,19.51158],[-98.29972,19.50765],[-98.2864,19.51245],[-98.27609,19.50808],[-98.28788,19.49088],[-98.28907,19.48514],[-98.28326,19.4785],[-98.28307,19.47158],[-98.2917,19.45852],[-98.29756,19.43605],[-98.29984,19.41895],[-98.29548,19.40341],[-98.29999,19.40134],[-98.29417,19.39585],[-98.30636,19.39146],[-98.31195,19.38472],[-98.33118,19.39381],[-98.33153,19.39716],[-98.33769,19.38372],[-98.34157,19.38313],[-98.34132,19.37608],[-98.35108,19.38805],[-98.35694,19.40741],[-98.36704,19.4115],[-98.36709,19.421],[-98.36374,19.42695],[-98.34965,19.43162],[-98.34988,19.44927],[-98.35697,19.45158],[-98.36268,19.46077],[-98.37711,19.46508],[-98.38028,19.46951],[-98.3751,19.47815],[-98.37652,19.48055],[-98.3816,19.47916],[-98.38352,19.48307],[-98.39568,19.48956],[-98.39346,19.50326],[-98.4101,19.50478],[-98.40864,19.51129],[-98.41797,19.52077],[-98.41969,19.52843],[-98.39336,19.54232],[-98.39135,19.54538],[-98.396,19.54637],[-98.39316,19.55219],[-98.39749,19.55691],[-98.37948,19.58314]]]}},{"type":"Feature","properties":{"code":"29015","stateCode":"29","municipalityCode":"015","name":"Ixtacuixtla de Mariano Matamoros"},"geometry":{"type":"Polygon","coordinates":[[[-98.36618,19.42191],[-98.3667,19.40982],[-98.35694,19.40741],[-98.35108,19.38805],[-98.34367,19.37632],[-98.34128,19.3761],[-98.34157,19.38313],[-98.33769,19.38372],[-98.33153,19.39716],[-98.33118,19.39381],[-98.31229,19.38481],[-98.31161,19.3848],[-98.3106,19.38728],[-98.3096,19.38775],[-98.3098,19.38197],[-98.30546,19.37838],[-98.30872,19.36486],[-98.30531,19.35744],[-98.3101,19.35046],[-98.30018,19.34731],[-98.30207,19.34185],[-98.30801,19.33912],[-98.30446,19.33789],[-98.31162,19.32674],[-98.3191,19.32644],[-98.32056,19.31692],[-98.34441,19.31164],[-98.34279,19.31047],[-98.35631,19.30335],[-98.34955,19.30105],[-98.34408,19.30344],[-98.33592,19.29108],[-98.33554,19.28421],[-98.34347,19.2845],[-98.34175,19.27644],[-98.34974,19.27022],[-98.35136,19.28474],[-98.36193,19.28821],[-98.36409,19.29305],[-98.37054,19.29179],[-98.37864,19.30344],[-98.3869,19.30018],[-98.39373,19.3096],[-98.4207,19.31995],[-98.42835,19.32758],[-98.44127,19.32525],[-98.45306,19.3448],[-98.47028,19.36083],[-98.4873,19.39019],[-98.48603,19.39222],[-98.46648,19.38166],[-98.45875,19.38857],[-98.45254,19.38902],[-98.44511,19.39803],[-98.4402,19.39511],[-98.44245,19.38597],[-98.436,19.38482],[-98.42999,19.39172],[-98.42905,19.38585],[-98.42066,19.3955],[-98.41506,19.41829],[-98.40484,19.41411],[-98.38828,19.41903],[-98.38106,19.41355],[-98.38145,19.41785],[-98.37801,19.4183],[-98.37599,19.41384],[-98.37137,19.42128],[-98.36618,19.42191]]]}},{"type":"Feature","properties":{"code":"29018","stateCode":"29","municipalityCode":"018","name":"Contla de Juan Cuamatzi"},"geometry":{"type":"Polygon","coordinates":[[[-98.17359,19.34378],[-98.16924,19.34036],[-98.15834,19.34026],[-98.13995,19.33401],[-98.11559,19.31776],[-98.11022,19.32254],[-98.09544,19.31924],[-98.09225,19.32368],[-98.08249,19.31721],[-98.07229,19.30028],[-98.0768,19.29583],[-98.08382,19.30057],[-98.09199,19.3002],[-98.11582,19.30799],[-98.10536,19.29878],[-98.11497,19.30131],[-98.11708,19.29898],[-98.1398,19.31411],[-98.14418,19.31485],[-98.1414,19.31014],[-98.14468,19.30908],[-98.18357,19.32523],[-98.19187,19.33504],[-98.17359,19.34378]]]}},{"type":"Feature","properties":{"code":"29038","stateCode":"29","municipalityCode":"038","name":"Tzompantepec"},"geometry":{"type":"Polygon","coordinates":[[[-98.11688,19.41227],[-98.10934,19.40796],[-98.10465,19.4089],[-98.09247,19.39434],[-98.09331,19.40619],[-98.08359,19.40397],[-98.04763,19.38398],[-98.04045,19.37647],[-98.03097,19.37577],[-98.02822,19.37166],[-98.03476,19.36582],[-98.03291,19.35622],[-98.03799,19.35444],[-98.05092,19.36107],[-98.06245,19.3596],[-98.06981,19.36758],[-98.07792,19.36409],[-98.0753,19.35909],[-98.08367,19.35709],[-98.10716,19.367],[-98.12249,19.36312],[-98.12867,19.36561],[-98.13023,19.3728],[-98.12746,19.3743],[-98.1215,19.39665],[-98.12739,19.40902],[-98.11688,19.41227]]]}},{"type":"Feature","properties":{"code":"29043","stateCode":"29","municipalityCode":"043","name":"Yauhquemehcan"},"geometry":{"type":"Polygon","coordinates":[[[-98.16183,19.44407],[-98.15687,19.44352],[-98.14709,19.43434],[-98.15047,19.43139],[-98.14876,19.42358],[-98.15272,19.42538],[-98.15717,19.41696],[-98.15212,19.41014],[-98.15504,19.4089],[-98.1577,19.40324],[-98.15549,19.40184],[-98.16188,19.39131],[-98.1561,19.38965],[-98.15754,19.38647],[-98.15096,19.37931],[-98.15434,19.37621],[-98.15059,19.37456],[-98.15313,19.37196],[-98.1677,19.37158],[-98.17711,19.36325],[-98.18411,19.36626],[-98.19305,19.36424],[-98.19466,19.37534],[-98.2022,19.37653],[-98.19867,19.38363],[-98.21251,19.38687],[-98.21622,19.39454],[-98.20296,19.40013],[-98.20797,19.41313],[-98.20515,19.41577],[-98.19661,19.41009],[-98.1905,19.41765],[-98.19287,19.42317],[-98.1888,19.43174],[-98.17849,19.43309],[-98.17778,19.4309],[-98.17816,19.43604],[-98.17354,19.44226],[-98.16664,19.43817],[-98.16183,19.44407]]]}},{"type":"Feature","properties":{"code":"29027","stateCode":"29","municipalityCode":"027","name":"Tenancingo"},"geometry":{"type":"Polygon","coordinates":[[[-98.15494,19.16809],[-98.16817,19.16064],[-98.1723,19.15404],[-98.16685,19.15011],[-98.18806,19.13555],[-98.19106,19.14002],[-98.20804,19.1327],[-98.22454,19.13793],[-98.21554,19.14394],[-98.21233,19.14991],[-98.20264,19.15272],[-98.201,19.16473],[-98.18622,19.16821],[-98.18355,19.16183],[-98.17378,19.16135],[-98.15494,19.16809]]]}},{"type":"Feature","properties":{"code":"29003","stateCode":"29","municipalityCode":"003","name":"Atlangatepec"},"geometry":{"type":"Polygon","coordinates":[[[-98.18423,19.60429],[-98.17574,19.59895],[-98.17449,19.59505],[-98.17828,19.58695],[-98.16363,19.59408],[-98.15748,19.58712],[-98.16542,19.56719],[-98.16184,19.56846],[-98.15972,19.56523],[-98.16787,19.55933],[-98.15888,19.55869],[-98.15418,19.5622],[-98.1475,19.55729],[-98.14818,19.55274],[-98.14451,19.54877],[-98.13755,19.56525],[-98.13335,19.56525],[-98.12561,19.55018],[-98.12878,19.54834],[-98.12809,19.54501],[-98.10449,19.53074],[-98.10661,19.52618],[-98.10134,19.51996],[-98.11309,19.51677],[-98.11274,19.50677],[-98.11802,19.50272],[-98.13681,19.50637],[-98.12997,19.51642],[-98.13456,19.5194],[-98.13987,19.51209],[-98.14724,19.51371],[-98.15708,19.51068],[-98.15379,19.50389],[-98.16058,19.49432],[-98.17077,19.49691],[-98.18144,19.48939],[-98.18233,19.50605],[-98.1914,19.5015],[-98.19444,19.50333],[-98.20877,19.49916],[-98.20258,19.50567],[-98.21039,19.51365],[-98.21866,19.51292],[-98.24544,19.5439],[-98.23913,19.56193],[-98.24786,19.58127],[-98.25232,19.57989],[-98.24641,19.59006],[-98.24224,19.58938],[-98.24248,19.58611],[-98.23353,19.58655],[-98.23282,19.59081],[-98.22327,19.59296],[-98.2091,19.58956],[-98.20385,19.58502],[-98.20379,19.5932],[-98.19903,19.59302],[-98.19396,19.58816],[-98.18874,19.59045],[-98.18977,19.60254],[-98.18423,19.60429]]]}}]}